{
"type": "FeatureCollection",
"name": "aristolochia-fimbriata-gbif",
"crs": { "type": "name", "properties": { "name": "urn:ogc:def:crs:OGC:1.3:CRS84" } },
"features": [
{ "type": "Feature", "properties": { "decimalLatitude": -29.013889, "decimalLongitude": -56.188889, "eventDate": "2015-01-13T00:00:00Z", "countryCode": "BR" }, "geometry": { "type": "Point", "coordinates": [ -56.188889, -29.013889 ] } },
{ "type": "Feature", "properties": { "decimalLatitude": 38.8429, "decimalLongitude": -76.9427, "eventDate": "2015-01-09T00:00:00Z", "countryCode": "US" }, "geometry": { "type": "Point", "coordinates": [ -76.9427, 38.8429 ] } },
{ "type": "Feature", "properties": { "decimalLatitude": -29.013889, "decimalLongitude": -56.188889, "eventDate": "2015-01-13T00:00:00Z", "countryCode": "BR" }, "geometry": { "type": "Point", "coordinates": [ -56.188889, -29.013889 ] } },
{ "type": "Feature", "properties": { "decimalLatitude": -29.013889, "decimalLongitude": -56.188889, "eventDate": "2015-01-13T00:00:00Z", "countryCode": "BR" }, "geometry": { "type": "Point", "coordinates": [ -56.188889, -29.013889 ] } },
{ "type": "Feature", "properties": { "decimalLatitude": 38.8429, "decimalLongitude": -76.9427, "eventDate": "2015-01-09T00:00:00Z", "countryCode": "US" }, "geometry": { "type": "Point", "coordinates": [ -76.9427, 38.8429 ] } },
{ "type": "Feature", "properties": { "decimalLatitude": 38.8429, "decimalLongitude": -76.9427, "eventDate": "2015-01-09T00:00:00Z", "countryCode": "US" }, "geometry": { "type": "Point", "coordinates": [ -76.9427, 38.8429 ] } },
{ "type": "Feature", "properties": { "decimalLatitude": 38.8429, "decimalLongitude": -76.9427, "eventDate": "2015-01-09T00:00:00Z", "countryCode": "US" }, "geometry": { "type": "Point", "coordinates": [ -76.9427, 38.8429 ] } },
{ "type": "Feature", "properties": { "decimalLatitude": 6.24, "decimalLongitude": -75.58, "eventDate": "2015-06-15T00:00:00Z", "countryCode": "CO" }, "geometry": { "type": "Point", "coordinates": [ -75.58, 6.24 ] } },
{ "type": "Feature", "properties": { "decimalLatitude": -18.230833, "decimalLongitude": -53.304722, "eventDate": "2015-11-19T00:00:00Z", "countryCode": "BR" }, "geometry": { "type": "Point", "coordinates": [ -53.304722, -18.230833 ] } },
{ "type": "Feature", "properties": { "decimalLatitude": -18.230833, "decimalLongitude": -53.304722, "eventDate": "2015-11-19T00:00:00Z", "countryCode": "BR" }, "geometry": { "type": "Point", "coordinates": [ -53.304722, -18.230833 ] } },
{ "type": "Feature", "properties": { "decimalLatitude": -35.259164, "decimalLongitude": -57.250274, "eventDate": "2016-03-20T11:55:00Z", "countryCode": "AR" }, "geometry": { "type": "Point", "coordinates": [ -57.250274, -35.259164 ] } },
{ "type": "Feature", "properties": { "decimalLatitude": 38.8921, "decimalLongitude": -77.0277, "eventDate": "2016-06-02T00:00:00Z", "countryCode": "US" }, "geometry": { "type": "Point", "coordinates": [ -77.0277, 38.8921 ] } },
{ "type": "Feature", "properties": { "decimalLatitude": 38.8921, "decimalLongitude": -77.0277, "eventDate": "2016-06-02T00:00:00Z", "countryCode": "US" }, "geometry": { "type": "Point", "coordinates": [ -77.0277, 38.8921 ] } },
{ "type": "Feature", "properties": { "decimalLatitude": 38.8921, "decimalLongitude": -77.0277, "eventDate": "2016-06-02T00:00:00Z", "countryCode": "US" }, "geometry": { "type": "Point", "coordinates": [ -77.0277, 38.8921 ] } },
{ "type": "Feature", "properties": { "decimalLatitude": 38.8921, "decimalLongitude": -77.0277, "eventDate": "2016-06-02T00:00:00Z", "countryCode": "US" }, "geometry": { "type": "Point", "coordinates": [ -77.0277, 38.8921 ] } },
{ "type": "Feature", "properties": { "decimalLatitude": -31.770278, "decimalLongitude": -52.237222, "eventDate": "2016-11-13T00:00:00Z", "countryCode": "BR" }, "geometry": { "type": "Point", "coordinates": [ -52.237222, -31.770278 ] } },
{ "type": "Feature", "properties": { "decimalLatitude": 29.840551, "decimalLongitude": -98.4105, "eventDate": "2017-03-11T18:29:00Z", "countryCode": "US" }, "geometry": { "type": "Point", "coordinates": [ -98.4105, 29.840551 ] } },
{ "type": "Feature", "properties": { "decimalLatitude": 30.578806, "decimalLongitude": -97.853069, "eventDate": "2017-04-17T19:29:00Z", "countryCode": "US" }, "geometry": { "type": "Point", "coordinates": [ -97.853069, 30.578806 ] } },
{ "type": "Feature", "properties": { "decimalLatitude": 33.060885, "decimalLongitude": -97.130073, "eventDate": "2017-04-14T15:09:00Z", "countryCode": "US" }, "geometry": { "type": "Point", "coordinates": [ -97.130073, 33.060885 ] } },
{ "type": "Feature", "properties": { "decimalLatitude": 32.768772, "decimalLongitude": -97.15963, "eventDate": "2017-04-15T10:35:00Z", "countryCode": "US" }, "geometry": { "type": "Point", "coordinates": [ -97.15963, 32.768772 ] } },
{ "type": "Feature", "properties": { "decimalLatitude": 30.53875, "decimalLongitude": -97.841888, "eventDate": "2017-08-11T17:21:00Z", "countryCode": "US" }, "geometry": { "type": "Point", "coordinates": [ -97.841888, 30.53875 ] } },
{ "type": "Feature", "properties": { "decimalLatitude": -18.231389, "decimalLongitude": -53.3075, "eventDate": "2017-10-24T00:00:00Z", "countryCode": "BR" }, "geometry": { "type": "Point", "coordinates": [ -53.3075, -18.231389 ] } },
{ "type": "Feature", "properties": { "decimalLatitude": -18.231389, "decimalLongitude": -53.3075, "eventDate": "2017-10-24T00:00:00Z", "countryCode": "BR" }, "geometry": { "type": "Point", "coordinates": [ -53.3075, -18.231389 ] } },
{ "type": "Feature", "properties": { "decimalLatitude": -32.336957, "decimalLongitude": -58.26584, "eventDate": "2017-11-25T10:44:00Z", "countryCode": "AR" }, "geometry": { "type": "Point", "coordinates": [ -58.26584, -32.336957 ] } },
{ "type": "Feature", "properties": { "decimalLatitude": 30.94306, "decimalLongitude": -93.051035, "eventDate": "2018-07-29T00:00:00Z", "countryCode": "US" }, "geometry": { "type": "Point", "coordinates": [ -93.051035, 30.94306 ] } },
{ "type": "Feature", "properties": { "decimalLatitude": 29.771953, "decimalLongitude": -98.099756, "eventDate": "2018-09-23T16:58:21Z", "countryCode": "US" }, "geometry": { "type": "Point", "coordinates": [ -98.099756, 29.771953 ] } },
{ "type": "Feature", "properties": { "decimalLatitude": -34.824332, "decimalLongitude": -58.169583, "eventDate": "2018-11-08T17:43:01.126Z", "countryCode": "AR" }, "geometry": { "type": "Point", "coordinates": [ -58.169583, -34.824332 ] } },
{ "type": "Feature", "properties": { "decimalLatitude": -34.824332, "decimalLongitude": -58.169583, "eventDate": "2018-11-08T14:48:04Z", "countryCode": "AR" }, "geometry": { "type": "Point", "coordinates": [ -58.169583, -34.824332 ] } },
{ "type": "Feature", "properties": { "decimalLatitude": -34.824332, "decimalLongitude": -58.169583, "eventDate": "2018-11-08T14:45:42.253Z", "countryCode": "AR" }, "geometry": { "type": "Point", "coordinates": [ -58.169583, -34.824332 ] } },
{ "type": "Feature", "properties": { "decimalLatitude": -33.040702, "decimalLongitude": -58.4547, "eventDate": "2019-02-03T11:13:00Z", "countryCode": "AR" }, "geometry": { "type": "Point", "coordinates": [ -58.4547, -33.040702 ] } },
{ "type": "Feature", "properties": { "decimalLatitude": 29.439311, "decimalLongitude": -95.224872, "eventDate": "2019-04-28T09:38:00Z", "countryCode": "US" }, "geometry": { "type": "Point", "coordinates": [ -95.224872, 29.439311 ] } },
{ "type": "Feature", "properties": { "decimalLatitude": -32.045981, "decimalLongitude": -52.124829, "eventDate": "2019-04-21T14:03:37.148Z", "countryCode": "BR" }, "geometry": { "type": "Point", "coordinates": [ -52.124829, -32.045981 ] } },
{ "type": "Feature", "properties": { "decimalLatitude": -34.797813, "decimalLongitude": -54.915573, "eventDate": "2019-04-20T13:06:04.189Z", "countryCode": "UY" }, "geometry": { "type": "Point", "coordinates": [ -54.915573, -34.797813 ] } },
{ "type": "Feature", "properties": { "decimalLatitude": -34.799553, "decimalLongitude": -54.921505, "eventDate": "2019-04-15T17:42:19.474Z", "countryCode": "UY" }, "geometry": { "type": "Point", "coordinates": [ -54.921505, -34.799553 ] } },
{ "type": "Feature", "properties": { "decimalLatitude": -34.797813, "decimalLongitude": -54.915573, "eventDate": "2019-04-20T13:04:33.355Z", "countryCode": "UY" }, "geometry": { "type": "Point", "coordinates": [ -54.915573, -34.797813 ] } },
{ "type": "Feature", "properties": { "decimalLatitude": -33.012578, "decimalLongitude": -58.491425, "eventDate": "2019-04-27T00:00:00Z", "countryCode": "AR" }, "geometry": { "type": "Point", "coordinates": [ -58.491425, -33.012578 ] } },
{ "type": "Feature", "properties": { "decimalLatitude": 30.943213, "decimalLongitude": -93.050011, "eventDate": "2019-07-22T12:04:15Z", "countryCode": "US" }, "geometry": { "type": "Point", "coordinates": [ -93.050011, 30.943213 ] } },
{ "type": "Feature", "properties": { "decimalLatitude": 35.325311, "decimalLongitude": -94.301375, "eventDate": "2019-08-16T09:45:00Z", "countryCode": "US" }, "geometry": { "type": "Point", "coordinates": [ -94.301375, 35.325311 ] } },
{ "type": "Feature", "properties": { "decimalLatitude": 48.402674, "decimalLongitude": -4.448231, "eventDate": "2019-10-09T00:00:00Z", "countryCode": "FR" }, "geometry": { "type": "Point", "coordinates": [ -4.448231, 48.402674 ] } },
{ "type": "Feature", "properties": { "decimalLatitude": -29.713282, "decimalLongitude": -57.089461, "eventDate": "2019-10-18T14:14:48.797Z", "countryCode": "AR" }, "geometry": { "type": "Point", "coordinates": [ -57.089461, -29.713282 ] } },
{ "type": "Feature", "properties": { "decimalLatitude": -34.771667, "decimalLongitude": -58.654167, "eventDate": "2019-11-04T19:05:10.136Z", "countryCode": "AR" }, "geometry": { "type": "Point", "coordinates": [ -58.654167, -34.771667 ] } },
{ "type": "Feature", "properties": { "decimalLatitude": -34.771667, "decimalLongitude": -58.654167, "eventDate": "2019-11-04T19:05:45.419Z", "countryCode": "AR" }, "geometry": { "type": "Point", "coordinates": [ -58.654167, -34.771667 ] } },
{ "type": "Feature", "properties": { "decimalLatitude": -33.016514, "decimalLongitude": -60.881808, "eventDate": "2019-12-07T21:23:41.687Z", "countryCode": "AR" }, "geometry": { "type": "Point", "coordinates": [ -60.881808, -33.016514 ] } },
{ "type": "Feature", "properties": { "decimalLatitude": -34.608063, "decimalLongitude": -58.350964, "eventDate": "2020-01-05T16:01:00Z", "countryCode": "AR" }, "geometry": { "type": "Point", "coordinates": [ -58.350964, -34.608063 ] } },
{ "type": "Feature", "properties": { "decimalLatitude": -34.753679, "decimalLongitude": -58.122825, "eventDate": "2020-01-18T02:12:00Z", "countryCode": "AR" }, "geometry": { "type": "Point", "coordinates": [ -58.122825, -34.753679 ] } },
{ "type": "Feature", "properties": { "decimalLatitude": -31.707394, "decimalLongitude": -55.981524, "eventDate": "2020-01-20T22:09:52.536Z", "countryCode": "UY" }, "geometry": { "type": "Point", "coordinates": [ -55.981524, -31.707394 ] } },
{ "type": "Feature", "properties": { "decimalLatitude": -34.723705, "decimalLongitude": -56.229736, "eventDate": "2020-01-15T17:18:33.995Z", "countryCode": "UY" }, "geometry": { "type": "Point", "coordinates": [ -56.229736, -34.723705 ] } },
{ "type": "Feature", "properties": { "decimalLatitude": -34.597649, "decimalLongitude": -58.361908, "eventDate": "2020-02-13T12:11:21Z", "countryCode": "AR" }, "geometry": { "type": "Point", "coordinates": [ -58.361908, -34.597649 ] } },
{ "type": "Feature", "properties": { "decimalLatitude": 51.478579, "decimalLongitude": -0.295545, "eventDate": "2020-02-26T00:00:00Z", "countryCode": "GB" }, "geometry": { "type": "Point", "coordinates": [ -0.295545, 51.478579 ] } },
{ "type": "Feature", "properties": { "decimalLatitude": -27.329092, "decimalLongitude": -58.952974, "eventDate": "2020-02-16T11:57:26Z", "countryCode": "AR" }, "geometry": { "type": "Point", "coordinates": [ -58.952974, -27.329092 ] } },
{ "type": "Feature", "properties": { "decimalLatitude": -30.663678, "decimalLongitude": -57.964511, "eventDate": "2020-03-06T00:00:00Z", "countryCode": "AR" }, "geometry": { "type": "Point", "coordinates": [ -57.964511, -30.663678 ] } },
{ "type": "Feature", "properties": { "decimalLatitude": 29.757814, "decimalLongitude": -98.686408, "eventDate": "2020-04-26T09:34:51Z", "countryCode": "US" }, "geometry": { "type": "Point", "coordinates": [ -98.686408, 29.757814 ] } },
{ "type": "Feature", "properties": { "decimalLatitude": 29.439676, "decimalLongitude": -95.224905, "eventDate": "2020-04-26T17:56:00Z", "countryCode": "US" }, "geometry": { "type": "Point", "coordinates": [ -95.224905, 29.439676 ] } },
{ "type": "Feature", "properties": { "decimalLatitude": 35.325647, "decimalLongitude": -94.301601, "eventDate": "2020-04-07T12:51:00Z", "countryCode": "US" }, "geometry": { "type": "Point", "coordinates": [ -94.301601, 35.325647 ] } },
{ "type": "Feature", "properties": { "decimalLatitude": -27.385104, "decimalLongitude": -55.592973, "eventDate": "2020-05-04T11:58:00Z", "countryCode": "AR" }, "geometry": { "type": "Point", "coordinates": [ -55.592973, -27.385104 ] } },
{ "type": "Feature", "properties": { "decimalLatitude": -27.385138, "decimalLongitude": -55.592825, "eventDate": "2020-05-23T13:42:00Z", "countryCode": "AR" }, "geometry": { "type": "Point", "coordinates": [ -55.592825, -27.385138 ] } },
{ "type": "Feature", "properties": { "decimalLatitude": 29.70636, "decimalLongitude": -98.161709, "eventDate": "2020-05-24T08:29:11Z", "countryCode": "US" }, "geometry": { "type": "Point", "coordinates": [ -98.161709, 29.70636 ] } },
{ "type": "Feature", "properties": { "decimalLatitude": 32.46798, "decimalLongitude": -96.567059, "eventDate": "2020-05-29T19:21:00Z", "countryCode": "US" }, "geometry": { "type": "Point", "coordinates": [ -96.567059, 32.46798 ] } },
{ "type": "Feature", "properties": { "decimalLatitude": 35.325647, "decimalLongitude": -94.301601, "eventDate": "2020-05-07T10:41:00Z", "countryCode": "US" }, "geometry": { "type": "Point", "coordinates": [ -94.301601, 35.325647 ] } },
{ "type": "Feature", "properties": { "decimalLatitude": 30.515153, "decimalLongitude": -97.718978, "eventDate": "2020-05-22T10:46:13Z", "countryCode": "US" }, "geometry": { "type": "Point", "coordinates": [ -97.718978, 30.515153 ] } },
{ "type": "Feature", "properties": { "decimalLatitude": -26.391079, "decimalLongitude": -58.367773, "eventDate": "2020-05-31T12:41:06Z", "countryCode": "AR" }, "geometry": { "type": "Point", "coordinates": [ -58.367773, -26.391079 ] } },
{ "type": "Feature", "properties": { "decimalLatitude": 35.325647, "decimalLongitude": -94.301601, "eventDate": "2020-06-07T11:08:00Z", "countryCode": "US" }, "geometry": { "type": "Point", "coordinates": [ -94.301601, 35.325647 ] } },
{ "type": "Feature", "properties": { "decimalLatitude": 30.46757, "decimalLongitude": -84.29098, "eventDate": "2020-06-27T00:00:00Z", "countryCode": "US" }, "geometry": { "type": "Point", "coordinates": [ -84.29098, 30.46757 ] } },
{ "type": "Feature", "properties": { "decimalLatitude": 30.46929, "decimalLongitude": -84.29127, "eventDate": "2020-07-03T00:00:00Z", "countryCode": "US" }, "geometry": { "type": "Point", "coordinates": [ -84.29127, 30.46929 ] } },
{ "type": "Feature", "properties": { "decimalLatitude": -27.385173, "decimalLongitude": -55.592798, "eventDate": "2020-09-17T17:17:00Z", "countryCode": "AR" }, "geometry": { "type": "Point", "coordinates": [ -55.592798, -27.385173 ] } },
{ "type": "Feature", "properties": { "decimalLatitude": 29.646649, "decimalLongitude": -98.421147, "eventDate": "2020-09-22T10:37:18Z", "countryCode": "US" }, "geometry": { "type": "Point", "coordinates": [ -98.421147, 29.646649 ] } },
{ "type": "Feature", "properties": { "decimalLatitude": -32.765437, "decimalLongitude": -59.947557, "eventDate": "2020-11-15T12:38:00Z", "countryCode": "AR" }, "geometry": { "type": "Point", "coordinates": [ -59.947557, -32.765437 ] } },
{ "type": "Feature", "properties": { "decimalLatitude": -34.597266, "decimalLongitude": -58.360285, "eventDate": "2020-11-27T10:57:00Z", "countryCode": "AR" }, "geometry": { "type": "Point", "coordinates": [ -58.360285, -34.597266 ] } },
{ "type": "Feature", "properties": { "decimalLatitude": -34.539269, "decimalLongitude": -59.16165, "eventDate": "2020-11-28T05:51:02Z", "countryCode": "AR" }, "geometry": { "type": "Point", "coordinates": [ -59.16165, -34.539269 ] } },
{ "type": "Feature", "properties": { "decimalLatitude": -34.539381, "decimalLongitude": -59.1616, "eventDate": "2020-11-28T05:52:21Z", "countryCode": "AR" }, "geometry": { "type": "Point", "coordinates": [ -59.1616, -34.539381 ] } },
{ "type": "Feature", "properties": { "decimalLatitude": -34.539386, "decimalLongitude": -59.161589, "eventDate": "2020-11-28T05:52:12Z", "countryCode": "AR" }, "geometry": { "type": "Point", "coordinates": [ -59.161589, -34.539386 ] } },
{ "type": "Feature", "properties": { "decimalLatitude": -28.501389, "decimalLongitude": -59.039722, "eventDate": "2020-11-02T21:12:33.652Z", "countryCode": "AR" }, "geometry": { "type": "Point", "coordinates": [ -59.039722, -28.501389 ] } },
{ "type": "Feature", "properties": { "decimalLatitude": -32.518395, "decimalLongitude": -58.051814, "eventDate": "2020-12-31T11:12:11Z", "countryCode": "UY" }, "geometry": { "type": "Point", "coordinates": [ -58.051814, -32.518395 ] } },
{ "type": "Feature", "properties": { "decimalLatitude": -34.717982, "decimalLongitude": -56.208613, "eventDate": "2020-12-10T09:46:17.868Z", "countryCode": "UY" }, "geometry": { "type": "Point", "coordinates": [ -56.208613, -34.717982 ] } },
{ "type": "Feature", "properties": { "decimalLatitude": -34.71787, "decimalLongitude": -56.208565, "eventDate": "2020-12-30T22:15:16.345Z", "countryCode": "UY" }, "geometry": { "type": "Point", "coordinates": [ -56.208565, -34.71787 ] } },
{ "type": "Feature", "properties": { "decimalLatitude": -31.79363, "decimalLongitude": -54.15656, "eventDate": "2020-12-01T00:00:00Z", "countryCode": "BR" }, "geometry": { "type": "Point", "coordinates": [ -54.15656, -31.79363 ] } },
{ "type": "Feature", "properties": { "decimalLatitude": -32.518074, "decimalLongitude": -58.051551, "eventDate": "2021-01-09T16:32:00Z", "countryCode": "UY" }, "geometry": { "type": "Point", "coordinates": [ -58.051551, -32.518074 ] } },
{ "type": "Feature", "properties": { "decimalLatitude": -34.681132, "decimalLongitude": -58.44516, "eventDate": "2021-01-27T09:55:00Z", "countryCode": "AR" }, "geometry": { "type": "Point", "coordinates": [ -58.44516, -34.681132 ] } },
{ "type": "Feature", "properties": { "decimalLatitude": -28.71564, "decimalLongitude": -50.33053, "eventDate": "2021-01-26T00:00:00Z", "countryCode": "BR" }, "geometry": { "type": "Point", "coordinates": [ -50.33053, -28.71564 ] } },
{ "type": "Feature", "properties": { "decimalLatitude": -32.037437, "decimalLongitude": -52.105578, "eventDate": "2021-01-05T16:46:42Z", "countryCode": "BR" }, "geometry": { "type": "Point", "coordinates": [ -52.105578, -32.037437 ] } },
{ "type": "Feature", "properties": { "decimalLatitude": -32.523328, "decimalLongitude": -58.035525, "eventDate": "2021-02-22T10:25:17Z", "countryCode": "UY" }, "geometry": { "type": "Point", "coordinates": [ -58.035525, -32.523328 ] } },
{ "type": "Feature", "properties": { "decimalLatitude": -34.49866, "decimalLongitude": -58.537703, "eventDate": "2021-02-07T11:28:27Z", "countryCode": "AR" }, "geometry": { "type": "Point", "coordinates": [ -58.537703, -34.49866 ] } },
{ "type": "Feature", "properties": { "decimalLatitude": -33.82904, "decimalLongitude": -59.417981, "eventDate": "2021-04-01T12:41:00Z", "countryCode": "AR" }, "geometry": { "type": "Point", "coordinates": [ -59.417981, -33.82904 ] } },
{ "type": "Feature", "properties": { "decimalLatitude": 29.771996, "decimalLongitude": -98.099741, "eventDate": "2021-04-30T12:53:07Z", "countryCode": "US" }, "geometry": { "type": "Point", "coordinates": [ -98.099741, 29.771996 ] } },
{ "type": "Feature", "properties": { "decimalLatitude": 29.706287, "decimalLongitude": -98.162153, "eventDate": "2021-04-30T08:38:20Z", "countryCode": "US" }, "geometry": { "type": "Point", "coordinates": [ -98.162153, 29.706287 ] } },
{ "type": "Feature", "properties": { "decimalLatitude": 33.029893, "decimalLongitude": -97.12753, "eventDate": "2021-04-30T15:38:00Z", "countryCode": "US" }, "geometry": { "type": "Point", "coordinates": [ -97.12753, 33.029893 ] } },
{ "type": "Feature", "properties": { "decimalLatitude": 30.541197, "decimalLongitude": -97.843147, "eventDate": "2021-04-30T14:33:00Z", "countryCode": "US" }, "geometry": { "type": "Point", "coordinates": [ -97.843147, 30.541197 ] } },
{ "type": "Feature", "properties": { "decimalLatitude": -30.831193, "decimalLongitude": -59.399669, "eventDate": "2021-04-07T17:08:00Z", "countryCode": "AR" }, "geometry": { "type": "Point", "coordinates": [ -59.399669, -30.831193 ] } },
{ "type": "Feature", "properties": { "decimalLatitude": 29.477309, "decimalLongitude": -95.530234, "eventDate": "2021-05-03T08:21:28Z", "countryCode": "US" }, "geometry": { "type": "Point", "coordinates": [ -95.530234, 29.477309 ] } },
{ "type": "Feature", "properties": { "decimalLatitude": 29.646718, "decimalLongitude": -98.421132, "eventDate": "2021-05-06T09:27:50Z", "countryCode": "US" }, "geometry": { "type": "Point", "coordinates": [ -98.421132, 29.646718 ] } },
{ "type": "Feature", "properties": { "decimalLatitude": 29.584458, "decimalLongitude": -98.502344, "eventDate": "2021-05-03T07:28:50Z", "countryCode": "US" }, "geometry": { "type": "Point", "coordinates": [ -98.502344, 29.584458 ] } },
{ "type": "Feature", "properties": { "decimalLatitude": 30.41793, "decimalLongitude": -97.789716, "eventDate": "2021-05-14T18:07:48Z", "countryCode": "US" }, "geometry": { "type": "Point", "coordinates": [ -97.789716, 30.41793 ] } },
{ "type": "Feature", "properties": { "decimalLatitude": 30.292601, "decimalLongitude": -95.320187, "eventDate": "2021-06-01T14:12:16Z", "countryCode": "US" }, "geometry": { "type": "Point", "coordinates": [ -95.320187, 30.292601 ] } },
{ "type": "Feature", "properties": { "decimalLatitude": 32.738873, "decimalLongitude": -97.365038, "eventDate": "2021-06-03T15:47:00Z", "countryCode": "US" }, "geometry": { "type": "Point", "coordinates": [ -97.365038, 32.738873 ] } },
{ "type": "Feature", "properties": { "decimalLatitude": 29.691953, "decimalLongitude": -98.343063, "eventDate": "2021-06-14T09:22:52Z", "countryCode": "US" }, "geometry": { "type": "Point", "coordinates": [ -98.343063, 29.691953 ] } },
{ "type": "Feature", "properties": { "decimalLatitude": 33.016928, "decimalLongitude": -97.098658, "eventDate": "2021-07-20T08:49:00Z", "countryCode": "US" }, "geometry": { "type": "Point", "coordinates": [ -97.098658, 33.016928 ] } },
{ "type": "Feature", "properties": { "decimalLatitude": -29.464583, "decimalLongitude": -56.813289, "eventDate": "2021-07-16T16:43:34Z", "countryCode": "AR" }, "geometry": { "type": "Point", "coordinates": [ -56.813289, -29.464583 ] } },
{ "type": "Feature", "properties": { "decimalLatitude": 32.739003, "decimalLongitude": -97.364963, "eventDate": "2021-07-24T13:06:00Z", "countryCode": "US" }, "geometry": { "type": "Point", "coordinates": [ -97.364963, 32.739003 ] } },
{ "type": "Feature", "properties": { "decimalLatitude": 33.029821, "decimalLongitude": -97.128474, "eventDate": "2021-10-01T15:47:00Z", "countryCode": "US" }, "geometry": { "type": "Point", "coordinates": [ -97.128474, 33.029821 ] } },
{ "type": "Feature", "properties": { "decimalLatitude": 29.439795, "decimalLongitude": -95.223938, "eventDate": "2021-10-04T13:10:00Z", "countryCode": "US" }, "geometry": { "type": "Point", "coordinates": [ -95.223938, 29.439795 ] } },
{ "type": "Feature", "properties": { "decimalLatitude": -31.827592, "decimalLongitude": -58.355133, "eventDate": "2021-10-11T13:00:00Z", "countryCode": "AR" }, "geometry": { "type": "Point", "coordinates": [ -58.355133, -31.827592 ] } },
{ "type": "Feature", "properties": { "decimalLatitude": 30.041931, "decimalLongitude": -96.004681, "eventDate": "2021-10-14T16:35:28Z", "countryCode": "US" }, "geometry": { "type": "Point", "coordinates": [ -96.004681, 30.041931 ] } },
{ "type": "Feature", "properties": { "decimalLatitude": -28.747222, "decimalLongitude": -58.655, "eventDate": "2021-10-23T16:23:36Z", "countryCode": "AR" }, "geometry": { "type": "Point", "coordinates": [ -58.655, -28.747222 ] } },
{ "type": "Feature", "properties": { "decimalLatitude": -28.05965, "decimalLongitude": -51.186519, "eventDate": "2021-11-02T10:12:54Z", "countryCode": "BR" }, "geometry": { "type": "Point", "coordinates": [ -51.186519, -28.05965 ] } },
{ "type": "Feature", "properties": { "decimalLatitude": -31.596476, "decimalLongitude": -60.674762, "eventDate": "2021-11-02T19:24:09.323Z", "countryCode": "AR" }, "geometry": { "type": "Point", "coordinates": [ -60.674762, -31.596476 ] } },
{ "type": "Feature", "properties": { "decimalLatitude": 33.060589, "decimalLongitude": -97.130614, "eventDate": "2021-12-28T09:05:41Z", "countryCode": "US" }, "geometry": { "type": "Point", "coordinates": [ -97.130614, 33.060589 ] } },
{ "type": "Feature", "properties": { "decimalLatitude": -34.58326, "decimalLongitude": -58.417017, "eventDate": "2021-12-11T15:08:17.112Z", "countryCode": "AR" }, "geometry": { "type": "Point", "coordinates": [ -58.417017, -34.58326 ] } },
{ "type": "Feature", "properties": { "decimalLatitude": -31.405743, "decimalLongitude": -58.019068, "eventDate": "2021-12-13T12:07:32.704Z", "countryCode": "AR" }, "geometry": { "type": "Point", "coordinates": [ -58.019068, -31.405743 ] } },
{ "type": "Feature", "properties": { "decimalLatitude": -31.189873, "decimalLongitude": -55.773455, "eventDate": "2021-12-12T20:02:05.697Z", "countryCode": "UY" }, "geometry": { "type": "Point", "coordinates": [ -55.773455, -31.189873 ] } },
{ "type": "Feature", "properties": { "decimalLatitude": -32.368073, "decimalLongitude": -54.187317, "eventDate": "2022-01-28T12:32:00Z", "countryCode": "UY" }, "geometry": { "type": "Point", "coordinates": [ -54.187317, -32.368073 ] } },
{ "type": "Feature", "properties": { "decimalLatitude": -34.378627, "decimalLongitude": -55.230708, "eventDate": "2022-01-03T16:06:39.200Z", "countryCode": "UY" }, "geometry": { "type": "Point", "coordinates": [ -55.230708, -34.378627 ] } },
{ "type": "Feature", "properties": { "decimalLatitude": -34.60241, "decimalLongitude": -58.51586, "eventDate": "2022-02-07T23:03:43Z", "countryCode": "AR" }, "geometry": { "type": "Point", "coordinates": [ -58.51586, -34.60241 ] } },
{ "type": "Feature", "properties": { "decimalLatitude": -31.727613, "decimalLongitude": -60.327123, "eventDate": "2022-02-09T18:13:00Z", "countryCode": "AR" }, "geometry": { "type": "Point", "coordinates": [ -60.327123, -31.727613 ] } },
{ "type": "Feature", "properties": { "decimalLatitude": 32.738988, "decimalLongitude": -97.365168, "eventDate": "2022-04-23T13:10:00Z", "countryCode": "US" }, "geometry": { "type": "Point", "coordinates": [ -97.365168, 32.738988 ] } },
{ "type": "Feature", "properties": { "decimalLatitude": 30.426337, "decimalLongitude": -91.038989, "eventDate": "2022-04-26T13:57:00Z", "countryCode": "US" }, "geometry": { "type": "Point", "coordinates": [ -91.038989, 30.426337 ] } },
{ "type": "Feature", "properties": { "decimalLatitude": -32.528274, "decimalLongitude": -54.133156, "eventDate": "2022-04-21T12:20:01Z", "countryCode": "UY" }, "geometry": { "type": "Point", "coordinates": [ -54.133156, -32.528274 ] } },
{ "type": "Feature", "properties": { "decimalLatitude": 30.426337, "decimalLongitude": -91.038989, "eventDate": "2022-04-29T09:33:00Z", "countryCode": "US" }, "geometry": { "type": "Point", "coordinates": [ -91.038989, 30.426337 ] } },
{ "type": "Feature", "properties": { "decimalLatitude": 30.40639, "decimalLongitude": -91.13211, "eventDate": "2022-04-30T19:21:19Z", "countryCode": "US" }, "geometry": { "type": "Point", "coordinates": [ -91.13211, 30.40639 ] } },
{ "type": "Feature", "properties": { "decimalLatitude": 29.440132, "decimalLongitude": -95.22492, "eventDate": "2022-04-29T13:08:00Z", "countryCode": "US" }, "geometry": { "type": "Point", "coordinates": [ -95.22492, 29.440132 ] } },
{ "type": "Feature", "properties": { "decimalLatitude": 32.73894, "decimalLongitude": -97.365127, "eventDate": "2022-04-29T16:00:00Z", "countryCode": "US" }, "geometry": { "type": "Point", "coordinates": [ -97.365127, 32.73894 ] } },
{ "type": "Feature", "properties": { "decimalLatitude": 27.712774, "decimalLongitude": -97.399361, "eventDate": "2022-04-30T14:50:31Z", "countryCode": "US" }, "geometry": { "type": "Point", "coordinates": [ -97.399361, 27.712774 ] } },
{ "type": "Feature", "properties": { "decimalLatitude": -29.10035, "decimalLongitude": -56.555012, "eventDate": "2022-04-14T15:17:30Z", "countryCode": "AR" }, "geometry": { "type": "Point", "coordinates": [ -56.555012, -29.10035 ] } },
{ "type": "Feature", "properties": { "decimalLatitude": 30.371877, "decimalLongitude": -90.984384, "eventDate": "2022-05-01T09:16:54Z", "countryCode": "US" }, "geometry": { "type": "Point", "coordinates": [ -90.984384, 30.371877 ] } },
{ "type": "Feature", "properties": { "decimalLatitude": 29.522453, "decimalLongitude": -98.637183, "eventDate": "2022-05-14T09:12:03Z", "countryCode": "US" }, "geometry": { "type": "Point", "coordinates": [ -98.637183, 29.522453 ] } },
{ "type": "Feature", "properties": { "decimalLatitude": 30.426395, "decimalLongitude": -91.038975, "eventDate": "2022-05-29T10:11:00Z", "countryCode": "US" }, "geometry": { "type": "Point", "coordinates": [ -91.038975, 30.426395 ] } },
{ "type": "Feature", "properties": { "decimalLatitude": 30.54798, "decimalLongitude": -97.85508, "eventDate": "2022-06-08T09:25:12Z", "countryCode": "US" }, "geometry": { "type": "Point", "coordinates": [ -97.85508, 30.54798 ] } },
{ "type": "Feature", "properties": { "decimalLatitude": 30.801967, "decimalLongitude": -92.303881, "eventDate": "2022-06-04T11:31:55Z", "countryCode": "US" }, "geometry": { "type": "Point", "coordinates": [ -92.303881, 30.801967 ] } },
{ "type": "Feature", "properties": { "decimalLatitude": -29.464434, "decimalLongitude": -56.813042, "eventDate": "2022-07-27T18:01:53Z", "countryCode": "AR" }, "geometry": { "type": "Point", "coordinates": [ -56.813042, -29.464434 ] } },
{ "type": "Feature", "properties": { "decimalLatitude": -31.725669, "decimalLongitude": -60.325214, "eventDate": "2022-08-15T16:31:00Z", "countryCode": "AR" }, "geometry": { "type": "Point", "coordinates": [ -60.325214, -31.725669 ] } },
{ "type": "Feature", "properties": { "decimalLatitude": 30.018088, "decimalLongitude": -97.896001, "eventDate": "2022-09-19T17:00:51Z", "countryCode": "US" }, "geometry": { "type": "Point", "coordinates": [ -97.896001, 30.018088 ] } },
{ "type": "Feature", "properties": { "decimalLatitude": 33.029821, "decimalLongitude": -97.128474, "eventDate": "2022-10-07T11:45:00Z", "countryCode": "US" }, "geometry": { "type": "Point", "coordinates": [ -97.128474, 33.029821 ] } },
{ "type": "Feature", "properties": { "decimalLatitude": 29.771793, "decimalLongitude": -98.099838, "eventDate": "2022-10-10T08:59:54Z", "countryCode": "US" }, "geometry": { "type": "Point", "coordinates": [ -98.099838, 29.771793 ] } },
{ "type": "Feature", "properties": { "decimalLatitude": 29.47293, "decimalLongitude": -98.799422, "eventDate": "2022-10-07T16:55:50Z", "countryCode": "US" }, "geometry": { "type": "Point", "coordinates": [ -98.799422, 29.47293 ] } },
{ "type": "Feature", "properties": { "decimalLatitude": -32.336487, "decimalLongitude": -58.080742, "eventDate": "2022-10-24T11:01:39Z", "countryCode": "UY" }, "geometry": { "type": "Point", "coordinates": [ -58.080742, -32.336487 ] } },
{ "type": "Feature", "properties": { "decimalLatitude": -33.999697, "decimalLongitude": -59.156027, "eventDate": "2022-10-17T17:58:00Z", "countryCode": "AR" }, "geometry": { "type": "Point", "coordinates": [ -59.156027, -33.999697 ] } },
{ "type": "Feature", "properties": { "decimalLatitude": -32.511244, "decimalLongitude": -58.296813, "eventDate": "2022-11-12T11:37:57Z", "countryCode": "AR" }, "geometry": { "type": "Point", "coordinates": [ -58.296813, -32.511244 ] } },
{ "type": "Feature", "properties": { "decimalLatitude": -32.456944, "decimalLongitude": -58.441111, "eventDate": "2022-11-09T19:32:54.212Z", "countryCode": "AR" }, "geometry": { "type": "Point", "coordinates": [ -58.441111, -32.456944 ] } },
{ "type": "Feature", "properties": { "decimalLatitude": -34.929988, "decimalLongitude": -57.764973, "eventDate": "2022-12-09T12:26:35Z", "countryCode": "AR" }, "geometry": { "type": "Point", "coordinates": [ -57.764973, -34.929988 ] } },
{ "type": "Feature", "properties": { "decimalLatitude": -34.792115, "decimalLongitude": -54.936831, "eventDate": "2022-12-28T19:08:34Z", "countryCode": "UY" }, "geometry": { "type": "Point", "coordinates": [ -54.936831, -34.792115 ] } },
{ "type": "Feature", "properties": { "decimalLatitude": -34.430663, "decimalLongitude": -54.644645, "eventDate": "2022-12-13T00:00:00Z", "countryCode": "UY" }, "geometry": { "type": "Point", "coordinates": [ -54.644645, -34.430663 ] } },
{ "type": "Feature", "properties": { "decimalLatitude": -34.771488, "decimalLongitude": -58.089905, "eventDate": "2023-01-08T13:09:00Z", "countryCode": "AR" }, "geometry": { "type": "Point", "coordinates": [ -58.089905, -34.771488 ] } },
{ "type": "Feature", "properties": { "decimalLatitude": -28.251564, "decimalLongitude": -58.622506, "eventDate": "2023-01-04T11:30:00Z", "countryCode": "AR" }, "geometry": { "type": "Point", "coordinates": [ -58.622506, -28.251564 ] } },
{ "type": "Feature", "properties": { "decimalLatitude": -34.792217, "decimalLongitude": -54.936691, "eventDate": "2023-01-11T19:16:12Z", "countryCode": "UY" }, "geometry": { "type": "Point", "coordinates": [ -54.936691, -34.792217 ] } },
{ "type": "Feature", "properties": { "decimalLatitude": -34.899519, "decimalLongitude": -57.806129, "eventDate": "2023-01-25T13:44:41Z", "countryCode": "AR" }, "geometry": { "type": "Point", "coordinates": [ -57.806129, -34.899519 ] } },
{ "type": "Feature", "properties": { "decimalLatitude": -32.17437, "decimalLongitude": -58.31161, "eventDate": "2023-01-12T19:15:00Z", "countryCode": "AR" }, "geometry": { "type": "Point", "coordinates": [ -58.31161, -32.17437 ] } },
{ "type": "Feature", "properties": { "decimalLatitude": -33.835096, "decimalLongitude": -59.404152, "eventDate": "2023-02-04T12:19:00Z", "countryCode": "AR" }, "geometry": { "type": "Point", "coordinates": [ -59.404152, -33.835096 ] } },
{ "type": "Feature", "properties": { "decimalLatitude": -33.831746, "decimalLongitude": -59.410329, "eventDate": "2023-02-04T15:12:00Z", "countryCode": "AR" }, "geometry": { "type": "Point", "coordinates": [ -59.410329, -33.831746 ] } },
{ "type": "Feature", "properties": { "decimalLatitude": -32.293906, "decimalLongitude": -59.155305, "eventDate": "2023-02-24T11:08:00Z", "countryCode": "AR" }, "geometry": { "type": "Point", "coordinates": [ -59.155305, -32.293906 ] } },
{ "type": "Feature", "properties": { "decimalLatitude": 29.432029, "decimalLongitude": -95.400777, "eventDate": "2023-03-01T11:25:38Z", "countryCode": "US" }, "geometry": { "type": "Point", "coordinates": [ -95.400777, 29.432029 ] } },
{ "type": "Feature", "properties": { "decimalLatitude": -32.366152, "decimalLongitude": -54.188583, "eventDate": "2023-04-03T08:37:00Z", "countryCode": "UY" }, "geometry": { "type": "Point", "coordinates": [ -54.188583, -32.366152 ] } },
{ "type": "Feature", "properties": { "decimalLatitude": -30.519262, "decimalLongitude": -58.871428, "eventDate": "2023-04-07T16:05:00Z", "countryCode": "AR" }, "geometry": { "type": "Point", "coordinates": [ -58.871428, -30.519262 ] } },
{ "type": "Feature", "properties": { "decimalLatitude": 32.73899, "decimalLongitude": -97.365027, "eventDate": "2023-04-15T11:39:00Z", "countryCode": "US" }, "geometry": { "type": "Point", "coordinates": [ -97.365027, 32.73899 ] } },
{ "type": "Feature", "properties": { "decimalLatitude": 29.462483, "decimalLongitude": -98.467383, "eventDate": "2023-04-19T14:30:43Z", "countryCode": "US" }, "geometry": { "type": "Point", "coordinates": [ -98.467383, 29.462483 ] } },
{ "type": "Feature", "properties": { "decimalLatitude": 32.73152, "decimalLongitude": -97.15798, "eventDate": "2023-04-30T11:17:41Z", "countryCode": "US" }, "geometry": { "type": "Point", "coordinates": [ -97.15798, 32.73152 ] } },
{ "type": "Feature", "properties": { "decimalLatitude": -30.661051, "decimalLongitude": -57.970355, "eventDate": "2023-04-09T15:05:17Z", "countryCode": "AR" }, "geometry": { "type": "Point", "coordinates": [ -57.970355, -30.661051 ] } },
{ "type": "Feature", "properties": { "decimalLatitude": -32.879908, "decimalLongitude": -58.043297, "eventDate": "2023-04-29T00:00:00Z", "countryCode": "UY" }, "geometry": { "type": "Point", "coordinates": [ -58.043297, -32.879908 ] } },
{ "type": "Feature", "properties": { "decimalLatitude": 29.403215, "decimalLongitude": -95.49112, "eventDate": "2023-05-01T09:58:28Z", "countryCode": "US" }, "geometry": { "type": "Point", "coordinates": [ -95.49112, 29.403215 ] } },
{ "type": "Feature", "properties": { "decimalLatitude": 33.060381, "decimalLongitude": -96.733343, "eventDate": "2023-05-06T08:15:00Z", "countryCode": "US" }, "geometry": { "type": "Point", "coordinates": [ -96.733343, 33.060381 ] } },
{ "type": "Feature", "properties": { "decimalLatitude": 33.959034, "decimalLongitude": -112.148694, "eventDate": "2023-05-11T07:23:55Z", "countryCode": "US" }, "geometry": { "type": "Point", "coordinates": [ -112.148694, 33.959034 ] } },
{ "type": "Feature", "properties": { "decimalLatitude": 33.952025, "decimalLongitude": -117.263978, "eventDate": "2023-06-08T16:01:15Z", "countryCode": "US" }, "geometry": { "type": "Point", "coordinates": [ -117.263978, 33.952025 ] } },
{ "type": "Feature", "properties": { "decimalLatitude": -33.199905, "decimalLongitude": -60.423499, "eventDate": "2023-07-01T14:07:10Z", "countryCode": "AR" }, "geometry": { "type": "Point", "coordinates": [ -60.423499, -33.199905 ] } },
{ "type": "Feature", "properties": { "decimalLatitude": 30.267829, "decimalLongitude": -97.695315, "eventDate": "2023-08-05T15:46:00Z", "countryCode": "US" }, "geometry": { "type": "Point", "coordinates": [ -97.695315, 30.267829 ] } },
{ "type": "Feature", "properties": { "decimalLatitude": 30.426409, "decimalLongitude": -91.039115, "eventDate": "2023-08-14T09:06:00Z", "countryCode": "US" }, "geometry": { "type": "Point", "coordinates": [ -91.039115, 30.426409 ] } },
{ "type": "Feature", "properties": { "decimalLatitude": 32.73895, "decimalLongitude": -97.364974, "eventDate": "2023-08-19T09:08:00Z", "countryCode": "US" }, "geometry": { "type": "Point", "coordinates": [ -97.364974, 32.73895 ] } },
{ "type": "Feature", "properties": { "decimalLatitude": 32.738892, "decimalLongitude": -97.364902, "eventDate": "2023-09-04T11:20:00Z", "countryCode": "US" }, "geometry": { "type": "Point", "coordinates": [ -97.364902, 32.738892 ] } },
{ "type": "Feature", "properties": { "decimalLatitude": 32.738877, "decimalLongitude": -97.365098, "eventDate": "2023-09-23T11:11:00Z", "countryCode": "US" }, "geometry": { "type": "Point", "coordinates": [ -97.365098, 32.738877 ] } },
{ "type": "Feature", "properties": { "decimalLatitude": 32.735041, "decimalLongitude": -97.365353, "eventDate": "2023-10-02T14:06:28Z", "countryCode": "US" }, "geometry": { "type": "Point", "coordinates": [ -97.365353, 32.735041 ] } },
{ "type": "Feature", "properties": { "decimalLatitude": 33.029821, "decimalLongitude": -97.128474, "eventDate": "2023-10-06T14:38:00Z", "countryCode": "US" }, "geometry": { "type": "Point", "coordinates": [ -97.128474, 33.029821 ] } },
{ "type": "Feature", "properties": { "decimalLatitude": 26.173869, "decimalLongitude": -97.640256, "eventDate": "2023-10-07T10:11:49Z", "countryCode": "US" }, "geometry": { "type": "Point", "coordinates": [ -97.640256, 26.173869 ] } },
{ "type": "Feature", "properties": { "decimalLatitude": 29.818113, "decimalLongitude": -98.100975, "eventDate": "2023-10-07T09:47:14Z", "countryCode": "US" }, "geometry": { "type": "Point", "coordinates": [ -98.100975, 29.818113 ] } },
{ "type": "Feature", "properties": { "decimalLatitude": 32.73895, "decimalLongitude": -97.365097, "eventDate": "2023-10-12T15:18:00Z", "countryCode": "US" }, "geometry": { "type": "Point", "coordinates": [ -97.365097, 32.73895 ] } },
{ "type": "Feature", "properties": { "decimalLatitude": -33.03898, "decimalLongitude": -58.457543, "eventDate": "2023-10-18T08:48:00Z", "countryCode": "AR" }, "geometry": { "type": "Point", "coordinates": [ -58.457543, -33.03898 ] } },
{ "type": "Feature", "properties": { "decimalLatitude": -32.890348, "decimalLongitude": -58.509619, "eventDate": "2023-10-20T16:14:00Z", "countryCode": "AR" }, "geometry": { "type": "Point", "coordinates": [ -58.509619, -32.890348 ] } },
{ "type": "Feature", "properties": { "decimalLatitude": -28.550675, "decimalLongitude": -59.115361, "eventDate": "2023-10-14T11:22:00Z", "countryCode": "AR" }, "geometry": { "type": "Point", "coordinates": [ -59.115361, -28.550675 ] } },
{ "type": "Feature", "properties": { "decimalLatitude": 32.738933, "decimalLongitude": -97.36505, "eventDate": "2023-10-21T11:51:00Z", "countryCode": "US" }, "geometry": { "type": "Point", "coordinates": [ -97.36505, 32.738933 ] } },
{ "type": "Feature", "properties": { "decimalLatitude": 29.311115, "decimalLongitude": -98.499634, "eventDate": "2023-10-25T14:31:49Z", "countryCode": "US" }, "geometry": { "type": "Point", "coordinates": [ -98.499634, 29.311115 ] } },
{ "type": "Feature", "properties": { "decimalLatitude": -33.935526, "decimalLongitude": -59.298888, "eventDate": "2023-10-27T13:00:00Z", "countryCode": "AR" }, "geometry": { "type": "Point", "coordinates": [ -59.298888, -33.935526 ] } },
{ "type": "Feature", "properties": { "decimalLatitude": -27.32921, "decimalLongitude": -58.953216, "eventDate": "2023-11-04T18:46:55Z", "countryCode": "AR" }, "geometry": { "type": "Point", "coordinates": [ -58.953216, -27.32921 ] } },
{ "type": "Feature", "properties": { "decimalLatitude": -32.520072, "decimalLongitude": -58.054153, "eventDate": "2023-11-14T10:38:00Z", "countryCode": "UY" }, "geometry": { "type": "Point", "coordinates": [ -58.054153, -32.520072 ] } },
{ "type": "Feature", "properties": { "decimalLatitude": 30.942578, "decimalLongitude": -97.537178, "eventDate": "2023-11-20T16:02:56Z", "countryCode": "US" }, "geometry": { "type": "Point", "coordinates": [ -97.537178, 30.942578 ] } },
{ "type": "Feature", "properties": { "decimalLatitude": 29.67969, "decimalLongitude": -98.332138, "eventDate": "2023-12-09T16:34:00Z", "countryCode": "US" }, "geometry": { "type": "Point", "coordinates": [ -98.332138, 29.67969 ] } },
{ "type": "Feature", "properties": { "decimalLatitude": -32.368436, "decimalLongitude": -54.186008, "eventDate": "2023-12-04T10:55:00Z", "countryCode": "UY" }, "geometry": { "type": "Point", "coordinates": [ -54.186008, -32.368436 ] } },
{ "type": "Feature", "properties": { "decimalLatitude": -33.928938, "decimalLongitude": -59.305663, "eventDate": "2023-12-20T15:26:00Z", "countryCode": "AR" }, "geometry": { "type": "Point", "coordinates": [ -59.305663, -33.928938 ] } },
{ "type": "Feature", "properties": { "decimalLatitude": -34.669628, "decimalLongitude": -58.310149, "eventDate": "2023-12-28T13:01:04Z", "countryCode": "AR" }, "geometry": { "type": "Point", "coordinates": [ -58.310149, -34.669628 ] } },
{ "type": "Feature", "properties": { "decimalLatitude": -32.197622, "decimalLongitude": -56.840503, "eventDate": "2024-01-18T10:21:02Z", "countryCode": "UY" }, "geometry": { "type": "Point", "coordinates": [ -56.840503, -32.197622 ] } },
{ "type": "Feature", "properties": { "decimalLatitude": -32.204892, "decimalLongitude": -56.847172, "eventDate": "2024-01-18T08:25:45Z", "countryCode": "UY" }, "geometry": { "type": "Point", "coordinates": [ -56.847172, -32.204892 ] } },
{ "type": "Feature", "properties": { "decimalLatitude": -32.196825, "decimalLongitude": -56.839175, "eventDate": "2024-01-18T10:41:15Z", "countryCode": "UY" }, "geometry": { "type": "Point", "coordinates": [ -56.839175, -32.196825 ] } },
{ "type": "Feature", "properties": { "decimalLatitude": -34.57047, "decimalLongitude": -58.660872, "eventDate": "2024-02-24T14:11:00Z", "countryCode": "AR" }, "geometry": { "type": "Point", "coordinates": [ -58.660872, -34.57047 ] } },
{ "type": "Feature", "properties": { "decimalLatitude": 33.091339, "decimalLongitude": -96.648263, "eventDate": "2024-03-12T15:18:48Z", "countryCode": "US" }, "geometry": { "type": "Point", "coordinates": [ -96.648263, 33.091339 ] } },
{ "type": "Feature", "properties": { "decimalLatitude": -34.78706, "decimalLongitude": -56.34867, "eventDate": "2024-03-15T09:54:14Z", "countryCode": "UY" }, "geometry": { "type": "Point", "coordinates": [ -56.34867, -34.78706 ] } },
{ "type": "Feature", "properties": { "decimalLatitude": -34.583373, "decimalLongitude": -58.417006, "eventDate": "2024-03-24T12:08:00Z", "countryCode": "AR" }, "geometry": { "type": "Point", "coordinates": [ -58.417006, -34.583373 ] } },
{ "type": "Feature", "properties": { "decimalLatitude": 33.037742, "decimalLongitude": -96.667228, "eventDate": "2024-04-06T10:59:22Z", "countryCode": "US" }, "geometry": { "type": "Point", "coordinates": [ -96.667228, 33.037742 ] } },
{ "type": "Feature", "properties": { "decimalLatitude": 26.166648, "decimalLongitude": -97.789905, "eventDate": "2024-04-27T17:07:21Z", "countryCode": "US" }, "geometry": { "type": "Point", "coordinates": [ -97.789905, 26.166648 ] } },
{ "type": "Feature", "properties": { "decimalLatitude": 30.668621, "decimalLongitude": -96.9294, "eventDate": "2024-04-29T12:07:21Z", "countryCode": "US" }, "geometry": { "type": "Point", "coordinates": [ -96.9294, 30.668621 ] } },
{ "type": "Feature", "properties": { "decimalLatitude": 29.691907, "decimalLongitude": -98.486871, "eventDate": "2024-04-27T13:07:12Z", "countryCode": "US" }, "geometry": { "type": "Point", "coordinates": [ -98.486871, 29.691907 ] } },
{ "type": "Feature", "properties": { "decimalLatitude": 30.638146, "decimalLongitude": -96.331207, "eventDate": "2024-04-26T13:02:41Z", "countryCode": "US" }, "geometry": { "type": "Point", "coordinates": [ -96.331207, 30.638146 ] } },
{ "type": "Feature", "properties": { "decimalLatitude": 30.426499, "decimalLongitude": -91.039112, "eventDate": "2024-04-26T09:25:00Z", "countryCode": "US" }, "geometry": { "type": "Point", "coordinates": [ -91.039112, 30.426499 ] } },
{ "type": "Feature", "properties": { "decimalLatitude": 30.859319, "decimalLongitude": -98.412621, "eventDate": "2024-04-13T09:16:43Z", "countryCode": "US" }, "geometry": { "type": "Point", "coordinates": [ -98.412621, 30.859319 ] } },
{ "type": "Feature", "properties": { "decimalLatitude": -33.933587, "decimalLongitude": -59.278421, "eventDate": "2024-04-29T17:46:00Z", "countryCode": "AR" }, "geometry": { "type": "Point", "coordinates": [ -59.278421, -33.933587 ] } },
{ "type": "Feature", "properties": { "decimalLatitude": -34.829145, "decimalLongitude": -56.213866, "eventDate": "2024-04-08T16:04:00Z", "countryCode": "UY" }, "geometry": { "type": "Point", "coordinates": [ -56.213866, -34.829145 ] } },
{ "type": "Feature", "properties": { "decimalLatitude": 29.535628, "decimalLongitude": -98.666992, "eventDate": "2024-04-29T16:38:24Z", "countryCode": "US" }, "geometry": { "type": "Point", "coordinates": [ -98.666992, 29.535628 ] } },
{ "type": "Feature", "properties": { "decimalLatitude": 29.44004, "decimalLongitude": -95.224906, "eventDate": "2024-04-29T11:38:00Z", "countryCode": "US" }, "geometry": { "type": "Point", "coordinates": [ -95.224906, 29.44004 ] } },
{ "type": "Feature", "properties": { "decimalLatitude": 29.53121, "decimalLongitude": -98.507494, "eventDate": "2024-05-11T16:49:48Z", "countryCode": "US" }, "geometry": { "type": "Point", "coordinates": [ -98.507494, 29.53121 ] } },
{ "type": "Feature", "properties": { "decimalLatitude": -34.736389, "decimalLongitude": -56.05862, "eventDate": "2024-06-25T12:39:52Z", "countryCode": "UY" }, "geometry": { "type": "Point", "coordinates": [ -56.05862, -34.736389 ] } },
{ "type": "Feature", "properties": { "decimalLatitude": -32.142282, "decimalLongitude": -53.730612, "eventDate": "2024-06-22T11:02:00Z", "countryCode": "UY" }, "geometry": { "type": "Point", "coordinates": [ -53.730612, -32.142282 ] } },
{ "type": "Feature", "properties": { "decimalLatitude": -32.142282, "decimalLongitude": -53.730612, "eventDate": "2024-06-22T11:02:00Z", "countryCode": "UY" }, "geometry": { "type": "Point", "coordinates": [ -53.730612, -32.142282 ] } },
{ "type": "Feature", "properties": { "decimalLatitude": 27.653008, "decimalLongitude": -97.406472, "eventDate": "2024-08-03T09:03:09Z", "countryCode": "US" }, "geometry": { "type": "Point", "coordinates": [ -97.406472, 27.653008 ] } },
{ "type": "Feature", "properties": { "decimalLatitude": 30.65105, "decimalLongitude": -97.81243, "eventDate": "2024-08-24T11:55:00Z", "countryCode": "US" }, "geometry": { "type": "Point", "coordinates": [ -97.81243, 30.65105 ] } },
{ "type": "Feature", "properties": { "decimalLatitude": 32.734803, "decimalLongitude": -97.131347, "eventDate": "2024-08-15T09:15:13Z", "countryCode": "US" }, "geometry": { "type": "Point", "coordinates": [ -97.131347, 32.734803 ] } },
{ "type": "Feature", "properties": { "decimalLatitude": 29.461038, "decimalLongitude": -98.464492, "eventDate": "2024-09-26T11:06:50Z", "countryCode": "US" }, "geometry": { "type": "Point", "coordinates": [ -98.464492, 29.461038 ] } },
{ "type": "Feature", "properties": { "decimalLatitude": -31.694349, "decimalLongitude": -60.760208, "eventDate": "2024-10-13T11:41:19Z", "countryCode": "AR" }, "geometry": { "type": "Point", "coordinates": [ -60.760208, -31.694349 ] } },
{ "type": "Feature", "properties": { "decimalLatitude": -31.7229, "decimalLongitude": -60.327015, "eventDate": "2024-10-05T14:54:00Z", "countryCode": "AR" }, "geometry": { "type": "Point", "coordinates": [ -60.327015, -31.7229 ] } },
{ "type": "Feature", "properties": { "decimalLatitude": 36.894348, "decimalLongitude": -76.389388, "eventDate": "2024-10-13T12:50:12Z", "countryCode": "US" }, "geometry": { "type": "Point", "coordinates": [ -76.389388, 36.894348 ] } },
{ "type": "Feature", "properties": { "decimalLatitude": 29.440042, "decimalLongitude": -95.224896, "eventDate": "2024-10-23T14:19:00Z", "countryCode": "US" }, "geometry": { "type": "Point", "coordinates": [ -95.224896, 29.440042 ] } },
{ "type": "Feature", "properties": { "decimalLatitude": -34.681132, "decimalLongitude": -58.44516, "eventDate": "2024-10-27T14:44:00Z", "countryCode": "AR" }, "geometry": { "type": "Point", "coordinates": [ -58.44516, -34.681132 ] } },
{ "type": "Feature", "properties": { "decimalLatitude": -34.681132, "decimalLongitude": -58.44516, "eventDate": "2024-11-06T10:38:00Z", "countryCode": "AR" }, "geometry": { "type": "Point", "coordinates": [ -58.44516, -34.681132 ] } },
{ "type": "Feature", "properties": { "decimalLatitude": -34.283252, "decimalLongitude": -55.281818, "eventDate": "2024-11-10T10:01:40Z", "countryCode": "UY" }, "geometry": { "type": "Point", "coordinates": [ -55.281818, -34.283252 ] } },
{ "type": "Feature", "properties": { "decimalLatitude": 30.605806, "decimalLongitude": -97.839839, "eventDate": "2024-11-07T10:51:00Z", "countryCode": "US" }, "geometry": { "type": "Point", "coordinates": [ -97.839839, 30.605806 ] } },
{ "type": "Feature", "properties": { "decimalLatitude": -34.682045, "decimalLongitude": -58.283969, "eventDate": "2024-11-16T11:38:35Z", "countryCode": "AR" }, "geometry": { "type": "Point", "coordinates": [ -58.283969, -34.682045 ] } },
{ "type": "Feature", "properties": { "decimalLatitude": -34.682034, "decimalLongitude": -58.283981, "eventDate": "2024-11-16T11:38:20Z", "countryCode": "AR" }, "geometry": { "type": "Point", "coordinates": [ -58.283981, -34.682034 ] } },
{ "type": "Feature", "properties": { "decimalLatitude": -34.681132, "decimalLongitude": -58.44516, "eventDate": "2024-11-13T10:26:00Z", "countryCode": "AR" }, "geometry": { "type": "Point", "coordinates": [ -58.44516, -34.681132 ] } },
{ "type": "Feature", "properties": { "decimalLatitude": -34.948516, "decimalLongitude": -57.673233, "eventDate": "2024-11-16T11:55:12Z", "countryCode": "AR" }, "geometry": { "type": "Point", "coordinates": [ -57.673233, -34.948516 ] } },
{ "type": "Feature", "properties": { "decimalLatitude": -34.746613, "decimalLongitude": -56.060017, "eventDate": "2024-11-19T12:18:28Z", "countryCode": "UY" }, "geometry": { "type": "Point", "coordinates": [ -56.060017, -34.746613 ] } },
{ "type": "Feature", "properties": { "decimalLatitude": -31.759429, "decimalLongitude": -57.238377, "eventDate": "2024-12-06T12:31:39Z", "countryCode": "UY" }, "geometry": { "type": "Point", "coordinates": [ -57.238377, -31.759429 ] } },
{ "type": "Feature", "properties": { "decimalLatitude": -34.681132, "decimalLongitude": -58.44516, "eventDate": "2024-12-14T16:58:00Z", "countryCode": "AR" }, "geometry": { "type": "Point", "coordinates": [ -58.44516, -34.681132 ] } },
{ "type": "Feature", "properties": { "decimalLatitude": -29.147336, "decimalLongitude": -59.255103, "eventDate": "2024-12-18T12:31:00Z", "countryCode": "AR" }, "geometry": { "type": "Point", "coordinates": [ -59.255103, -29.147336 ] } },
{ "type": "Feature", "properties": { "decimalLatitude": -29.147406, "decimalLongitude": -59.254994, "eventDate": "2024-12-18T12:32:00Z", "countryCode": "AR" }, "geometry": { "type": "Point", "coordinates": [ -59.254994, -29.147406 ] } },
{ "type": "Feature", "properties": { "decimalLatitude": -29.147356, "decimalLongitude": -59.255019, "eventDate": "2024-12-18T12:31:00Z", "countryCode": "AR" }, "geometry": { "type": "Point", "coordinates": [ -59.255019, -29.147356 ] } },
{ "type": "Feature", "properties": { "decimalLatitude": -30.577722, "decimalLongitude": -59.925992, "eventDate": "2025-01-13T07:11:07Z", "countryCode": "AR" }, "geometry": { "type": "Point", "coordinates": [ -59.925992, -30.577722 ] } },
{ "type": "Feature", "properties": { "decimalLatitude": -34.680121, "decimalLongitude": -58.441642, "eventDate": "2025-01-28T18:17:38Z", "countryCode": "AR" }, "geometry": { "type": "Point", "coordinates": [ -58.441642, -34.680121 ] } },
{ "type": "Feature", "properties": { "decimalLatitude": -26.901772, "decimalLongitude": -59.529539, "eventDate": "2025-01-18T19:11:54Z", "countryCode": "AR" }, "geometry": { "type": "Point", "coordinates": [ -59.529539, -26.901772 ] } },
{ "type": "Feature", "properties": { "decimalLatitude": -35.26135, "decimalLongitude": -57.2524, "eventDate": "2025-02-15T16:16:00Z", "countryCode": "AR" }, "geometry": { "type": "Point", "coordinates": [ -57.2524, -35.26135 ] } },
{ "type": "Feature", "properties": { "decimalLatitude": -32.122203, "decimalLongitude": -60.622378, "eventDate": "2025-02-27T19:04:00Z", "countryCode": "AR" }, "geometry": { "type": "Point", "coordinates": [ -60.622378, -32.122203 ] } },
{ "type": "Feature", "properties": { "decimalLatitude": -34.344198, "decimalLongitude": -57.316782, "eventDate": "2025-03-01T16:44:00Z", "countryCode": "UY" }, "geometry": { "type": "Point", "coordinates": [ -57.316782, -34.344198 ] } },
{ "type": "Feature", "properties": { "decimalLatitude": -31.886746, "decimalLongitude": -60.583987, "eventDate": "2025-03-10T09:24:57Z", "countryCode": "AR" }, "geometry": { "type": "Point", "coordinates": [ -60.583987, -31.886746 ] } },
{ "type": "Feature", "properties": { "decimalLatitude": -31.886547, "decimalLongitude": -60.584176, "eventDate": "2025-03-10T09:23:18Z", "countryCode": "AR" }, "geometry": { "type": "Point", "coordinates": [ -60.584176, -31.886547 ] } },
{ "type": "Feature", "properties": { "decimalLatitude": 30.651005, "decimalLongitude": -97.812503, "eventDate": "2025-03-24T18:02:58Z", "countryCode": "US" }, "geometry": { "type": "Point", "coordinates": [ -97.812503, 30.651005 ] } },
{ "type": "Feature", "properties": { "decimalLatitude": 29.679717, "decimalLongitude": -98.332192, "eventDate": "2025-03-21T15:23:29Z", "countryCode": "US" }, "geometry": { "type": "Point", "coordinates": [ -98.332192, 29.679717 ] } },
{ "type": "Feature", "properties": { "decimalLatitude": 33.016988, "decimalLongitude": -97.098803, "eventDate": "2025-03-25T09:49:36Z", "countryCode": "US" }, "geometry": { "type": "Point", "coordinates": [ -97.098803, 33.016988 ] } },
{ "type": "Feature", "properties": { "decimalLatitude": 29.792745, "decimalLongitude": -95.389825, "eventDate": "2025-03-31T15:29:42Z", "countryCode": "US" }, "geometry": { "type": "Point", "coordinates": [ -95.389825, 29.792745 ] } },
{ "type": "Feature", "properties": { "decimalLatitude": -34.927491, "decimalLongitude": -57.759135, "eventDate": "2025-03-08T11:26:00Z", "countryCode": "AR" }, "geometry": { "type": "Point", "coordinates": [ -57.759135, -34.927491 ] } },
{ "type": "Feature", "properties": { "decimalLatitude": -34.673016, "decimalLongitude": -58.298743, "eventDate": "2025-03-19T07:38:00Z", "countryCode": "AR" }, "geometry": { "type": "Point", "coordinates": [ -58.298743, -34.673016 ] } },
{ "type": "Feature", "properties": { "decimalLatitude": 29.45428, "decimalLongitude": -98.536417, "eventDate": "2025-04-10T10:05:09Z", "countryCode": "US" }, "geometry": { "type": "Point", "coordinates": [ -98.536417, 29.45428 ] } },
{ "type": "Feature", "properties": { "decimalLatitude": 30.103829, "decimalLongitude": -98.425314, "eventDate": "2025-04-03T11:33:13Z", "countryCode": "US" }, "geometry": { "type": "Point", "coordinates": [ -98.425314, 30.103829 ] } },
{ "type": "Feature", "properties": { "decimalLatitude": 32.70903, "decimalLongitude": -97.202328, "eventDate": "2025-04-06T18:54:44Z", "countryCode": "US" }, "geometry": { "type": "Point", "coordinates": [ -97.202328, 32.70903 ] } },
{ "type": "Feature", "properties": { "decimalLatitude": 30.65105, "decimalLongitude": -97.81243, "eventDate": "2025-04-04T07:31:00Z", "countryCode": "US" }, "geometry": { "type": "Point", "coordinates": [ -97.81243, 30.65105 ] } },
{ "type": "Feature", "properties": { "decimalLatitude": 33.017601, "decimalLongitude": -97.09776, "eventDate": "2025-04-22T09:24:15Z", "countryCode": "US" }, "geometry": { "type": "Point", "coordinates": [ -97.09776, 33.017601 ] } },
{ "type": "Feature", "properties": { "decimalLatitude": 33.15815, "decimalLongitude": -96.615472, "eventDate": "2025-04-23T09:49:27Z", "countryCode": "US" }, "geometry": { "type": "Point", "coordinates": [ -96.615472, 33.15815 ] } },
{ "type": "Feature", "properties": { "decimalLatitude": 29.581936, "decimalLongitude": -98.468759, "eventDate": "2025-04-25T18:48:38Z", "countryCode": "US" }, "geometry": { "type": "Point", "coordinates": [ -98.468759, 29.581936 ] } },
{ "type": "Feature", "properties": { "decimalLatitude": 26.170911, "decimalLongitude": -97.741673, "eventDate": "2025-04-26T08:44:39Z", "countryCode": "US" }, "geometry": { "type": "Point", "coordinates": [ -97.741673, 26.170911 ] } },
{ "type": "Feature", "properties": { "decimalLatitude": 29.454223, "decimalLongitude": -98.536414, "eventDate": "2025-04-27T09:01:10Z", "countryCode": "US" }, "geometry": { "type": "Point", "coordinates": [ -98.536414, 29.454223 ] } },
{ "type": "Feature", "properties": { "decimalLatitude": 29.454187, "decimalLongitude": -98.536412, "eventDate": "2025-04-27T09:01:08Z", "countryCode": "US" }, "geometry": { "type": "Point", "coordinates": [ -98.536412, 29.454187 ] } },
{ "type": "Feature", "properties": { "decimalLatitude": 26.12406, "decimalLongitude": -80.2257, "eventDate": "2025-04-27T17:11:00Z", "countryCode": "US" }, "geometry": { "type": "Point", "coordinates": [ -80.2257, 26.12406 ] } },
{ "type": "Feature", "properties": { "decimalLatitude": 29.609759, "decimalLongitude": -98.613014, "eventDate": "2025-04-28T09:02:37Z", "countryCode": "US" }, "geometry": { "type": "Point", "coordinates": [ -98.613014, 29.609759 ] } },
{ "type": "Feature", "properties": { "decimalLatitude": 33.03762, "decimalLongitude": -96.667345, "eventDate": "2025-04-29T09:32:15Z", "countryCode": "US" }, "geometry": { "type": "Point", "coordinates": [ -96.667345, 33.03762 ] } },
{ "type": "Feature", "properties": { "decimalLatitude": 30.65105, "decimalLongitude": -97.81243, "eventDate": "2025-04-25T09:28:00Z", "countryCode": "US" }, "geometry": { "type": "Point", "coordinates": [ -97.81243, 30.65105 ] } },
{ "type": "Feature", "properties": { "decimalLatitude": 29.44004, "decimalLongitude": -95.224855, "eventDate": "2025-04-25T16:39:00Z", "countryCode": "US" }, "geometry": { "type": "Point", "coordinates": [ -95.224855, 29.44004 ] } },
{ "type": "Feature", "properties": { "decimalLatitude": 32.748569, "decimalLongitude": -97.153568, "eventDate": "2025-04-27T18:56:59Z", "countryCode": "US" }, "geometry": { "type": "Point", "coordinates": [ -97.153568, 32.748569 ] } },
{ "type": "Feature", "properties": { "decimalLatitude": 29.742771, "decimalLongitude": -98.01964, "eventDate": "2025-05-09T11:33:57Z", "countryCode": "US" }, "geometry": { "type": "Point", "coordinates": [ -98.01964, 29.742771 ] } },
{ "type": "Feature", "properties": { "decimalLatitude": 36.894489, "decimalLongitude": -76.389687, "eventDate": "2025-05-07T11:27:44Z", "countryCode": "US" }, "geometry": { "type": "Point", "coordinates": [ -76.389687, 36.894489 ] } },
{ "type": "Feature", "properties": { "decimalLatitude": 29.744953, "decimalLongitude": -97.96228, "eventDate": "2025-05-11T18:06:09Z", "countryCode": "US" }, "geometry": { "type": "Point", "coordinates": [ -97.96228, 29.744953 ] } },
{ "type": "Feature", "properties": { "decimalLatitude": 29.742759, "decimalLongitude": -98.01967, "eventDate": "2025-05-09T11:27:16Z", "countryCode": "US" }, "geometry": { "type": "Point", "coordinates": [ -98.01967, 29.742759 ] } },
{ "type": "Feature", "properties": { "decimalLatitude": 32.670624, "decimalLongitude": -97.199265, "eventDate": "2025-05-25T12:35:05Z", "countryCode": "US" }, "geometry": { "type": "Point", "coordinates": [ -97.199265, 32.670624 ] } },
{ "type": "Feature", "properties": { "decimalLatitude": 33.131961, "decimalLongitude": -97.185678, "eventDate": "2025-06-01T13:28:06Z", "countryCode": "US" }, "geometry": { "type": "Point", "coordinates": [ -97.185678, 33.131961 ] } },
{ "type": "Feature", "properties": { "decimalLatitude": 29.879984, "decimalLongitude": -97.747767, "eventDate": "2025-06-13T08:30:57Z", "countryCode": "US" }, "geometry": { "type": "Point", "coordinates": [ -97.747767, 29.879984 ] } },
{ "type": "Feature", "properties": { "decimalLatitude": 33.040778, "decimalLongitude": -96.772895, "eventDate": "2025-06-18T18:34:18Z", "countryCode": "US" }, "geometry": { "type": "Point", "coordinates": [ -96.772895, 33.040778 ] } },
{ "type": "Feature", "properties": { "decimalLatitude": 29.742767, "decimalLongitude": -98.019689, "eventDate": "2025-06-05T11:10:30Z", "countryCode": "US" }, "geometry": { "type": "Point", "coordinates": [ -98.019689, 29.742767 ] } },
{ "type": "Feature", "properties": { "decimalLatitude": 33.052464, "decimalLongitude": -79.953658, "eventDate": "2025-07-05T13:43:46Z", "countryCode": "US" }, "geometry": { "type": "Point", "coordinates": [ -79.953658, 33.052464 ] } },
{ "type": "Feature", "properties": { "decimalLatitude": 30.750027, "decimalLongitude": -95.475867, "eventDate": "2025-08-18T11:24:03Z", "countryCode": "US" }, "geometry": { "type": "Point", "coordinates": [ -95.475867, 30.750027 ] } },
{ "type": "Feature", "properties": { "decimalLatitude": 36.060238, "decimalLongitude": -79.068135, "eventDate": "2025-08-22T17:10:58Z", "countryCode": "US" }, "geometry": { "type": "Point", "coordinates": [ -79.068135, 36.060238 ] } },
{ "type": "Feature", "properties": { "decimalLatitude": 30.65105, "decimalLongitude": -97.81243, "eventDate": "2025-08-24T13:11:00Z", "countryCode": "US" }, "geometry": { "type": "Point", "coordinates": [ -97.81243, 30.65105 ] } },
{ "type": "Feature", "properties": { "decimalLatitude": 36.062091, "decimalLongitude": -94.160315, "eventDate": "2025-08-02T18:15:58Z", "countryCode": "US" }, "geometry": { "type": "Point", "coordinates": [ -94.160315, 36.062091 ] } },
{ "type": "Feature", "properties": { "decimalLatitude": 30.750079, "decimalLongitude": -95.47597, "eventDate": "2025-09-09T15:59:30Z", "countryCode": "US" }, "geometry": { "type": "Point", "coordinates": [ -95.47597, 30.750079 ] } },
{ "type": "Feature", "properties": { "decimalLatitude": -32.523907, "decimalLongitude": -58.035014, "eventDate": "2025-09-20T15:47:00Z", "countryCode": "UY" }, "geometry": { "type": "Point", "coordinates": [ -58.035014, -32.523907 ] } },
{ "type": "Feature", "properties": { "decimalLatitude": -26.853458, "decimalLongitude": -58.304957, "eventDate": "2025-09-29T16:59:11Z", "countryCode": "PY" }, "geometry": { "type": "Point", "coordinates": [ -58.304957, -26.853458 ] } },
{ "type": "Feature", "properties": { "decimalLatitude": 30.621533, "decimalLongitude": -97.52655, "eventDate": "2025-10-02T13:26:28Z", "countryCode": "US" }, "geometry": { "type": "Point", "coordinates": [ -97.52655, 30.621533 ] } },
{ "type": "Feature", "properties": { "decimalLatitude": 32.857247, "decimalLongitude": -97.127128, "eventDate": "2025-10-16T15:46:06Z", "countryCode": "US" }, "geometry": { "type": "Point", "coordinates": [ -97.127128, 32.857247 ] } },
{ "type": "Feature", "properties": { "decimalLatitude": -34.68011, "decimalLongitude": -58.44167, "eventDate": "2025-10-16T12:00:50Z", "countryCode": "AR" }, "geometry": { "type": "Point", "coordinates": [ -58.44167, -34.68011 ] } },
{ "type": "Feature", "properties": { "decimalLatitude": -34.682052, "decimalLongitude": -58.283981, "eventDate": "2025-10-18T12:25:36Z", "countryCode": "AR" }, "geometry": { "type": "Point", "coordinates": [ -58.283981, -34.682052 ] } },
{ "type": "Feature", "properties": { "decimalLatitude": 36.060132, "decimalLongitude": -79.068092, "eventDate": "2025-10-15T09:04:11Z", "countryCode": "US" }, "geometry": { "type": "Point", "coordinates": [ -79.068092, 36.060132 ] } },
{ "type": "Feature", "properties": { "decimalLatitude": 29.440128, "decimalLongitude": -95.224979, "eventDate": "2025-10-23T17:37:00Z", "countryCode": "US" }, "geometry": { "type": "Point", "coordinates": [ -95.224979, 29.440128 ] } },
{ "type": "Feature", "properties": { "decimalLatitude": 30.62133, "decimalLongitude": -97.526488, "eventDate": "2025-10-31T16:30:34Z", "countryCode": "US" }, "geometry": { "type": "Point", "coordinates": [ -97.526488, 30.62133 ] } },
{ "type": "Feature", "properties": { "decimalLatitude": 26.164375, "decimalLongitude": -97.545275, "eventDate": "2025-10-12T08:32:11Z", "countryCode": "US" }, "geometry": { "type": "Point", "coordinates": [ -97.545275, 26.164375 ] } },
{ "type": "Feature", "properties": { "decimalLatitude": -28.491132, "decimalLongitude": -59.389559, "eventDate": "2025-10-11T11:32:38Z", "countryCode": "AR" }, "geometry": { "type": "Point", "coordinates": [ -59.389559, -28.491132 ] } },
{ "type": "Feature", "properties": { "decimalLatitude": -27.385902, "decimalLongitude": -55.592392, "eventDate": "2025-11-02T14:43:34Z", "countryCode": "AR" }, "geometry": { "type": "Point", "coordinates": [ -55.592392, -27.385902 ] } },
{ "type": "Feature", "properties": { "decimalLatitude": -27.3853, "decimalLongitude": -55.592342, "eventDate": "2025-11-02T14:01:41Z", "countryCode": "AR" }, "geometry": { "type": "Point", "coordinates": [ -55.592342, -27.3853 ] } },
{ "type": "Feature", "properties": { "decimalLatitude": -32.892011, "decimalLongitude": -58.515085, "eventDate": "2025-11-17T06:26:00Z", "countryCode": "AR" }, "geometry": { "type": "Point", "coordinates": [ -58.515085, -32.892011 ] } },
{ "type": "Feature", "properties": { "decimalLatitude": -32.166667, "decimalLongitude": -58.343713, "eventDate": "2025-12-01T21:07:00Z", "countryCode": "AR" }, "geometry": { "type": "Point", "coordinates": [ -58.343713, -32.166667 ] } },
{ "type": "Feature", "properties": { "decimalLatitude": -32.166667, "decimalLongitude": -58.343713, "eventDate": "2025-12-01T21:07:00Z", "countryCode": "AR" }, "geometry": { "type": "Point", "coordinates": [ -58.343713, -32.166667 ] } }
]
}
