{
"type": "FeatureCollection",
"name": "battus-belus-gbif",
"crs": { "type": "name", "properties": { "name": "urn:ogc:def:crs:OGC:1.3:CRS84" } },
"features": [
{ "type": "Feature", "properties": { "decimalLatitude": 10.93332, "decimalLongitude": -85.25331, "eventDate": "2017-07-13T00:00:00Z", "countryCode": "CR" }, "geometry": { "type": "Point", "coordinates": [ -85.25331, 10.93332 ] } },
{ "type": "Feature", "properties": { "decimalLatitude": 1.123611, "decimalLongitude": -70.430278, "eventDate": "2017-08-24T00:00:00Z", "countryCode": "CO" }, "geometry": { "type": "Point", "coordinates": [ -70.430278, 1.123611 ] } },
{ "type": "Feature", "properties": { "decimalLatitude": -15.632931, "decimalLongitude": -57.201379, "eventDate": "2017-11-15T22:59:00Z", "countryCode": "BR" }, "geometry": { "type": "Point", "coordinates": [ -57.201379, -15.632931 ] } },
{ "type": "Feature", "properties": { "decimalLatitude": 10.99455, "decimalLongitude": -85.4146, "eventDate": "2018-05-19T00:00:00Z", "countryCode": "CR" }, "geometry": { "type": "Point", "coordinates": [ -85.4146, 10.99455 ] } },
{ "type": "Feature", "properties": { "decimalLatitude": 10.99455, "decimalLongitude": -85.4146, "eventDate": "2018-05-19T00:00:00Z", "countryCode": "CR" }, "geometry": { "type": "Point", "coordinates": [ -85.4146, 10.99455 ] } },
{ "type": "Feature", "properties": { "decimalLatitude": 10.99455, "decimalLongitude": -85.4146, "eventDate": "2018-05-18T00:00:00Z", "countryCode": "CR" }, "geometry": { "type": "Point", "coordinates": [ -85.4146, 10.99455 ] } },
{ "type": "Feature", "properties": { "decimalLatitude": 10.99455, "decimalLongitude": -85.4146, "eventDate": "2018-05-19T00:00:00Z", "countryCode": "CR" }, "geometry": { "type": "Point", "coordinates": [ -85.4146, 10.99455 ] } },
{ "type": "Feature", "properties": { "decimalLatitude": 10.99455, "decimalLongitude": -85.4146, "eventDate": "2018-05-17T00:00:00Z", "countryCode": "CR" }, "geometry": { "type": "Point", "coordinates": [ -85.4146, 10.99455 ] } },
{ "type": "Feature", "properties": { "decimalLatitude": 4.94228, "decimalLongitude": -52.53148, "eventDate": "2019-03-12T00:00:00Z", "countryCode": "GF" }, "geometry": { "type": "Point", "coordinates": [ -52.53148, 4.94228 ] } },
{ "type": "Feature", "properties": { "decimalLatitude": 4.638697, "decimalLongitude": -55.393517, "eventDate": "2019-03-30T00:00:00Z", "countryCode": "SR" }, "geometry": { "type": "Point", "coordinates": [ -55.393517, 4.638697 ] } },
{ "type": "Feature", "properties": { "decimalLatitude": 0.046925, "decimalLongitude": -72.463535, "eventDate": "2019-04-14T00:00:00Z", "countryCode": "CO" }, "geometry": { "type": "Point", "coordinates": [ -72.463535, 0.046925 ] } },
{ "type": "Feature", "properties": { "decimalLatitude": -0.003118, "decimalLongitude": -76.188046, "eventDate": "2019-07-12T01:28:00Z", "countryCode": "EC" }, "geometry": { "type": "Point", "coordinates": [ -76.188046, -0.003118 ] } },
{ "type": "Feature", "properties": { "decimalLatitude": -3.119027, "decimalLongitude": -60.021731, "eventDate": "2020-02-24T13:00:00Z", "countryCode": "BR" }, "geometry": { "type": "Point", "coordinates": [ -60.021731, -3.119027 ] } },
{ "type": "Feature", "properties": { "decimalLatitude": -0.43598, "decimalLongitude": -76.293763, "eventDate": "2021-09-05T12:52:00Z", "countryCode": "EC" }, "geometry": { "type": "Point", "coordinates": [ -76.293763, -0.43598 ] } },
{ "type": "Feature", "properties": { "decimalLatitude": -0.674264, "decimalLongitude": -76.397533, "eventDate": "2021-12-09T17:47:11Z", "countryCode": "EC" }, "geometry": { "type": "Point", "coordinates": [ -76.397533, -0.674264 ] } },
{ "type": "Feature", "properties": { "decimalLatitude": 3.06639, "decimalLongitude": -74.3697, "eventDate": "2022-01-03T00:00:00Z", "countryCode": "CO" }, "geometry": { "type": "Point", "coordinates": [ -74.3697, 3.06639 ] } },
{ "type": "Feature", "properties": { "decimalLatitude": 3.06639, "decimalLongitude": -74.3697, "eventDate": "2022-01-03T00:00:00Z", "countryCode": "CO" }, "geometry": { "type": "Point", "coordinates": [ -74.3697, 3.06639 ] } },
{ "type": "Feature", "properties": { "decimalLatitude": 3.064444, "decimalLongitude": -75.370834, "eventDate": "2022-01-03T00:00:00Z", "countryCode": "CO" }, "geometry": { "type": "Point", "coordinates": [ -75.370834, 3.064444 ] } },
{ "type": "Feature", "properties": { "decimalLatitude": 3.06603, "decimalLongitude": -75.3758, "eventDate": "2022-01-31T00:00:00Z", "countryCode": "CO" }, "geometry": { "type": "Point", "coordinates": [ -75.3758, 3.06603 ] } },
{ "type": "Feature", "properties": { "decimalLatitude": 3.06603, "decimalLongitude": -75.3758, "eventDate": "2022-01-31T00:00:00Z", "countryCode": "CO" }, "geometry": { "type": "Point", "coordinates": [ -75.3758, 3.06603 ] } },
{ "type": "Feature", "properties": { "decimalLatitude": 3.06639, "decimalLongitude": -74.3697, "eventDate": "2022-02-03T00:00:00Z", "countryCode": "CO" }, "geometry": { "type": "Point", "coordinates": [ -74.3697, 3.06639 ] } },
{ "type": "Feature", "properties": { "decimalLatitude": 3.06444, "decimalLongitude": -75.3708, "eventDate": "2022-02-03T00:00:00Z", "countryCode": "CO" }, "geometry": { "type": "Point", "coordinates": [ -75.3708, 3.06444 ] } },
{ "type": "Feature", "properties": { "decimalLatitude": 3.06639, "decimalLongitude": -74.3697, "eventDate": "2022-02-03T00:00:00Z", "countryCode": "CO" }, "geometry": { "type": "Point", "coordinates": [ -74.3697, 3.06639 ] } },
{ "type": "Feature", "properties": { "decimalLatitude": 3.06639, "decimalLongitude": -74.3697, "eventDate": "2022-02-03T00:00:00Z", "countryCode": "CO" }, "geometry": { "type": "Point", "coordinates": [ -74.3697, 3.06639 ] } },
{ "type": "Feature", "properties": { "decimalLatitude": -8.754034, "decimalLongitude": -63.457545, "eventDate": "2022-05-08T15:18:00Z", "countryCode": "BR" }, "geometry": { "type": "Point", "coordinates": [ -63.457545, -8.754034 ] } },
{ "type": "Feature", "properties": { "decimalLatitude": -3.616053, "decimalLongitude": -73.988574, "eventDate": "2022-07-29T13:29:00Z", "countryCode": "PE" }, "geometry": { "type": "Point", "coordinates": [ -73.988574, -3.616053 ] } },
{ "type": "Feature", "properties": { "decimalLatitude": -3.120136, "decimalLongitude": -73.034256, "eventDate": "2022-07-07T11:56:00Z", "countryCode": "PE" }, "geometry": { "type": "Point", "coordinates": [ -73.034256, -3.120136 ] } },
{ "type": "Feature", "properties": { "decimalLatitude": 10.96526, "decimalLongitude": -85.32506, "eventDate": "2022-07-08T00:00:00Z", "countryCode": "CR" }, "geometry": { "type": "Point", "coordinates": [ -85.32506, 10.96526 ] } },
{ "type": "Feature", "properties": { "decimalLatitude": -9.054182, "decimalLongitude": -56.586285, "eventDate": "2022-07-18T12:52:00Z", "countryCode": "BR" }, "geometry": { "type": "Point", "coordinates": [ -56.586285, -9.054182 ] } },
{ "type": "Feature", "properties": { "decimalLatitude": -9.597495, "decimalLongitude": -55.932102, "eventDate": "2022-09-09T09:26:00Z", "countryCode": "BR" }, "geometry": { "type": "Point", "coordinates": [ -55.932102, -9.597495 ] } },
{ "type": "Feature", "properties": { "decimalLatitude": -3.54238, "decimalLongitude": -70.19394, "eventDate": "2022-10-03T12:10:00Z", "countryCode": "CO" }, "geometry": { "type": "Point", "coordinates": [ -70.19394, -3.54238 ] } },
{ "type": "Feature", "properties": { "decimalLatitude": 4.254444, "decimalLongitude": -52.524444, "eventDate": "2023-03-18T11:45:51Z", "countryCode": "GF" }, "geometry": { "type": "Point", "coordinates": [ -52.524444, 4.254444 ] } },
{ "type": "Feature", "properties": { "decimalLatitude": 4.638566, "decimalLongitude": -55.417778, "eventDate": "2023-04-04T00:00:00Z", "countryCode": "SR" }, "geometry": { "type": "Point", "coordinates": [ -55.417778, 4.638566 ] } },
{ "type": "Feature", "properties": { "decimalLatitude": 4.638566, "decimalLongitude": -55.417778, "eventDate": "2023-04-04T00:00:00Z", "countryCode": "SR" }, "geometry": { "type": "Point", "coordinates": [ -55.417778, 4.638566 ] } },
{ "type": "Feature", "properties": { "decimalLatitude": -0.674117, "decimalLongitude": -76.397025, "eventDate": "2023-06-12T13:47:00Z", "countryCode": "EC" }, "geometry": { "type": "Point", "coordinates": [ -76.397025, -0.674117 ] } },
{ "type": "Feature", "properties": { "decimalLatitude": 4.552861, "decimalLongitude": -72.860065, "eventDate": "2023-07-16T12:19:00Z", "countryCode": "CO" }, "geometry": { "type": "Point", "coordinates": [ -72.860065, 4.552861 ] } },
{ "type": "Feature", "properties": { "decimalLatitude": -8.634586, "decimalLongitude": -63.968583, "eventDate": "2023-10-28T16:14:00Z", "countryCode": "BR" }, "geometry": { "type": "Point", "coordinates": [ -63.968583, -8.634586 ] } },
{ "type": "Feature", "properties": { "decimalLatitude": -3.007096, "decimalLongitude": -59.94007, "eventDate": "2023-11-18T16:00:33Z", "countryCode": "BR" }, "geometry": { "type": "Point", "coordinates": [ -59.94007, -3.007096 ] } },
{ "type": "Feature", "properties": { "decimalLatitude": -1.031838, "decimalLongitude": -77.730957, "eventDate": "2023-11-05T23:19:00Z", "countryCode": "EC" }, "geometry": { "type": "Point", "coordinates": [ -77.730957, -1.031838 ] } },
{ "type": "Feature", "properties": { "decimalLatitude": -3.007096, "decimalLongitude": -59.94007, "eventDate": "2023-12-07T11:08:13Z", "countryCode": "BR" }, "geometry": { "type": "Point", "coordinates": [ -59.94007, -3.007096 ] } },
{ "type": "Feature", "properties": { "decimalLatitude": 8.993259, "decimalLongitude": -79.544029, "eventDate": "2023-12-21T11:44:00Z", "countryCode": "PA" }, "geometry": { "type": "Point", "coordinates": [ -79.544029, 8.993259 ] } },
{ "type": "Feature", "properties": { "decimalLatitude": -0.718411, "decimalLongitude": -77.682139, "eventDate": "2024-03-26T15:37:00Z", "countryCode": "EC" }, "geometry": { "type": "Point", "coordinates": [ -77.682139, -0.718411 ] } },
{ "type": "Feature", "properties": { "decimalLatitude": -9.596949, "decimalLongitude": -55.931349, "eventDate": "2024-04-13T11:13:00Z", "countryCode": "BR" }, "geometry": { "type": "Point", "coordinates": [ -55.931349, -9.596949 ] } },
{ "type": "Feature", "properties": { "decimalLatitude": -4.065908, "decimalLongitude": -69.978728, "eventDate": "2024-05-25T13:36:08Z", "countryCode": "CO" }, "geometry": { "type": "Point", "coordinates": [ -69.978728, -4.065908 ] } },
{ "type": "Feature", "properties": { "decimalLatitude": 2.061354, "decimalLongitude": -73.861738, "eventDate": "2024-06-22T14:42:00Z", "countryCode": "CO" }, "geometry": { "type": "Point", "coordinates": [ -73.861738, 2.061354 ] } },
{ "type": "Feature", "properties": { "decimalLatitude": -12.861795, "decimalLongitude": -69.487992, "eventDate": "2024-07-28T12:09:00Z", "countryCode": "PE" }, "geometry": { "type": "Point", "coordinates": [ -69.487992, -12.861795 ] } },
{ "type": "Feature", "properties": { "decimalLatitude": -9.898178, "decimalLongitude": -56.062843, "eventDate": "2024-08-14T14:26:00Z", "countryCode": "BR" }, "geometry": { "type": "Point", "coordinates": [ -56.062843, -9.898178 ] } },
{ "type": "Feature", "properties": { "decimalLatitude": -9.597495, "decimalLongitude": -55.932102, "eventDate": "2024-08-14T00:00:00Z", "countryCode": "BR" }, "geometry": { "type": "Point", "coordinates": [ -55.932102, -9.597495 ] } },
{ "type": "Feature", "properties": { "decimalLatitude": 3.152786, "decimalLongitude": -75.055822, "eventDate": "2024-09-21T10:27:22Z", "countryCode": "CO" }, "geometry": { "type": "Point", "coordinates": [ -75.055822, 3.152786 ] } },
{ "type": "Feature", "properties": { "decimalLatitude": 3.152786, "decimalLongitude": -75.055822, "eventDate": "2024-09-21T07:11:00Z", "countryCode": "CO" }, "geometry": { "type": "Point", "coordinates": [ -75.055822, 3.152786 ] } },
{ "type": "Feature", "properties": { "decimalLatitude": 3.152786, "decimalLongitude": -75.055821, "eventDate": "2024-09-21T09:49:51Z", "countryCode": "CO" }, "geometry": { "type": "Point", "coordinates": [ -75.055821, 3.152786 ] } },
{ "type": "Feature", "properties": { "decimalLatitude": 4.850044, "decimalLongitude": -52.352114, "eventDate": "2024-10-05T15:39:49Z", "countryCode": "GF" }, "geometry": { "type": "Point", "coordinates": [ -52.352114, 4.850044 ] } },
{ "type": "Feature", "properties": { "decimalLatitude": 4.943946, "decimalLongitude": -52.486574, "eventDate": "2025-01-27T11:53:00Z", "countryCode": "GF" }, "geometry": { "type": "Point", "coordinates": [ -52.486574, 4.943946 ] } },
{ "type": "Feature", "properties": { "decimalLatitude": -3.007178, "decimalLongitude": -59.939962, "eventDate": "2025-03-24T13:40:07Z", "countryCode": "BR" }, "geometry": { "type": "Point", "coordinates": [ -59.939962, -3.007178 ] } },
{ "type": "Feature", "properties": { "decimalLatitude": -15.46208, "decimalLongitude": -55.748394, "eventDate": "2025-09-16T21:20:00Z", "countryCode": "BR" }, "geometry": { "type": "Point", "coordinates": [ -55.748394, -15.46208 ] } },
{ "type": "Feature", "properties": { "decimalLatitude": -13.748128, "decimalLongitude": -56.681907, "eventDate": "2025-09-22T05:42:00Z", "countryCode": "BR" }, "geometry": { "type": "Point", "coordinates": [ -56.681907, -13.748128 ] } },
{ "type": "Feature", "properties": { "decimalLatitude": 4.15368, "decimalLongitude": -59.062967, "eventDate": "2025-10-08T13:01:00Z", "countryCode": "GY" }, "geometry": { "type": "Point", "coordinates": [ -59.062967, 4.15368 ] } },
{ "type": "Feature", "properties": { "decimalLatitude": 1.269531, "decimalLongitude": -70.211917, "eventDate": "2025-11-04T12:36:00Z", "countryCode": "CO" }, "geometry": { "type": "Point", "coordinates": [ -70.211917, 1.269531 ] } },
{ "type": "Feature", "properties": { "decimalLatitude": 1.213874, "decimalLongitude": -70.153042, "eventDate": "2025-11-04T12:23:00Z", "countryCode": "CO" }, "geometry": { "type": "Point", "coordinates": [ -70.153042, 1.213874 ] } },
{ "type": "Feature", "properties": { "decimalLatitude": -3.097481, "decimalLongitude": -59.987812, "eventDate": "2025-11-26T13:33:53Z", "countryCode": "BR" }, "geometry": { "type": "Point", "coordinates": [ -59.987812, -3.097481 ] } },
{ "type": "Feature", "properties": { "decimalLatitude": 4.168966, "decimalLongitude": -67.784246, "eventDate": "2025-11-19T11:23:00Z", "countryCode": "VE" }, "geometry": { "type": "Point", "coordinates": [ -67.784246, 4.168966 ] } },
{ "type": "Feature", "properties": { "decimalLatitude": -8.686293, "decimalLongitude": -63.868196, "eventDate": "2025-12-07T15:47:00Z", "countryCode": "BR" }, "geometry": { "type": "Point", "coordinates": [ -63.868196, -8.686293 ] } }
]
}
