{
"type": "FeatureCollection",
"name": "bebearia-sophus-gbif",
"crs": { "type": "name", "properties": { "name": "urn:ogc:def:crs:OGC:1.3:CRS84" } },
"features": [
{ "type": "Feature", "properties": { "decimalLatitude": 0.649451, "decimalLongitude": 29.496269, "eventDate": "2015-09-02T00:00:00Z", "countryCode": "CD" }, "geometry": { "type": "Point", "coordinates": [ 29.496269, 0.649451 ] } },
{ "type": "Feature", "properties": { "decimalLatitude": 5.210412, "decimalLongitude": -2.648866, "eventDate": "2017-05-16T21:45:00Z", "countryCode": "GH" }, "geometry": { "type": "Point", "coordinates": [ -2.648866, 5.210412 ] } },
{ "type": "Feature", "properties": { "decimalLatitude": 6.869166, "decimalLongitude": 4.287415, "eventDate": "2017-09-02T10:28:00Z", "countryCode": "NG" }, "geometry": { "type": "Point", "coordinates": [ 4.287415, 6.869166 ] } },
{ "type": "Feature", "properties": { "decimalLatitude": 6.266388, "decimalLongitude": -0.462643, "eventDate": "2019-02-04T09:11:00Z", "countryCode": "GH" }, "geometry": { "type": "Point", "coordinates": [ -0.462643, 6.266388 ] } },
{ "type": "Feature", "properties": { "decimalLatitude": 6.68898, "decimalLongitude": -1.339661, "eventDate": "2019-02-07T11:02:00Z", "countryCode": "GH" }, "geometry": { "type": "Point", "coordinates": [ -1.339661, 6.68898 ] } },
{ "type": "Feature", "properties": { "decimalLatitude": 0.438496, "decimalLongitude": 30.395613, "eventDate": "2019-04-24T00:00:00Z", "countryCode": "UG" }, "geometry": { "type": "Point", "coordinates": [ 30.395613, 0.438496 ] } },
{ "type": "Feature", "properties": { "decimalLatitude": -1.005825, "decimalLongitude": 29.621169, "eventDate": "2019-06-06T14:19:00Z", "countryCode": "UG" }, "geometry": { "type": "Point", "coordinates": [ 29.621169, -1.005825 ] } },
{ "type": "Feature", "properties": { "decimalLatitude": 0.2513, "decimalLongitude": 34.877398, "eventDate": "2020-02-29T00:00:00Z", "countryCode": "KE" }, "geometry": { "type": "Point", "coordinates": [ 34.877398, 0.2513 ] } },
{ "type": "Feature", "properties": { "decimalLatitude": 0.235983, "decimalLongitude": 34.89491, "eventDate": "2020-02-29T10:03:00Z", "countryCode": "KE" }, "geometry": { "type": "Point", "coordinates": [ 34.89491, 0.235983 ] } },
{ "type": "Feature", "properties": { "decimalLatitude": -1.792803, "decimalLongitude": 13.01641, "eventDate": "2021-05-28T10:05:15Z", "countryCode": "GA" }, "geometry": { "type": "Point", "coordinates": [ 13.01641, -1.792803 ] } },
{ "type": "Feature", "properties": { "decimalLatitude": 6.843574, "decimalLongitude": 0.443786, "eventDate": "2021-12-08T15:28:00Z", "countryCode": "GH" }, "geometry": { "type": "Point", "coordinates": [ 0.443786, 6.843574 ] } },
{ "type": "Feature", "properties": { "decimalLatitude": 6.84351, "decimalLongitude": 0.443921, "eventDate": "2021-12-08T15:23:00Z", "countryCode": "GH" }, "geometry": { "type": "Point", "coordinates": [ 0.443921, 6.84351 ] } },
{ "type": "Feature", "properties": { "decimalLatitude": 5.389979, "decimalLongitude": -1.362238, "eventDate": "2021-12-07T14:53:16Z", "countryCode": "GH" }, "geometry": { "type": "Point", "coordinates": [ -1.362238, 5.389979 ] } },
{ "type": "Feature", "properties": { "decimalLatitude": 7.008356, "decimalLongitude": 0.645578, "eventDate": "2022-02-04T11:21:44Z", "countryCode": "TG" }, "geometry": { "type": "Point", "coordinates": [ 0.645578, 7.008356 ] } },
{ "type": "Feature", "properties": { "decimalLatitude": 0.29238, "decimalLongitude": 34.856283, "eventDate": "2022-03-09T11:26:00Z", "countryCode": "KE" }, "geometry": { "type": "Point", "coordinates": [ 34.856283, 0.29238 ] } },
{ "type": "Feature", "properties": { "decimalLatitude": 6.688962, "decimalLongitude": -1.363305, "eventDate": "2022-05-13T21:45:00Z", "countryCode": "GH" }, "geometry": { "type": "Point", "coordinates": [ -1.363305, 6.688962 ] } },
{ "type": "Feature", "properties": { "decimalLatitude": 3.669444, "decimalLongitude": 26.228333, "eventDate": "2022-07-15T00:00:00Z", "countryCode": "CD" }, "geometry": { "type": "Point", "coordinates": [ 26.228333, 3.669444 ] } },
{ "type": "Feature", "properties": { "decimalLatitude": -2.760206, "decimalLongitude": 20.378654, "eventDate": "2022-10-31T11:20:00Z", "countryCode": "CD" }, "geometry": { "type": "Point", "coordinates": [ 20.378654, -2.760206 ] } },
{ "type": "Feature", "properties": { "decimalLatitude": -2.762269, "decimalLongitude": 20.377487, "eventDate": "2022-10-28T10:11:00Z", "countryCode": "CD" }, "geometry": { "type": "Point", "coordinates": [ 20.377487, -2.762269 ] } },
{ "type": "Feature", "properties": { "decimalLatitude": -2.760206, "decimalLongitude": 20.378654, "eventDate": "2022-11-03T11:18:00Z", "countryCode": "CD" }, "geometry": { "type": "Point", "coordinates": [ 20.378654, -2.760206 ] } },
{ "type": "Feature", "properties": { "decimalLatitude": -2.760206, "decimalLongitude": 20.378654, "eventDate": "2022-11-27T13:46:00Z", "countryCode": "CD" }, "geometry": { "type": "Point", "coordinates": [ 20.378654, -2.760206 ] } },
{ "type": "Feature", "properties": { "decimalLatitude": -2.760206, "decimalLongitude": 20.378654, "eventDate": "2022-11-17T16:39:00Z", "countryCode": "CD" }, "geometry": { "type": "Point", "coordinates": [ 20.378654, -2.760206 ] } },
{ "type": "Feature", "properties": { "decimalLatitude": -2.760206, "decimalLongitude": 20.378654, "eventDate": "2022-11-27T13:33:00Z", "countryCode": "CD" }, "geometry": { "type": "Point", "coordinates": [ 20.378654, -2.760206 ] } },
{ "type": "Feature", "properties": { "decimalLatitude": 6.68745, "decimalLongitude": -1.343406, "eventDate": "2023-02-19T09:50:55Z", "countryCode": "GH" }, "geometry": { "type": "Point", "coordinates": [ -1.343406, 6.68745 ] } },
{ "type": "Feature", "properties": { "decimalLatitude": 8.942341, "decimalLongitude": 1.624006, "eventDate": "2023-04-28T11:57:00Z", "countryCode": "TG" }, "geometry": { "type": "Point", "coordinates": [ 1.624006, 8.942341 ] } },
{ "type": "Feature", "properties": { "decimalLatitude": -0.99668, "decimalLongitude": 29.614171, "eventDate": "2025-01-17T12:22:00Z", "countryCode": "UG" }, "geometry": { "type": "Point", "coordinates": [ 29.614171, -0.99668 ] } },
{ "type": "Feature", "properties": { "decimalLatitude": 7.551188, "decimalLongitude": 4.928156, "eventDate": "2025-01-11T13:37:25Z", "countryCode": "NG" }, "geometry": { "type": "Point", "coordinates": [ 4.928156, 7.551188 ] } },
{ "type": "Feature", "properties": { "decimalLatitude": 6.005843, "decimalLongitude": -1.285796, "eventDate": "2025-05-14T18:34:00Z", "countryCode": "GH" }, "geometry": { "type": "Point", "coordinates": [ -1.285796, 6.005843 ] } },
{ "type": "Feature", "properties": { "decimalLatitude": 6.267533, "decimalLongitude": -0.460703, "eventDate": "2025-05-09T18:32:00Z", "countryCode": "GH" }, "geometry": { "type": "Point", "coordinates": [ -0.460703, 6.267533 ] } },
{ "type": "Feature", "properties": { "decimalLatitude": 6.686977, "decimalLongitude": -1.34401, "eventDate": "2025-05-11T18:43:00Z", "countryCode": "GH" }, "geometry": { "type": "Point", "coordinates": [ -1.34401, 6.686977 ] } },
{ "type": "Feature", "properties": { "decimalLatitude": 6.686977, "decimalLongitude": -1.34401, "eventDate": "2025-05-12T18:50:00Z", "countryCode": "GH" }, "geometry": { "type": "Point", "coordinates": [ -1.34401, 6.686977 ] } },
{ "type": "Feature", "properties": { "decimalLatitude": 5.384278, "decimalLongitude": -4.052288, "eventDate": "2025-09-12T16:31:00Z", "countryCode": "CI" }, "geometry": { "type": "Point", "coordinates": [ -4.052288, 5.384278 ] } }
]
}
