{
"type": "FeatureCollection",
"name": "bebearia-tentyris-gbif",
"crs": { "type": "name", "properties": { "name": "urn:ogc:def:crs:OGC:1.3:CRS84" } },
"features": [
{ "type": "Feature", "properties": { "decimalLatitude": 6.725302, "decimalLongitude": -1.353378, "eventDate": "2015-04-05T00:00:00Z", "countryCode": "GH" }, "geometry": { "type": "Point", "coordinates": [ -1.353378, 6.725302 ] } },
{ "type": "Feature", "properties": { "decimalLatitude": 7.946527, "decimalLongitude": -1.023194, "eventDate": "2016-03-12T12:00:00Z", "countryCode": "GH" }, "geometry": { "type": "Point", "coordinates": [ -1.023194, 7.946527 ] } },
{ "type": "Feature", "properties": { "decimalLatitude": 6.267418, "decimalLongitude": -0.460161, "eventDate": "2017-05-16T14:06:00Z", "countryCode": "GH" }, "geometry": { "type": "Point", "coordinates": [ -0.460161, 6.267418 ] } },
{ "type": "Feature", "properties": { "decimalLatitude": 7.105415, "decimalLongitude": 0.606995, "eventDate": "2018-01-20T12:34:00Z", "countryCode": "GH" }, "geometry": { "type": "Point", "coordinates": [ 0.606995, 7.105415 ] } },
{ "type": "Feature", "properties": { "decimalLatitude": 6.688823, "decimalLongitude": -1.340007, "eventDate": "2019-02-07T11:06:00Z", "countryCode": "GH" }, "geometry": { "type": "Point", "coordinates": [ -1.340007, 6.688823 ] } },
{ "type": "Feature", "properties": { "decimalLatitude": 6.688853, "decimalLongitude": -1.340028, "eventDate": "2019-02-07T10:12:00Z", "countryCode": "GH" }, "geometry": { "type": "Point", "coordinates": [ -1.340028, 6.688853 ] } },
{ "type": "Feature", "properties": { "decimalLatitude": 6.692924, "decimalLongitude": -1.341159, "eventDate": "2019-10-17T11:15:00Z", "countryCode": "GH" }, "geometry": { "type": "Point", "coordinates": [ -1.341159, 6.692924 ] } },
{ "type": "Feature", "properties": { "decimalLatitude": 6.077249, "decimalLongitude": -0.623917, "eventDate": "2021-02-04T00:00:00Z", "countryCode": "GH" }, "geometry": { "type": "Point", "coordinates": [ -0.623917, 6.077249 ] } },
{ "type": "Feature", "properties": { "decimalLatitude": 6.09227, "decimalLongitude": -0.606751, "eventDate": "2021-02-17T00:00:00Z", "countryCode": "GH" }, "geometry": { "type": "Point", "coordinates": [ -0.606751, 6.09227 ] } },
{ "type": "Feature", "properties": { "decimalLatitude": 6.09227, "decimalLongitude": -0.604005, "eventDate": "2021-02-15T00:00:00Z", "countryCode": "GH" }, "geometry": { "type": "Point", "coordinates": [ -0.604005, 6.09227 ] } },
{ "type": "Feature", "properties": { "decimalLatitude": 6.095684, "decimalLongitude": -0.602631, "eventDate": "2021-02-13T00:00:00Z", "countryCode": "GH" }, "geometry": { "type": "Point", "coordinates": [ -0.602631, 6.095684 ] } },
{ "type": "Feature", "properties": { "decimalLatitude": 6.09227, "decimalLongitude": -0.606751, "eventDate": "2021-03-20T00:00:00Z", "countryCode": "GH" }, "geometry": { "type": "Point", "coordinates": [ -0.606751, 6.09227 ] } },
{ "type": "Feature", "properties": { "decimalLatitude": 6.09227, "decimalLongitude": -0.621171, "eventDate": "2021-03-26T00:00:00Z", "countryCode": "GH" }, "geometry": { "type": "Point", "coordinates": [ -0.621171, 6.09227 ] } },
{ "type": "Feature", "properties": { "decimalLatitude": 6.09227, "decimalLongitude": -0.626664, "eventDate": "2021-03-28T00:00:00Z", "countryCode": "GH" }, "geometry": { "type": "Point", "coordinates": [ -0.626664, 6.09227 ] } },
{ "type": "Feature", "properties": { "decimalLatitude": 6.09227, "decimalLongitude": -0.611558, "eventDate": "2021-03-22T00:00:00Z", "countryCode": "GH" }, "geometry": { "type": "Point", "coordinates": [ -0.611558, 6.09227 ] } },
{ "type": "Feature", "properties": { "decimalLatitude": 6.09227, "decimalLongitude": -0.616364, "eventDate": "2021-03-24T00:00:00Z", "countryCode": "GH" }, "geometry": { "type": "Point", "coordinates": [ -0.616364, 6.09227 ] } },
{ "type": "Feature", "properties": { "decimalLatitude": 6.09227, "decimalLongitude": -0.632157, "eventDate": "2021-03-30T00:00:00Z", "countryCode": "GH" }, "geometry": { "type": "Point", "coordinates": [ -0.632157, 6.09227 ] } },
{ "type": "Feature", "properties": { "decimalLatitude": 6.108656, "decimalLongitude": -0.614304, "eventDate": "2021-03-06T00:00:00Z", "countryCode": "GH" }, "geometry": { "type": "Point", "coordinates": [ -0.614304, 6.108656 ] } },
{ "type": "Feature", "properties": { "decimalLatitude": 6.106608, "decimalLongitude": -0.630784, "eventDate": "2021-03-08T00:00:00Z", "countryCode": "GH" }, "geometry": { "type": "Point", "coordinates": [ -0.630784, 6.106608 ] } },
{ "type": "Feature", "properties": { "decimalLatitude": 6.09227, "decimalLongitude": -0.610184, "eventDate": "2021-03-04T00:00:00Z", "countryCode": "GH" }, "geometry": { "type": "Point", "coordinates": [ -0.610184, 6.09227 ] } },
{ "type": "Feature", "properties": { "decimalLatitude": 6.096367, "decimalLongitude": -0.603318, "eventDate": "2021-03-18T00:00:00Z", "countryCode": "GH" }, "geometry": { "type": "Point", "coordinates": [ -0.603318, 6.096367 ] } },
{ "type": "Feature", "properties": { "decimalLatitude": 6.097732, "decimalLongitude": -0.608811, "eventDate": "2021-03-16T00:00:00Z", "countryCode": "GH" }, "geometry": { "type": "Point", "coordinates": [ -0.608811, 6.097732 ] } },
{ "type": "Feature", "properties": { "decimalLatitude": 6.097732, "decimalLongitude": -0.614991, "eventDate": "2021-03-14T00:00:00Z", "countryCode": "GH" }, "geometry": { "type": "Point", "coordinates": [ -0.614991, 6.097732 ] } },
{ "type": "Feature", "properties": { "decimalLatitude": 6.101829, "decimalLongitude": -0.626664, "eventDate": "2021-03-10T00:00:00Z", "countryCode": "GH" }, "geometry": { "type": "Point", "coordinates": [ -0.626664, 6.101829 ] } },
{ "type": "Feature", "properties": { "decimalLatitude": 6.099781, "decimalLongitude": -0.620484, "eventDate": "2021-03-12T00:00:00Z", "countryCode": "GH" }, "geometry": { "type": "Point", "coordinates": [ -0.620484, 6.099781 ] } },
{ "type": "Feature", "properties": { "decimalLatitude": 6.085443, "decimalLongitude": -0.625977, "eventDate": "2021-04-29T00:00:00Z", "countryCode": "GH" }, "geometry": { "type": "Point", "coordinates": [ -0.625977, 6.085443 ] } },
{ "type": "Feature", "properties": { "decimalLatitude": 6.08476, "decimalLongitude": -0.619797, "eventDate": "2021-04-11T00:00:00Z", "countryCode": "GH" }, "geometry": { "type": "Point", "coordinates": [ -0.619797, 6.08476 ] } },
{ "type": "Feature", "properties": { "decimalLatitude": 6.079298, "decimalLongitude": -0.608124, "eventDate": "2021-04-26T00:00:00Z", "countryCode": "GH" }, "geometry": { "type": "Point", "coordinates": [ -0.608124, 6.079298 ] } },
{ "type": "Feature", "properties": { "decimalLatitude": 6.083394, "decimalLongitude": -0.614991, "eventDate": "2021-04-13T00:00:00Z", "countryCode": "GH" }, "geometry": { "type": "Point", "coordinates": [ -0.614991, 6.083394 ] } },
{ "type": "Feature", "properties": { "decimalLatitude": 6.082711, "decimalLongitude": -0.610184, "eventDate": "2021-04-15T00:00:00Z", "countryCode": "GH" }, "geometry": { "type": "Point", "coordinates": [ -0.610184, 6.082711 ] } },
{ "type": "Feature", "properties": { "decimalLatitude": 6.086125, "decimalLongitude": -0.63765, "eventDate": "2021-04-05T00:00:00Z", "countryCode": "GH" }, "geometry": { "type": "Point", "coordinates": [ -0.63765, 6.086125 ] } },
{ "type": "Feature", "properties": { "decimalLatitude": 6.086125, "decimalLongitude": -0.63353, "eventDate": "2021-04-07T00:00:00Z", "countryCode": "GH" }, "geometry": { "type": "Point", "coordinates": [ -0.63353, 6.086125 ] } },
{ "type": "Feature", "properties": { "decimalLatitude": 6.09227, "decimalLongitude": -0.639023, "eventDate": "2021-04-01T00:00:00Z", "countryCode": "GH" }, "geometry": { "type": "Point", "coordinates": [ -0.639023, 6.09227 ] } },
{ "type": "Feature", "properties": { "decimalLatitude": 6.086125, "decimalLongitude": -0.645203, "eventDate": "2021-04-03T00:00:00Z", "countryCode": "GH" }, "geometry": { "type": "Point", "coordinates": [ -0.645203, 6.086125 ] } },
{ "type": "Feature", "properties": { "decimalLatitude": 6.074518, "decimalLongitude": -0.646577, "eventDate": "2021-04-19T00:00:00Z", "countryCode": "GH" }, "geometry": { "type": "Point", "coordinates": [ -0.646577, 6.074518 ] } },
{ "type": "Feature", "properties": { "decimalLatitude": 6.075201, "decimalLongitude": -0.63971, "eventDate": "2021-04-14T00:00:00Z", "countryCode": "GH" }, "geometry": { "type": "Point", "coordinates": [ -0.63971, 6.075201 ] } },
{ "type": "Feature", "properties": { "decimalLatitude": 6.074518, "decimalLongitude": -0.653443, "eventDate": "2021-04-01T00:00:00Z", "countryCode": "GH" }, "geometry": { "type": "Point", "coordinates": [ -0.653443, 6.074518 ] } },
{ "type": "Feature", "properties": { "decimalLatitude": 6.071787, "decimalLongitude": -0.655503, "eventDate": "2021-04-11T00:00:00Z", "countryCode": "GH" }, "geometry": { "type": "Point", "coordinates": [ -0.655503, 6.071787 ] } },
{ "type": "Feature", "properties": { "decimalLatitude": 6.068373, "decimalLongitude": -0.64589, "eventDate": "2021-04-11T00:00:00Z", "countryCode": "GH" }, "geometry": { "type": "Point", "coordinates": [ -0.64589, 6.068373 ] } },
{ "type": "Feature", "properties": { "decimalLatitude": 6.078615, "decimalLongitude": -0.613618, "eventDate": "2021-04-28T00:00:00Z", "countryCode": "GH" }, "geometry": { "type": "Point", "coordinates": [ -0.613618, 6.078615 ] } },
{ "type": "Feature", "properties": { "decimalLatitude": 6.077249, "decimalLongitude": -0.619111, "eventDate": "2021-04-30T00:00:00Z", "countryCode": "GH" }, "geometry": { "type": "Point", "coordinates": [ -0.619111, 6.077249 ] } },
{ "type": "Feature", "properties": { "decimalLatitude": 6.075201, "decimalLongitude": -0.634217, "eventDate": "2021-04-14T00:00:00Z", "countryCode": "GH" }, "geometry": { "type": "Point", "coordinates": [ -0.634217, 6.075201 ] } },
{ "type": "Feature", "properties": { "decimalLatitude": 6.075884, "decimalLongitude": -0.630097, "eventDate": "2021-04-14T00:00:00Z", "countryCode": "GH" }, "geometry": { "type": "Point", "coordinates": [ -0.630097, 6.075884 ] } },
{ "type": "Feature", "properties": { "decimalLatitude": 6.06769, "decimalLongitude": -0.616364, "eventDate": "2021-04-30T00:00:00Z", "countryCode": "GH" }, "geometry": { "type": "Point", "coordinates": [ -0.616364, 6.06769 ] } },
{ "type": "Feature", "properties": { "decimalLatitude": 6.068373, "decimalLongitude": -0.638337, "eventDate": "2021-04-23T00:00:00Z", "countryCode": "GH" }, "geometry": { "type": "Point", "coordinates": [ -0.638337, 6.068373 ] } },
{ "type": "Feature", "properties": { "decimalLatitude": 6.067007, "decimalLongitude": -0.632157, "eventDate": "2021-04-07T00:00:00Z", "countryCode": "GH" }, "geometry": { "type": "Point", "coordinates": [ -0.632157, 6.067007 ] } },
{ "type": "Feature", "properties": { "decimalLatitude": 6.068373, "decimalLongitude": -0.64177, "eventDate": "2021-04-11T00:00:00Z", "countryCode": "GH" }, "geometry": { "type": "Point", "coordinates": [ -0.64177, 6.068373 ] } },
{ "type": "Feature", "properties": { "decimalLatitude": 6.066325, "decimalLongitude": -0.611558, "eventDate": "2021-04-30T00:00:00Z", "countryCode": "GH" }, "geometry": { "type": "Point", "coordinates": [ -0.611558, 6.066325 ] } },
{ "type": "Feature", "properties": { "decimalLatitude": 6.066325, "decimalLongitude": -0.625291, "eventDate": "2021-04-24T00:00:00Z", "countryCode": "GH" }, "geometry": { "type": "Point", "coordinates": [ -0.625291, 6.066325 ] } },
{ "type": "Feature", "properties": { "decimalLatitude": 6.06769, "decimalLongitude": -0.619111, "eventDate": "2021-04-30T00:00:00Z", "countryCode": "GH" }, "geometry": { "type": "Point", "coordinates": [ -0.619111, 6.06769 ] } },
{ "type": "Feature", "properties": { "decimalLatitude": 3.190428, "decimalLongitude": 12.811595, "eventDate": "2021-05-23T09:18:13Z", "countryCode": "CM" }, "geometry": { "type": "Point", "coordinates": [ 12.811595, 3.190428 ] } },
{ "type": "Feature", "properties": { "decimalLatitude": 3.190453, "decimalLongitude": 12.812257, "eventDate": "2021-05-23T09:18:00Z", "countryCode": "CM" }, "geometry": { "type": "Point", "coordinates": [ 12.812257, 3.190453 ] } },
{ "type": "Feature", "properties": { "decimalLatitude": 3.190205, "decimalLongitude": 12.813178, "eventDate": "2021-05-23T09:14:00Z", "countryCode": "CM" }, "geometry": { "type": "Point", "coordinates": [ 12.813178, 3.190205 ] } },
{ "type": "Feature", "properties": { "decimalLatitude": -1.769412, "decimalLongitude": 12.997514, "eventDate": "2021-10-05T13:40:00Z", "countryCode": "GA" }, "geometry": { "type": "Point", "coordinates": [ 12.997514, -1.769412 ] } },
{ "type": "Feature", "properties": { "decimalLatitude": 6.843529, "decimalLongitude": 0.429699, "eventDate": "2021-12-06T11:56:00Z", "countryCode": "GH" }, "geometry": { "type": "Point", "coordinates": [ 0.429699, 6.843529 ] } },
{ "type": "Feature", "properties": { "decimalLatitude": 5.352434, "decimalLongitude": -1.38375, "eventDate": "2021-12-15T09:25:48Z", "countryCode": "GH" }, "geometry": { "type": "Point", "coordinates": [ -1.38375, 5.352434 ] } },
{ "type": "Feature", "properties": { "decimalLatitude": 6.684586, "decimalLongitude": -1.358011, "eventDate": "2023-02-19T08:12:43Z", "countryCode": "GH" }, "geometry": { "type": "Point", "coordinates": [ -1.358011, 6.684586 ] } },
{ "type": "Feature", "properties": { "decimalLatitude": 6.687292, "decimalLongitude": -1.3442, "eventDate": "2023-04-18T10:20:22Z", "countryCode": "GH" }, "geometry": { "type": "Point", "coordinates": [ -1.3442, 6.687292 ] } },
{ "type": "Feature", "properties": { "decimalLatitude": 3.62808, "decimalLongitude": 11.577633, "eventDate": "2023-11-16T10:29:03Z", "countryCode": "CM" }, "geometry": { "type": "Point", "coordinates": [ 11.577633, 3.62808 ] } },
{ "type": "Feature", "properties": { "decimalLatitude": 6.841549, "decimalLongitude": 0.43526, "eventDate": "2023-12-29T12:32:00Z", "countryCode": "GH" }, "geometry": { "type": "Point", "coordinates": [ 0.43526, 6.841549 ] } },
{ "type": "Feature", "properties": { "decimalLatitude": 6.075959, "decimalLongitude": -1.371023, "eventDate": "2024-01-23T05:42:38Z", "countryCode": "GH" }, "geometry": { "type": "Point", "coordinates": [ -1.371023, 6.075959 ] } },
{ "type": "Feature", "properties": { "decimalLatitude": -0.315345, "decimalLongitude": 11.712262, "eventDate": "2024-07-17T10:37:00Z", "countryCode": "GA" }, "geometry": { "type": "Point", "coordinates": [ 11.712262, -0.315345 ] } },
{ "type": "Feature", "properties": { "decimalLatitude": 6.686977, "decimalLongitude": -1.34401, "eventDate": "2025-05-12T17:53:00Z", "countryCode": "GH" }, "geometry": { "type": "Point", "coordinates": [ -1.34401, 6.686977 ] } },
{ "type": "Feature", "properties": { "decimalLatitude": 6.686977, "decimalLongitude": -1.34401, "eventDate": "2025-05-12T20:29:00Z", "countryCode": "GH" }, "geometry": { "type": "Point", "coordinates": [ -1.34401, 6.686977 ] } }
]
}
