{
"type": "FeatureCollection",
"name": "cethosia-hypsea-gbif",
"crs": { "type": "name", "properties": { "name": "urn:ogc:def:crs:OGC:1.3:CRS84" } },
"features": [
{ "type": "Feature", "properties": { "decimalLatitude": 1.380831, "decimalLongitude": 110.220432, "eventDate": "2015-04-13T02:54:00Z", "countryCode": "MY" }, "geometry": { "type": "Point", "coordinates": [ 110.220432, 1.380831 ] } },
{ "type": "Feature", "properties": { "decimalLatitude": 11.0651, "decimalLongitude": 98.9158, "eventDate": "2015-05-22T00:00:00Z", "countryCode": "MM" }, "geometry": { "type": "Point", "coordinates": [ 98.9158, 11.0651 ] } },
{ "type": "Feature", "properties": { "decimalLatitude": 11.0651, "decimalLongitude": 98.9158, "eventDate": "2015-05-22T00:00:00Z", "countryCode": "MM" }, "geometry": { "type": "Point", "coordinates": [ 98.9158, 11.0651 ] } },
{ "type": "Feature", "properties": { "decimalLatitude": 11.0651, "decimalLongitude": 98.9158, "eventDate": "2015-05-22T00:00:00Z", "countryCode": "MM" }, "geometry": { "type": "Point", "coordinates": [ 98.9158, 11.0651 ] } },
{ "type": "Feature", "properties": { "decimalLatitude": 11.07, "decimalLongitude": 98.92, "eventDate": "2015-05-22T00:00:00Z", "countryCode": "MM" }, "geometry": { "type": "Point", "coordinates": [ 98.92, 11.07 ] } },
{ "type": "Feature", "properties": { "decimalLatitude": 11.0651, "decimalLongitude": 98.9158, "eventDate": "2015-05-22T00:00:00Z", "countryCode": "MM" }, "geometry": { "type": "Point", "coordinates": [ 98.9158, 11.0651 ] } },
{ "type": "Feature", "properties": { "decimalLatitude": 1.486959, "decimalLongitude": 101.83982, "eventDate": "2015-06-18T09:14:00Z", "countryCode": "ID" }, "geometry": { "type": "Point", "coordinates": [ 101.83982, 1.486959 ] } },
{ "type": "Feature", "properties": { "decimalLatitude": 1.344762, "decimalLongitude": 103.822351, "eventDate": "2015-06-13T14:13:00Z", "countryCode": "SG" }, "geometry": { "type": "Point", "coordinates": [ 103.822351, 1.344762 ] } },
{ "type": "Feature", "properties": { "decimalLatitude": 1.344762, "decimalLongitude": 103.822351, "eventDate": "2015-07-12T12:36:00Z", "countryCode": "SG" }, "geometry": { "type": "Point", "coordinates": [ 103.822351, 1.344762 ] } },
{ "type": "Feature", "properties": { "decimalLatitude": 1.328753, "decimalLongitude": 103.781435, "eventDate": "2015-09-27T12:28:00Z", "countryCode": "SG" }, "geometry": { "type": "Point", "coordinates": [ 103.781435, 1.328753 ] } },
{ "type": "Feature", "properties": { "decimalLatitude": 4.046059, "decimalLongitude": 114.824552, "eventDate": "2015-10-29T04:57:13Z", "countryCode": "MY" }, "geometry": { "type": "Point", "coordinates": [ 114.824552, 4.046059 ] } },
{ "type": "Feature", "properties": { "decimalLatitude": 3.68314, "decimalLongitude": 97.648311, "eventDate": "2016-05-05T05:18:09Z", "countryCode": "ID" }, "geometry": { "type": "Point", "coordinates": [ 97.648311, 3.68314 ] } },
{ "type": "Feature", "properties": { "decimalLatitude": 1.344762, "decimalLongitude": 103.822351, "eventDate": "2016-06-12T10:23:00Z", "countryCode": "SG" }, "geometry": { "type": "Point", "coordinates": [ 103.822351, 1.344762 ] } },
{ "type": "Feature", "properties": { "decimalLatitude": 5.865546, "decimalLongitude": 116.156087, "eventDate": "2016-12-28T22:06:00Z", "countryCode": "MY" }, "geometry": { "type": "Point", "coordinates": [ 116.156087, 5.865546 ] } },
{ "type": "Feature", "properties": { "decimalLatitude": 1.38103, "decimalLongitude": 110.221444, "eventDate": "2017-01-19T04:10:00Z", "countryCode": "MY" }, "geometry": { "type": "Point", "coordinates": [ 110.221444, 1.38103 ] } },
{ "type": "Feature", "properties": { "decimalLatitude": 1.51964, "decimalLongitude": 110.388946, "eventDate": "2017-04-16T09:55:00Z", "countryCode": "MY" }, "geometry": { "type": "Point", "coordinates": [ 110.388946, 1.51964 ] } },
{ "type": "Feature", "properties": { "decimalLatitude": 6.045722, "decimalLongitude": 116.70336, "eventDate": "2017-09-18T23:47:00Z", "countryCode": "MY" }, "geometry": { "type": "Point", "coordinates": [ 116.70336, 6.045722 ] } },
{ "type": "Feature", "properties": { "decimalLatitude": 6.047949, "decimalLongitude": 116.703728, "eventDate": "2018-04-05T14:56:00Z", "countryCode": "MY" }, "geometry": { "type": "Point", "coordinates": [ 116.703728, 6.047949 ] } },
{ "type": "Feature", "properties": { "decimalLatitude": 5.97884, "decimalLongitude": 116.07532, "eventDate": "2018-05-20T10:44:00Z", "countryCode": "MY" }, "geometry": { "type": "Point", "coordinates": [ 116.07532, 5.97884 ] } },
{ "type": "Feature", "properties": { "decimalLatitude": 3.518839, "decimalLongitude": 98.123755, "eventDate": "2018-05-28T00:35:00Z", "countryCode": "ID" }, "geometry": { "type": "Point", "coordinates": [ 98.123755, 3.518839 ] } },
{ "type": "Feature", "properties": { "decimalLatitude": 4.674149, "decimalLongitude": 102.062999, "eventDate": "2018-06-11T13:50:00Z", "countryCode": "MY" }, "geometry": { "type": "Point", "coordinates": [ 102.062999, 4.674149 ] } },
{ "type": "Feature", "properties": { "decimalLatitude": 4.960645, "decimalLongitude": 117.802398, "eventDate": "2018-07-06T17:10:00Z", "countryCode": "MY" }, "geometry": { "type": "Point", "coordinates": [ 117.802398, 4.960645 ] } },
{ "type": "Feature", "properties": { "decimalLatitude": 1.827886, "decimalLongitude": 103.866997, "eventDate": "2018-09-11T12:12:00Z", "countryCode": "MY" }, "geometry": { "type": "Point", "coordinates": [ 103.866997, 1.827886 ] } },
{ "type": "Feature", "properties": { "decimalLatitude": 5.413231, "decimalLongitude": 100.783671, "eventDate": "2018-10-06T12:41:00Z", "countryCode": "MY" }, "geometry": { "type": "Point", "coordinates": [ 100.783671, 5.413231 ] } },
{ "type": "Feature", "properties": { "decimalLatitude": -0.110123, "decimalLongitude": 100.670534, "eventDate": "2018-11-20T14:12:00Z", "countryCode": "ID" }, "geometry": { "type": "Point", "coordinates": [ 100.670534, -0.110123 ] } },
{ "type": "Feature", "properties": { "decimalLatitude": 1.850844, "decimalLongitude": 103.897428, "eventDate": "2018-12-30T09:18:00Z", "countryCode": "MY" }, "geometry": { "type": "Point", "coordinates": [ 103.897428, 1.850844 ] } },
{ "type": "Feature", "properties": { "decimalLatitude": 5.796853, "decimalLongitude": 116.408451, "eventDate": "2019-01-08T15:10:00Z", "countryCode": "MY" }, "geometry": { "type": "Point", "coordinates": [ 116.408451, 5.796853 ] } },
{ "type": "Feature", "properties": { "decimalLatitude": 1.354068, "decimalLongitude": 103.776941, "eventDate": "2019-01-01T00:00:00Z", "countryCode": "SG" }, "geometry": { "type": "Point", "coordinates": [ 103.776941, 1.354068 ] } },
{ "type": "Feature", "properties": { "decimalLatitude": 4.535277, "decimalLongitude": 114.727669, "eventDate": "2019-02-21T11:05:00Z", "countryCode": "BN" }, "geometry": { "type": "Point", "coordinates": [ 114.727669, 4.535277 ] } },
{ "type": "Feature", "properties": { "decimalLatitude": 3.422567, "decimalLongitude": 115.151651, "eventDate": "2019-03-01T10:33:00Z", "countryCode": "MY" }, "geometry": { "type": "Point", "coordinates": [ 115.151651, 3.422567 ] } },
{ "type": "Feature", "properties": { "decimalLatitude": -8.565167, "decimalLongitude": 115.284369, "eventDate": "2019-04-21T04:22:02Z", "countryCode": "ID" }, "geometry": { "type": "Point", "coordinates": [ 115.284369, -8.565167 ] } },
{ "type": "Feature", "properties": { "decimalLatitude": 1.869165, "decimalLongitude": 103.890795, "eventDate": "2019-05-12T12:57:00Z", "countryCode": "MY" }, "geometry": { "type": "Point", "coordinates": [ 103.890795, 1.869165 ] } },
{ "type": "Feature", "properties": { "decimalLatitude": -8.798375, "decimalLongitude": 115.143813, "eventDate": "2019-07-26T14:41:00Z", "countryCode": "ID" }, "geometry": { "type": "Point", "coordinates": [ 115.143813, -8.798375 ] } },
{ "type": "Feature", "properties": { "decimalLatitude": 4.714836, "decimalLongitude": 102.08101, "eventDate": "2019-07-29T15:22:57Z", "countryCode": "MY" }, "geometry": { "type": "Point", "coordinates": [ 102.08101, 4.714836 ] } },
{ "type": "Feature", "properties": { "decimalLatitude": 1.402283, "decimalLongitude": 103.968103, "eventDate": "2019-07-31T11:54:07Z", "countryCode": "SG" }, "geometry": { "type": "Point", "coordinates": [ 103.968103, 1.402283 ] } },
{ "type": "Feature", "properties": { "decimalLatitude": -2.07024, "decimalLongitude": 101.293206, "eventDate": "2019-07-12T07:00:00Z", "countryCode": "ID" }, "geometry": { "type": "Point", "coordinates": [ 101.293206, -2.07024 ] } },
{ "type": "Feature", "properties": { "decimalLatitude": 4.506728, "decimalLongitude": 101.409387, "eventDate": "2019-08-11T14:39:00Z", "countryCode": "MY" }, "geometry": { "type": "Point", "coordinates": [ 101.409387, 4.506728 ] } },
{ "type": "Feature", "properties": { "decimalLatitude": -8.340539, "decimalLongitude": 115.091951, "eventDate": "2019-08-09T12:14:04Z", "countryCode": "ID" }, "geometry": { "type": "Point", "coordinates": [ 115.091951, -8.340539 ] } },
{ "type": "Feature", "properties": { "decimalLatitude": -8.340249, "decimalLongitude": 115.091951, "eventDate": "2019-08-09T04:06:29Z", "countryCode": "ID" }, "geometry": { "type": "Point", "coordinates": [ 115.091951, -8.340249 ] } },
{ "type": "Feature", "properties": { "decimalLatitude": -8.409518, "decimalLongitude": 115.188916, "eventDate": "2019-08-24T09:44:00Z", "countryCode": "ID" }, "geometry": { "type": "Point", "coordinates": [ 115.188916, -8.409518 ] } },
{ "type": "Feature", "properties": { "decimalLatitude": 1.359908, "decimalLongitude": 103.823572, "eventDate": "2019-09-26T17:04:00Z", "countryCode": "SG" }, "geometry": { "type": "Point", "coordinates": [ 103.823572, 1.359908 ] } },
{ "type": "Feature", "properties": { "decimalLatitude": 4.198483, "decimalLongitude": 114.043224, "eventDate": "2019-10-04T14:13:45Z", "countryCode": "MY" }, "geometry": { "type": "Point", "coordinates": [ 114.043224, 4.198483 ] } },
{ "type": "Feature", "properties": { "decimalLatitude": 1.879068, "decimalLongitude": 103.921872, "eventDate": "2019-10-04T09:57:00Z", "countryCode": "MY" }, "geometry": { "type": "Point", "coordinates": [ 103.921872, 1.879068 ] } },
{ "type": "Feature", "properties": { "decimalLatitude": -8.565233, "decimalLongitude": 115.284112, "eventDate": "2019-10-06T04:15:59Z", "countryCode": "ID" }, "geometry": { "type": "Point", "coordinates": [ 115.284112, -8.565233 ] } },
{ "type": "Feature", "properties": { "decimalLatitude": 5.041517, "decimalLongitude": 117.755508, "eventDate": "2019-10-18T08:04:16Z", "countryCode": "MY" }, "geometry": { "type": "Point", "coordinates": [ 117.755508, 5.041517 ] } },
{ "type": "Feature", "properties": { "decimalLatitude": -1.13719, "decimalLongitude": 100.369359, "eventDate": "2019-11-14T18:14:00Z", "countryCode": "ID" }, "geometry": { "type": "Point", "coordinates": [ 100.369359, -1.13719 ] } },
{ "type": "Feature", "properties": { "decimalLatitude": 1.871325, "decimalLongitude": 103.913311, "eventDate": "2019-11-30T11:06:00Z", "countryCode": "MY" }, "geometry": { "type": "Point", "coordinates": [ 103.913311, 1.871325 ] } },
{ "type": "Feature", "properties": { "decimalLatitude": 2.287264, "decimalLongitude": 111.864588, "eventDate": "2019-11-28T09:30:00Z", "countryCode": "MY" }, "geometry": { "type": "Point", "coordinates": [ 111.864588, 2.287264 ] } },
{ "type": "Feature", "properties": { "decimalLatitude": 3.93365, "decimalLongitude": 102.032291, "eventDate": "2019-12-20T23:02:00Z", "countryCode": "MY" }, "geometry": { "type": "Point", "coordinates": [ 102.032291, 3.93365 ] } },
{ "type": "Feature", "properties": { "decimalLatitude": 6.047885, "decimalLongitude": 116.701665, "eventDate": "2020-02-23T09:04:00Z", "countryCode": "MY" }, "geometry": { "type": "Point", "coordinates": [ 116.701665, 6.047885 ] } },
{ "type": "Feature", "properties": { "decimalLatitude": 5.015465, "decimalLongitude": 119.746189, "eventDate": "2020-02-15T09:31:00Z", "countryCode": "PH" }, "geometry": { "type": "Point", "coordinates": [ 119.746189, 5.015465 ] } },
{ "type": "Feature", "properties": { "decimalLatitude": 1.222956, "decimalLongitude": 103.854466, "eventDate": "2020-08-02T10:13:00Z", "countryCode": "SG" }, "geometry": { "type": "Point", "coordinates": [ 103.854466, 1.222956 ] } },
{ "type": "Feature", "properties": { "decimalLatitude": 3.084268, "decimalLongitude": 101.68107, "eventDate": "2020-10-30T11:09:00Z", "countryCode": "MY" }, "geometry": { "type": "Point", "coordinates": [ 101.68107, 3.084268 ] } },
{ "type": "Feature", "properties": { "decimalLatitude": 2.015017, "decimalLongitude": 112.936247, "eventDate": "2021-08-13T16:29:23Z", "countryCode": "MY" }, "geometry": { "type": "Point", "coordinates": [ 112.936247, 2.015017 ] } },
{ "type": "Feature", "properties": { "decimalLatitude": 1.352083, "decimalLongitude": 103.819836, "eventDate": "2021-10-07T09:38:00Z", "countryCode": "SG" }, "geometry": { "type": "Point", "coordinates": [ 103.819836, 1.352083 ] } },
{ "type": "Feature", "properties": { "decimalLatitude": 2.287264, "decimalLongitude": 111.864588, "eventDate": "2021-10-15T09:04:00Z", "countryCode": "MY" }, "geometry": { "type": "Point", "coordinates": [ 111.864588, 2.287264 ] } },
{ "type": "Feature", "properties": { "decimalLatitude": 5.796158, "decimalLongitude": 116.069884, "eventDate": "2021-11-19T13:56:00Z", "countryCode": "MY" }, "geometry": { "type": "Point", "coordinates": [ 116.069884, 5.796158 ] } },
{ "type": "Feature", "properties": { "decimalLatitude": -0.257607, "decimalLongitude": 115.975471, "eventDate": "2021-11-07T07:57:18Z", "countryCode": "ID" }, "geometry": { "type": "Point", "coordinates": [ 115.975471, -0.257607 ] } },
{ "type": "Feature", "properties": { "decimalLatitude": 5.932601, "decimalLongitude": 116.15073, "eventDate": "2021-12-12T12:10:00Z", "countryCode": "MY" }, "geometry": { "type": "Point", "coordinates": [ 116.15073, 5.932601 ] } },
{ "type": "Feature", "properties": { "decimalLatitude": 1.89225, "decimalLongitude": 103.868005, "eventDate": "2021-12-30T12:50:00Z", "countryCode": "MY" }, "geometry": { "type": "Point", "coordinates": [ 103.868005, 1.89225 ] } },
{ "type": "Feature", "properties": { "decimalLatitude": 5.025972, "decimalLongitude": 117.754692, "eventDate": "2022-01-16T16:18:07Z", "countryCode": "MY" }, "geometry": { "type": "Point", "coordinates": [ 117.754692, 5.025972 ] } },
{ "type": "Feature", "properties": { "decimalLatitude": 5.965274, "decimalLongitude": 116.082018, "eventDate": "2022-02-19T14:23:38Z", "countryCode": "MY" }, "geometry": { "type": "Point", "coordinates": [ 116.082018, 5.965274 ] } },
{ "type": "Feature", "properties": { "decimalLatitude": 9.763477, "decimalLongitude": 118.74733, "eventDate": "2022-04-14T14:02:52Z", "countryCode": "PH" }, "geometry": { "type": "Point", "coordinates": [ 118.74733, 9.763477 ] } },
{ "type": "Feature", "properties": { "decimalLatitude": 1.402085, "decimalLongitude": 103.967591, "eventDate": "2022-05-08T16:02:00Z", "countryCode": "SG" }, "geometry": { "type": "Point", "coordinates": [ 103.967591, 1.402085 ] } },
{ "type": "Feature", "properties": { "decimalLatitude": 1.40206, "decimalLongitude": 103.967835, "eventDate": "2022-05-08T08:41:00Z", "countryCode": "SG" }, "geometry": { "type": "Point", "coordinates": [ 103.967835, 1.40206 ] } },
{ "type": "Feature", "properties": { "decimalLatitude": 1.40189, "decimalLongitude": 103.966698, "eventDate": "2022-05-08T15:56:52Z", "countryCode": "SG" }, "geometry": { "type": "Point", "coordinates": [ 103.966698, 1.40189 ] } },
{ "type": "Feature", "properties": { "decimalLatitude": 2.969873, "decimalLongitude": 102.007188, "eventDate": "2022-05-28T09:21:10Z", "countryCode": "MY" }, "geometry": { "type": "Point", "coordinates": [ 102.007188, 2.969873 ] } },
{ "type": "Feature", "properties": { "decimalLatitude": 3.711868, "decimalLongitude": 101.736556, "eventDate": "2022-05-17T10:21:00Z", "countryCode": "MY" }, "geometry": { "type": "Point", "coordinates": [ 101.736556, 3.711868 ] } },
{ "type": "Feature", "properties": { "decimalLatitude": 2.857084, "decimalLongitude": 102.10378, "eventDate": "2022-06-02T11:11:43Z", "countryCode": "MY" }, "geometry": { "type": "Point", "coordinates": [ 102.10378, 2.857084 ] } },
{ "type": "Feature", "properties": { "decimalLatitude": 5.030054, "decimalLongitude": 117.752495, "eventDate": "2022-06-21T15:52:00Z", "countryCode": "MY" }, "geometry": { "type": "Point", "coordinates": [ 117.752495, 5.030054 ] } },
{ "type": "Feature", "properties": { "decimalLatitude": 4.866388, "decimalLongitude": 100.776188, "eventDate": "2022-07-27T00:00:00Z", "countryCode": "MY" }, "geometry": { "type": "Point", "coordinates": [ 100.776188, 4.866388 ] } },
{ "type": "Feature", "properties": { "decimalLatitude": 5.79664, "decimalLongitude": 116.408842, "eventDate": "2022-07-26T14:33:00Z", "countryCode": "MY" }, "geometry": { "type": "Point", "coordinates": [ 116.408842, 5.79664 ] } },
{ "type": "Feature", "properties": { "decimalLatitude": 3.335556, "decimalLongitude": 101.774444, "eventDate": "2022-08-18T15:22:00Z", "countryCode": "MY" }, "geometry": { "type": "Point", "coordinates": [ 101.774444, 3.335556 ] } },
{ "type": "Feature", "properties": { "decimalLatitude": 5.413912, "decimalLongitude": 100.781694, "eventDate": "2022-08-29T13:44:00Z", "countryCode": "MY" }, "geometry": { "type": "Point", "coordinates": [ 100.781694, 5.413912 ] } },
{ "type": "Feature", "properties": { "decimalLatitude": 6.145215, "decimalLongitude": 116.588764, "eventDate": "2022-08-29T15:11:24Z", "countryCode": "MY" }, "geometry": { "type": "Point", "coordinates": [ 116.588764, 6.145215 ] } },
{ "type": "Feature", "properties": { "decimalLatitude": 3.214941, "decimalLongitude": 101.878906, "eventDate": "2022-08-06T12:14:00Z", "countryCode": "MY" }, "geometry": { "type": "Point", "coordinates": [ 101.878906, 3.214941 ] } },
{ "type": "Feature", "properties": { "decimalLatitude": 3.216455, "decimalLongitude": 101.883496, "eventDate": "2022-09-17T18:50:00Z", "countryCode": "MY" }, "geometry": { "type": "Point", "coordinates": [ 101.883496, 3.216455 ] } },
{ "type": "Feature", "properties": { "decimalLatitude": -5.182204, "decimalLongitude": 104.760733, "eventDate": "2022-09-23T11:57:00Z", "countryCode": "ID" }, "geometry": { "type": "Point", "coordinates": [ 104.760733, -5.182204 ] } },
{ "type": "Feature", "properties": { "decimalLatitude": 1.40429, "decimalLongitude": 103.965144, "eventDate": "2022-10-18T11:15:00Z", "countryCode": "SG" }, "geometry": { "type": "Point", "coordinates": [ 103.965144, 1.40429 ] } },
{ "type": "Feature", "properties": { "decimalLatitude": 3.208479, "decimalLongitude": 101.843009, "eventDate": "2022-10-28T09:23:00Z", "countryCode": "MY" }, "geometry": { "type": "Point", "coordinates": [ 101.843009, 3.208479 ] } },
{ "type": "Feature", "properties": { "decimalLatitude": 3.209053, "decimalLongitude": 101.843517, "eventDate": "2022-10-28T09:31:00Z", "countryCode": "MY" }, "geometry": { "type": "Point", "coordinates": [ 101.843517, 3.209053 ] } },
{ "type": "Feature", "properties": { "decimalLatitude": -8.584396, "decimalLongitude": 115.293942, "eventDate": "2022-10-14T11:12:05Z", "countryCode": "ID" }, "geometry": { "type": "Point", "coordinates": [ 115.293942, -8.584396 ] } },
{ "type": "Feature", "properties": { "decimalLatitude": -8.580573, "decimalLongitude": 115.286538, "eventDate": "2022-10-14T11:04:05Z", "countryCode": "ID" }, "geometry": { "type": "Point", "coordinates": [ 115.286538, -8.580573 ] } },
{ "type": "Feature", "properties": { "decimalLatitude": 5.443023, "decimalLongitude": 116.451597, "eventDate": "2022-10-31T12:27:00Z", "countryCode": "MY" }, "geometry": { "type": "Point", "coordinates": [ 116.451597, 5.443023 ] } },
{ "type": "Feature", "properties": { "decimalLatitude": 3.714322, "decimalLongitude": 101.748039, "eventDate": "2022-11-04T09:53:00Z", "countryCode": "MY" }, "geometry": { "type": "Point", "coordinates": [ 101.748039, 3.714322 ] } },
{ "type": "Feature", "properties": { "decimalLatitude": 1.35981, "decimalLongitude": 103.826672, "eventDate": "2022-11-20T12:45:00Z", "countryCode": "SG" }, "geometry": { "type": "Point", "coordinates": [ 103.826672, 1.35981 ] } },
{ "type": "Feature", "properties": { "decimalLatitude": 1.402042, "decimalLongitude": 103.968249, "eventDate": "2022-11-20T09:57:00Z", "countryCode": "SG" }, "geometry": { "type": "Point", "coordinates": [ 103.968249, 1.402042 ] } },
{ "type": "Feature", "properties": { "decimalLatitude": 3.714322, "decimalLongitude": 101.748039, "eventDate": "2022-11-04T09:23:00Z", "countryCode": "MY" }, "geometry": { "type": "Point", "coordinates": [ 101.748039, 3.714322 ] } },
{ "type": "Feature", "properties": { "decimalLatitude": 4.967905, "decimalLongitude": 117.806006, "eventDate": "2022-11-01T11:52:00Z", "countryCode": "MY" }, "geometry": { "type": "Point", "coordinates": [ 117.806006, 4.967905 ] } },
{ "type": "Feature", "properties": { "decimalLatitude": 1.35981, "decimalLongitude": 103.826672, "eventDate": "2022-11-20T21:34:00Z", "countryCode": "SG" }, "geometry": { "type": "Point", "coordinates": [ 103.826672, 1.35981 ] } },
{ "type": "Feature", "properties": { "decimalLatitude": 1.35981, "decimalLongitude": 103.826672, "eventDate": "2022-11-20T13:21:00Z", "countryCode": "SG" }, "geometry": { "type": "Point", "coordinates": [ 103.826672, 1.35981 ] } },
{ "type": "Feature", "properties": { "decimalLatitude": 1.340949, "decimalLongitude": 103.823239, "eventDate": "2022-12-01T11:44:00Z", "countryCode": "SG" }, "geometry": { "type": "Point", "coordinates": [ 103.823239, 1.340949 ] } },
{ "type": "Feature", "properties": { "decimalLatitude": 5.413148, "decimalLongitude": 100.782427, "eventDate": "2022-12-13T00:00:00Z", "countryCode": "MY" }, "geometry": { "type": "Point", "coordinates": [ 100.782427, 5.413148 ] } },
{ "type": "Feature", "properties": { "decimalLatitude": 1.341374, "decimalLongitude": 103.825438, "eventDate": "2022-12-10T15:13:00Z", "countryCode": "SG" }, "geometry": { "type": "Point", "coordinates": [ 103.825438, 1.341374 ] } },
{ "type": "Feature", "properties": { "decimalLatitude": -8.506854, "decimalLongitude": 115.262478, "eventDate": "2022-12-20T11:34:00Z", "countryCode": "ID" }, "geometry": { "type": "Point", "coordinates": [ 115.262478, -8.506854 ] } },
{ "type": "Feature", "properties": { "decimalLatitude": 1.522723, "decimalLongitude": 110.386989, "eventDate": "2022-12-10T21:04:00Z", "countryCode": "MY" }, "geometry": { "type": "Point", "coordinates": [ 110.386989, 1.522723 ] } },
{ "type": "Feature", "properties": { "decimalLatitude": 4.969718, "decimalLongitude": 117.79719, "eventDate": "2023-01-23T14:18:00Z", "countryCode": "MY" }, "geometry": { "type": "Point", "coordinates": [ 117.79719, 4.969718 ] } },
{ "type": "Feature", "properties": { "decimalLatitude": 5.853617, "decimalLongitude": 101.23796, "eventDate": "2023-01-23T10:18:00Z", "countryCode": "TH" }, "geometry": { "type": "Point", "coordinates": [ 101.23796, 5.853617 ] } },
{ "type": "Feature", "properties": { "decimalLatitude": 9.708205, "decimalLongitude": 118.499245, "eventDate": "2023-01-28T09:52:33Z", "countryCode": "PH" }, "geometry": { "type": "Point", "coordinates": [ 118.499245, 9.708205 ] } },
{ "type": "Feature", "properties": { "decimalLatitude": 4.962509, "decimalLongitude": 117.803236, "eventDate": "2023-01-23T14:19:00Z", "countryCode": "MY" }, "geometry": { "type": "Point", "coordinates": [ 117.803236, 4.962509 ] } },
{ "type": "Feature", "properties": { "decimalLatitude": 0.427605, "decimalLongitude": 101.88114, "eventDate": "2023-04-01T08:50:17Z", "countryCode": "ID" }, "geometry": { "type": "Point", "coordinates": [ 101.88114, 0.427605 ] } },
{ "type": "Feature", "properties": { "decimalLatitude": -8.491014, "decimalLongitude": 115.265818, "eventDate": "2023-06-26T12:01:00Z", "countryCode": "ID" }, "geometry": { "type": "Point", "coordinates": [ 115.265818, -8.491014 ] } },
{ "type": "Feature", "properties": { "decimalLatitude": 3.073281, "decimalLongitude": 101.518461, "eventDate": "2023-08-11T12:30:00Z", "countryCode": "MY" }, "geometry": { "type": "Point", "coordinates": [ 101.518461, 3.073281 ] } },
{ "type": "Feature", "properties": { "decimalLatitude": -6.716057, "decimalLongitude": 106.733719, "eventDate": "2023-08-12T09:33:20Z", "countryCode": "ID" }, "geometry": { "type": "Point", "coordinates": [ 106.733719, -6.716057 ] } },
{ "type": "Feature", "properties": { "decimalLatitude": 1.868563, "decimalLongitude": 103.874519, "eventDate": "2023-08-27T09:11:59Z", "countryCode": "MY" }, "geometry": { "type": "Point", "coordinates": [ 103.874519, 1.868563 ] } },
{ "type": "Feature", "properties": { "decimalLatitude": 1.827886, "decimalLongitude": 103.866997, "eventDate": "2023-08-27T09:12:00Z", "countryCode": "MY" }, "geometry": { "type": "Point", "coordinates": [ 103.866997, 1.827886 ] } },
{ "type": "Feature", "properties": { "decimalLatitude": 1.861182, "decimalLongitude": 103.901401, "eventDate": "2023-08-27T09:11:00Z", "countryCode": "MY" }, "geometry": { "type": "Point", "coordinates": [ 103.901401, 1.861182 ] } },
{ "type": "Feature", "properties": { "decimalLatitude": -8.47942, "decimalLongitude": 115.134606, "eventDate": "2023-08-27T13:40:09Z", "countryCode": "ID" }, "geometry": { "type": "Point", "coordinates": [ 115.134606, -8.47942 ] } },
{ "type": "Feature", "properties": { "decimalLatitude": 1.862949, "decimalLongitude": 103.900509, "eventDate": "2023-09-17T13:50:00Z", "countryCode": "MY" }, "geometry": { "type": "Point", "coordinates": [ 103.900509, 1.862949 ] } },
{ "type": "Feature", "properties": { "decimalLatitude": 3.167058, "decimalLongitude": 101.638437, "eventDate": "2023-09-29T11:15:48Z", "countryCode": "MY" }, "geometry": { "type": "Point", "coordinates": [ 101.638437, 3.167058 ] } },
{ "type": "Feature", "properties": { "decimalLatitude": 5.01974, "decimalLongitude": 117.746071, "eventDate": "2023-09-15T09:09:00Z", "countryCode": "MY" }, "geometry": { "type": "Point", "coordinates": [ 117.746071, 5.01974 ] } },
{ "type": "Feature", "properties": { "decimalLatitude": 3.160981, "decimalLongitude": 101.640286, "eventDate": "2023-09-29T12:32:52Z", "countryCode": "MY" }, "geometry": { "type": "Point", "coordinates": [ 101.640286, 3.160981 ] } },
{ "type": "Feature", "properties": { "decimalLatitude": 1.341453, "decimalLongitude": 103.827778, "eventDate": "2023-10-25T11:31:00Z", "countryCode": "SG" }, "geometry": { "type": "Point", "coordinates": [ 103.827778, 1.341453 ] } },
{ "type": "Feature", "properties": { "decimalLatitude": 1.335892, "decimalLongitude": 103.818458, "eventDate": "2023-10-29T11:56:45Z", "countryCode": "SG" }, "geometry": { "type": "Point", "coordinates": [ 103.818458, 1.335892 ] } },
{ "type": "Feature", "properties": { "decimalLatitude": 1.341217, "decimalLongitude": 103.82857, "eventDate": "2023-11-13T10:30:00Z", "countryCode": "SG" }, "geometry": { "type": "Point", "coordinates": [ 103.82857, 1.341217 ] } },
{ "type": "Feature", "properties": { "decimalLatitude": 3.100016, "decimalLongitude": 101.512249, "eventDate": "2023-11-18T09:16:00Z", "countryCode": "MY" }, "geometry": { "type": "Point", "coordinates": [ 101.512249, 3.100016 ] } },
{ "type": "Feature", "properties": { "decimalLatitude": 1.341304, "decimalLongitude": 103.827065, "eventDate": "2023-11-13T11:05:00Z", "countryCode": "SG" }, "geometry": { "type": "Point", "coordinates": [ 103.827065, 1.341304 ] } },
{ "type": "Feature", "properties": { "decimalLatitude": 1.340565, "decimalLongitude": 103.828389, "eventDate": "2023-11-13T11:06:04Z", "countryCode": "SG" }, "geometry": { "type": "Point", "coordinates": [ 103.828389, 1.340565 ] } },
{ "type": "Feature", "properties": { "decimalLatitude": 4.531487, "decimalLongitude": 101.97853, "eventDate": "2023-11-24T11:59:32Z", "countryCode": "MY" }, "geometry": { "type": "Point", "coordinates": [ 101.97853, 4.531487 ] } },
{ "type": "Feature", "properties": { "decimalLatitude": 1.335892, "decimalLongitude": 103.818458, "eventDate": "2023-11-13T11:18:44Z", "countryCode": "SG" }, "geometry": { "type": "Point", "coordinates": [ 103.818458, 1.335892 ] } },
{ "type": "Feature", "properties": { "decimalLatitude": 8.147382, "decimalLongitude": 99.552984, "eventDate": "2023-12-03T21:13:00Z", "countryCode": "TH" }, "geometry": { "type": "Point", "coordinates": [ 99.552984, 8.147382 ] } },
{ "type": "Feature", "properties": { "decimalLatitude": 5.410346, "decimalLongitude": 100.789779, "eventDate": "2024-01-07T12:41:00Z", "countryCode": "MY" }, "geometry": { "type": "Point", "coordinates": [ 100.789779, 5.410346 ] } },
{ "type": "Feature", "properties": { "decimalLatitude": 5.411184, "decimalLongitude": 100.788081, "eventDate": "2024-01-12T00:00:00Z", "countryCode": "MY" }, "geometry": { "type": "Point", "coordinates": [ 100.788081, 5.411184 ] } },
{ "type": "Feature", "properties": { "decimalLatitude": 6.047526, "decimalLongitude": 116.701453, "eventDate": "2024-01-09T12:55:00Z", "countryCode": "MY" }, "geometry": { "type": "Point", "coordinates": [ 116.701453, 6.047526 ] } },
{ "type": "Feature", "properties": { "decimalLatitude": 5.411087, "decimalLongitude": 100.786002, "eventDate": "2024-01-12T00:00:00Z", "countryCode": "MY" }, "geometry": { "type": "Point", "coordinates": [ 100.786002, 5.411087 ] } },
{ "type": "Feature", "properties": { "decimalLatitude": 5.411842, "decimalLongitude": 100.785855, "eventDate": "2024-01-12T00:00:00Z", "countryCode": "MY" }, "geometry": { "type": "Point", "coordinates": [ 100.785855, 5.411842 ] } },
{ "type": "Feature", "properties": { "decimalLatitude": 2.9688, "decimalLongitude": 102.297256, "eventDate": "2024-01-17T14:30:18Z", "countryCode": "MY" }, "geometry": { "type": "Point", "coordinates": [ 102.297256, 2.9688 ] } },
{ "type": "Feature", "properties": { "decimalLatitude": 6.130732, "decimalLongitude": 116.761874, "eventDate": "2024-01-19T20:11:15Z", "countryCode": "MY" }, "geometry": { "type": "Point", "coordinates": [ 116.761874, 6.130732 ] } },
{ "type": "Feature", "properties": { "decimalLatitude": 3.143127, "decimalLongitude": 101.68792, "eventDate": "2024-01-25T04:40:00Z", "countryCode": "MY" }, "geometry": { "type": "Point", "coordinates": [ 101.68792, 3.143127 ] } },
{ "type": "Feature", "properties": { "decimalLatitude": 3.220117, "decimalLongitude": 101.207125, "eventDate": "2024-01-16T13:35:00Z", "countryCode": "MY" }, "geometry": { "type": "Point", "coordinates": [ 101.207125, 3.220117 ] } },
{ "type": "Feature", "properties": { "decimalLatitude": 1.789066, "decimalLongitude": 103.942159, "eventDate": "2024-03-18T15:44:00Z", "countryCode": "MY" }, "geometry": { "type": "Point", "coordinates": [ 103.942159, 1.789066 ] } },
{ "type": "Feature", "properties": { "decimalLatitude": 4.045293, "decimalLongitude": 114.812082, "eventDate": "2024-03-26T09:53:28Z", "countryCode": "MY" }, "geometry": { "type": "Point", "coordinates": [ 114.812082, 4.045293 ] } },
{ "type": "Feature", "properties": { "decimalLatitude": 5.019746, "decimalLongitude": 117.746095, "eventDate": "2024-03-23T10:45:52Z", "countryCode": "MY" }, "geometry": { "type": "Point", "coordinates": [ 117.746095, 5.019746 ] } },
{ "type": "Feature", "properties": { "decimalLatitude": 6.00834, "decimalLongitude": 116.541409, "eventDate": "2024-03-25T10:11:33Z", "countryCode": "MY" }, "geometry": { "type": "Point", "coordinates": [ 116.541409, 6.00834 ] } },
{ "type": "Feature", "properties": { "decimalLatitude": 6.016041, "decimalLongitude": 116.544652, "eventDate": "2024-03-25T18:47:00Z", "countryCode": "MY" }, "geometry": { "type": "Point", "coordinates": [ 116.544652, 6.016041 ] } },
{ "type": "Feature", "properties": { "decimalLatitude": 1.553379, "decimalLongitude": 110.359503, "eventDate": "2024-04-27T17:45:00Z", "countryCode": "MY" }, "geometry": { "type": "Point", "coordinates": [ 110.359503, 1.553379 ] } },
{ "type": "Feature", "properties": { "decimalLatitude": 2.287264, "decimalLongitude": 111.864588, "eventDate": "2024-05-06T12:05:00Z", "countryCode": "MY" }, "geometry": { "type": "Point", "coordinates": [ 111.864588, 2.287264 ] } },
{ "type": "Feature", "properties": { "decimalLatitude": 1.862744, "decimalLongitude": 103.896832, "eventDate": "2024-05-28T14:10:00Z", "countryCode": "MY" }, "geometry": { "type": "Point", "coordinates": [ 103.896832, 1.862744 ] } },
{ "type": "Feature", "properties": { "decimalLatitude": -6.711578, "decimalLongitude": 106.623236, "eventDate": "2024-05-07T08:34:00Z", "countryCode": "ID" }, "geometry": { "type": "Point", "coordinates": [ 106.623236, -6.711578 ] } },
{ "type": "Feature", "properties": { "decimalLatitude": 1.866893, "decimalLongitude": 103.881088, "eventDate": "2024-05-28T15:11:00Z", "countryCode": "MY" }, "geometry": { "type": "Point", "coordinates": [ 103.881088, 1.866893 ] } },
{ "type": "Feature", "properties": { "decimalLatitude": 2.529197, "decimalLongitude": 98.189613, "eventDate": "2024-05-20T12:19:33Z", "countryCode": "ID" }, "geometry": { "type": "Point", "coordinates": [ 98.189613, 2.529197 ] } },
{ "type": "Feature", "properties": { "decimalLatitude": 3.103078, "decimalLongitude": 101.505125, "eventDate": "2024-06-07T09:42:00Z", "countryCode": "MY" }, "geometry": { "type": "Point", "coordinates": [ 101.505125, 3.103078 ] } },
{ "type": "Feature", "properties": { "decimalLatitude": 6.056373, "decimalLongitude": 116.575177, "eventDate": "2024-07-03T15:12:00Z", "countryCode": "MY" }, "geometry": { "type": "Point", "coordinates": [ 116.575177, 6.056373 ] } },
{ "type": "Feature", "properties": { "decimalLatitude": 2.360495, "decimalLongitude": 111.791229, "eventDate": "2024-07-02T12:30:00Z", "countryCode": "MY" }, "geometry": { "type": "Point", "coordinates": [ 111.791229, 2.360495 ] } },
{ "type": "Feature", "properties": { "decimalLatitude": 3.418352, "decimalLongitude": 101.843117, "eventDate": "2024-08-18T00:00:00Z", "countryCode": "MY" }, "geometry": { "type": "Point", "coordinates": [ 101.843117, 3.418352 ] } },
{ "type": "Feature", "properties": { "decimalLatitude": -2.278874, "decimalLongitude": 101.534198, "eventDate": "2024-08-05T06:47:00Z", "countryCode": "ID" }, "geometry": { "type": "Point", "coordinates": [ 101.534198, -2.278874 ] } },
{ "type": "Feature", "properties": { "decimalLatitude": 10.635482, "decimalLongitude": 99.286167, "eventDate": "2024-10-28T13:08:00Z", "countryCode": "TH" }, "geometry": { "type": "Point", "coordinates": [ 99.286167, 10.635482 ] } },
{ "type": "Feature", "properties": { "decimalLatitude": -8.57271, "decimalLongitude": 115.287399, "eventDate": "2024-12-24T11:39:18Z", "countryCode": "ID" }, "geometry": { "type": "Point", "coordinates": [ 115.287399, -8.57271 ] } },
{ "type": "Feature", "properties": { "decimalLatitude": 3.417402, "decimalLongitude": 101.843546, "eventDate": "2025-01-20T00:00:00Z", "countryCode": "MY" }, "geometry": { "type": "Point", "coordinates": [ 101.843546, 3.417402 ] } },
{ "type": "Feature", "properties": { "decimalLatitude": 5.795377, "decimalLongitude": 116.409284, "eventDate": "2025-01-23T15:54:00Z", "countryCode": "MY" }, "geometry": { "type": "Point", "coordinates": [ 116.409284, 5.795377 ] } },
{ "type": "Feature", "properties": { "decimalLatitude": 3.717888, "decimalLongitude": 101.751389, "eventDate": "2025-01-14T00:00:00Z", "countryCode": "MY" }, "geometry": { "type": "Point", "coordinates": [ 101.751389, 3.717888 ] } },
{ "type": "Feature", "properties": { "decimalLatitude": 3.717841, "decimalLongitude": 101.751418, "eventDate": "2025-02-01T12:52:00Z", "countryCode": "MY" }, "geometry": { "type": "Point", "coordinates": [ 101.751418, 3.717841 ] } },
{ "type": "Feature", "properties": { "decimalLatitude": 5.796971, "decimalLongitude": 116.408255, "eventDate": "2025-03-15T13:48:23Z", "countryCode": "MY" }, "geometry": { "type": "Point", "coordinates": [ 116.408255, 5.796971 ] } },
{ "type": "Feature", "properties": { "decimalLatitude": 1.381396, "decimalLongitude": 110.117175, "eventDate": "2025-03-15T12:44:00Z", "countryCode": "MY" }, "geometry": { "type": "Point", "coordinates": [ 110.117175, 1.381396 ] } },
{ "type": "Feature", "properties": { "decimalLatitude": 1.1329, "decimalLongitude": 110.267517, "eventDate": "2025-03-24T16:57:00Z", "countryCode": "MY" }, "geometry": { "type": "Point", "coordinates": [ 110.267517, 1.1329 ] } },
{ "type": "Feature", "properties": { "decimalLatitude": 1.697938, "decimalLongitude": 109.839058, "eventDate": "2025-03-22T12:31:00Z", "countryCode": "MY" }, "geometry": { "type": "Point", "coordinates": [ 109.839058, 1.697938 ] } },
{ "type": "Feature", "properties": { "decimalLatitude": 3.400997, "decimalLongitude": 101.846822, "eventDate": "2025-04-08T11:01:00Z", "countryCode": "MY" }, "geometry": { "type": "Point", "coordinates": [ 101.846822, 3.400997 ] } },
{ "type": "Feature", "properties": { "decimalLatitude": 4.308115, "decimalLongitude": 101.168758, "eventDate": "2025-05-17T15:39:00Z", "countryCode": "MY" }, "geometry": { "type": "Point", "coordinates": [ 101.168758, 4.308115 ] } },
{ "type": "Feature", "properties": { "decimalLatitude": 5.509251, "decimalLongitude": 118.285812, "eventDate": "2025-05-19T05:16:46Z", "countryCode": "MY" }, "geometry": { "type": "Point", "coordinates": [ 118.285812, 5.509251 ] } },
{ "type": "Feature", "properties": { "decimalLatitude": 3.44092, "decimalLongitude": 101.987261, "eventDate": "2025-06-05T10:35:00Z", "countryCode": "MY" }, "geometry": { "type": "Point", "coordinates": [ 101.987261, 3.44092 ] } },
{ "type": "Feature", "properties": { "decimalLatitude": 3.399083, "decimalLongitude": 101.840131, "eventDate": "2025-06-21T00:00:00Z", "countryCode": "MY" }, "geometry": { "type": "Point", "coordinates": [ 101.840131, 3.399083 ] } },
{ "type": "Feature", "properties": { "decimalLatitude": 3.399884, "decimalLongitude": 101.840267, "eventDate": "2025-06-21T00:00:00Z", "countryCode": "MY" }, "geometry": { "type": "Point", "coordinates": [ 101.840267, 3.399884 ] } },
{ "type": "Feature", "properties": { "decimalLatitude": 4.040163, "decimalLongitude": 114.818587, "eventDate": "2025-06-29T21:45:31Z", "countryCode": "MY" }, "geometry": { "type": "Point", "coordinates": [ 114.818587, 4.040163 ] } },
{ "type": "Feature", "properties": { "decimalLatitude": 0.426589, "decimalLongitude": 101.881445, "eventDate": "2025-06-04T12:13:00Z", "countryCode": "ID" }, "geometry": { "type": "Point", "coordinates": [ 101.881445, 0.426589 ] } },
{ "type": "Feature", "properties": { "decimalLatitude": -8.520557, "decimalLongitude": 115.264115, "eventDate": "2025-07-10T13:53:00Z", "countryCode": "ID" }, "geometry": { "type": "Point", "coordinates": [ 115.264115, -8.520557 ] } },
{ "type": "Feature", "properties": { "decimalLatitude": 4.023748, "decimalLongitude": 114.823113, "eventDate": "2025-07-22T07:17:00Z", "countryCode": "MY" }, "geometry": { "type": "Point", "coordinates": [ 114.823113, 4.023748 ] } },
{ "type": "Feature", "properties": { "decimalLatitude": 4.023748, "decimalLongitude": 114.823113, "eventDate": "2025-07-22T07:17:00Z", "countryCode": "MY" }, "geometry": { "type": "Point", "coordinates": [ 114.823113, 4.023748 ] } },
{ "type": "Feature", "properties": { "decimalLatitude": 4.023748, "decimalLongitude": 114.823113, "eventDate": "2025-07-22T07:17:00Z", "countryCode": "MY" }, "geometry": { "type": "Point", "coordinates": [ 114.823113, 4.023748 ] } },
{ "type": "Feature", "properties": { "decimalLatitude": 4.023748, "decimalLongitude": 114.823113, "eventDate": "2025-07-22T07:18:00Z", "countryCode": "MY" }, "geometry": { "type": "Point", "coordinates": [ 114.823113, 4.023748 ] } },
{ "type": "Feature", "properties": { "decimalLatitude": 3.399631, "decimalLongitude": 101.839841, "eventDate": "2025-07-20T12:06:00Z", "countryCode": "MY" }, "geometry": { "type": "Point", "coordinates": [ 101.839841, 3.399631 ] } },
{ "type": "Feature", "properties": { "decimalLatitude": -8.47932, "decimalLongitude": 115.134531, "eventDate": "2025-08-05T11:20:00Z", "countryCode": "ID" }, "geometry": { "type": "Point", "coordinates": [ 115.134531, -8.47932 ] } },
{ "type": "Feature", "properties": { "decimalLatitude": 3.299094, "decimalLongitude": 101.882997, "eventDate": "2025-08-14T12:27:00Z", "countryCode": "MY" }, "geometry": { "type": "Point", "coordinates": [ 101.882997, 3.299094 ] } },
{ "type": "Feature", "properties": { "decimalLatitude": 4.307591, "decimalLongitude": 101.15432, "eventDate": "2025-08-13T15:03:10Z", "countryCode": "MY" }, "geometry": { "type": "Point", "coordinates": [ 101.15432, 4.307591 ] } },
{ "type": "Feature", "properties": { "decimalLatitude": 3.344888, "decimalLongitude": 101.689581, "eventDate": "2025-08-06T12:08:00Z", "countryCode": "MY" }, "geometry": { "type": "Point", "coordinates": [ 101.689581, 3.344888 ] } },
{ "type": "Feature", "properties": { "decimalLatitude": 3.654079, "decimalLongitude": 101.608132, "eventDate": "2025-08-03T12:49:00Z", "countryCode": "MY" }, "geometry": { "type": "Point", "coordinates": [ 101.608132, 3.654079 ] } },
{ "type": "Feature", "properties": { "decimalLatitude": 3.792652, "decimalLongitude": 101.664915, "eventDate": "2025-08-03T12:49:00Z", "countryCode": "MY" }, "geometry": { "type": "Point", "coordinates": [ 101.664915, 3.792652 ] } },
{ "type": "Feature", "properties": { "decimalLatitude": 3.628887, "decimalLongitude": 101.697243, "eventDate": "2025-08-03T12:05:00Z", "countryCode": "MY" }, "geometry": { "type": "Point", "coordinates": [ 101.697243, 3.628887 ] } },
{ "type": "Feature", "properties": { "decimalLatitude": 3.787564, "decimalLongitude": 101.614051, "eventDate": "2025-08-03T12:09:00Z", "countryCode": "MY" }, "geometry": { "type": "Point", "coordinates": [ 101.614051, 3.787564 ] } },
{ "type": "Feature", "properties": { "decimalLatitude": -2.127613, "decimalLongitude": 101.194115, "eventDate": "2025-08-17T00:00:00Z", "countryCode": "ID" }, "geometry": { "type": "Point", "coordinates": [ 101.194115, -2.127613 ] } },
{ "type": "Feature", "properties": { "decimalLatitude": 3.218537, "decimalLongitude": 101.879206, "eventDate": "2025-09-27T13:24:00Z", "countryCode": "MY" }, "geometry": { "type": "Point", "coordinates": [ 101.879206, 3.218537 ] } },
{ "type": "Feature", "properties": { "decimalLatitude": 2.271647, "decimalLongitude": 111.831054, "eventDate": "2025-10-15T09:07:00Z", "countryCode": "MY" }, "geometry": { "type": "Point", "coordinates": [ 111.831054, 2.271647 ] } },
{ "type": "Feature", "properties": { "decimalLatitude": 4.411944, "decimalLongitude": 117.89, "eventDate": "2025-12-04T00:25:00Z", "countryCode": "MY" }, "geometry": { "type": "Point", "coordinates": [ 117.89, 4.411944 ] } },
{ "type": "Feature", "properties": { "decimalLatitude": 4.411944, "decimalLongitude": 117.89, "eventDate": "2025-12-04T00:25:00Z", "countryCode": "MY" }, "geometry": { "type": "Point", "coordinates": [ 117.89, 4.411944 ] } }
]
}
