{
"type": "FeatureCollection",
"name": "creonpyge-creon-gbif",
"crs": { "type": "name", "properties": { "name": "urn:ogc:def:crs:OGC:1.3:CRS84" } },
"features": [
{ "type": "Feature", "properties": { "decimalLatitude": 10.75772, "decimalLongitude": -85.30598, "eventDate": "2015-06-13T00:00:00Z", "countryCode": "CR" }, "geometry": { "type": "Point", "coordinates": [ -85.30598, 10.75772 ] } },
{ "type": "Feature", "properties": { "decimalLatitude": 10.306309, "decimalLongitude": -84.813474, "eventDate": "2017-08-18T08:41:56Z", "countryCode": "CR" }, "geometry": { "type": "Point", "coordinates": [ -84.813474, 10.306309 ] } },
{ "type": "Feature", "properties": { "decimalLatitude": 9.471089, "decimalLongitude": -83.698381, "eventDate": "2017-12-24T08:27:00Z", "countryCode": "CR" }, "geometry": { "type": "Point", "coordinates": [ -83.698381, 9.471089 ] } },
{ "type": "Feature", "properties": { "decimalLatitude": 10.306262, "decimalLongitude": -84.807204, "eventDate": "2018-09-20T13:58:00Z", "countryCode": "CR" }, "geometry": { "type": "Point", "coordinates": [ -84.807204, 10.306262 ] } },
{ "type": "Feature", "properties": { "decimalLatitude": 8.88359, "decimalLongitude": -82.684288, "eventDate": "2018-09-26T00:00:00Z", "countryCode": "PA" }, "geometry": { "type": "Point", "coordinates": [ -82.684288, 8.88359 ] } },
{ "type": "Feature", "properties": { "decimalLatitude": 10.307085, "decimalLongitude": -84.804206, "eventDate": "2019-04-06T09:26:00Z", "countryCode": "CR" }, "geometry": { "type": "Point", "coordinates": [ -84.804206, 10.307085 ] } },
{ "type": "Feature", "properties": { "decimalLatitude": 8.785931, "decimalLongitude": -82.962055, "eventDate": "2019-06-26T13:58:00Z", "countryCode": "CR" }, "geometry": { "type": "Point", "coordinates": [ -82.962055, 8.785931 ] } },
{ "type": "Feature", "properties": { "decimalLatitude": 8.841555, "decimalLongitude": -82.482164, "eventDate": "2020-09-18T10:36:00Z", "countryCode": "PA" }, "geometry": { "type": "Point", "coordinates": [ -82.482164, 8.841555 ] } },
{ "type": "Feature", "properties": { "decimalLatitude": 8.872092, "decimalLongitude": -82.53034, "eventDate": "2020-09-18T10:27:50Z", "countryCode": "PA" }, "geometry": { "type": "Point", "coordinates": [ -82.53034, 8.872092 ] } },
{ "type": "Feature", "properties": { "decimalLatitude": 8.665163, "decimalLongitude": -80.05693, "eventDate": "2020-11-29T08:25:35Z", "countryCode": "PA" }, "geometry": { "type": "Point", "coordinates": [ -80.05693, 8.665163 ] } },
{ "type": "Feature", "properties": { "decimalLatitude": 9.759042, "decimalLongitude": -83.783702, "eventDate": "2021-08-31T22:47:00Z", "countryCode": "CR" }, "geometry": { "type": "Point", "coordinates": [ -83.783702, 9.759042 ] } },
{ "type": "Feature", "properties": { "decimalLatitude": 10.1623, "decimalLongitude": -84.158569, "eventDate": "2021-12-01T08:31:08Z", "countryCode": "CR" }, "geometry": { "type": "Point", "coordinates": [ -84.158569, 10.1623 ] } },
{ "type": "Feature", "properties": { "decimalLatitude": 10.178103, "decimalLongitude": -84.144054, "eventDate": "2022-07-17T14:35:10Z", "countryCode": "CR" }, "geometry": { "type": "Point", "coordinates": [ -84.144054, 10.178103 ] } },
{ "type": "Feature", "properties": { "decimalLatitude": 10.309036, "decimalLongitude": -84.80557, "eventDate": "2022-08-21T11:56:05Z", "countryCode": "CR" }, "geometry": { "type": "Point", "coordinates": [ -84.80557, 10.309036 ] } },
{ "type": "Feature", "properties": { "decimalLatitude": 8.631886, "decimalLongitude": -80.032851, "eventDate": "2022-08-24T00:00:00Z", "countryCode": "PA" }, "geometry": { "type": "Point", "coordinates": [ -80.032851, 8.631886 ] } },
{ "type": "Feature", "properties": { "decimalLatitude": 8.642536, "decimalLongitude": -80.033931, "eventDate": "2022-08-24T10:00:31Z", "countryCode": "PA" }, "geometry": { "type": "Point", "coordinates": [ -80.033931, 8.642536 ] } },
{ "type": "Feature", "properties": { "decimalLatitude": 10.318889, "decimalLongitude": -84.808502, "eventDate": "2022-10-31T09:01:48Z", "countryCode": "CR" }, "geometry": { "type": "Point", "coordinates": [ -84.808502, 10.318889 ] } },
{ "type": "Feature", "properties": { "decimalLatitude": 10.323893, "decimalLongitude": -84.792181, "eventDate": "2022-10-29T10:30:00Z", "countryCode": "CR" }, "geometry": { "type": "Point", "coordinates": [ -84.792181, 10.323893 ] } },
{ "type": "Feature", "properties": { "decimalLatitude": 9.471848, "decimalLongitude": -83.578224, "eventDate": "2023-01-20T16:26:35Z", "countryCode": "CR" }, "geometry": { "type": "Point", "coordinates": [ -83.578224, 9.471848 ] } },
{ "type": "Feature", "properties": { "decimalLatitude": 10.101365, "decimalLongitude": -84.1281, "eventDate": "2023-01-29T15:30:31Z", "countryCode": "CR" }, "geometry": { "type": "Point", "coordinates": [ -84.1281, 10.101365 ] } },
{ "type": "Feature", "properties": { "decimalLatitude": 10.319036, "decimalLongitude": -84.808296, "eventDate": "2023-04-14T11:14:17Z", "countryCode": "CR" }, "geometry": { "type": "Point", "coordinates": [ -84.808296, 10.319036 ] } },
{ "type": "Feature", "properties": { "decimalLatitude": 10.176743, "decimalLongitude": -84.155964, "eventDate": "2023-05-22T23:11:05Z", "countryCode": "CR" }, "geometry": { "type": "Point", "coordinates": [ -84.155964, 10.176743 ] } },
{ "type": "Feature", "properties": { "decimalLatitude": 10.17448, "decimalLongitude": -84.140639, "eventDate": "2023-07-23T00:00:00Z", "countryCode": "CR" }, "geometry": { "type": "Point", "coordinates": [ -84.140639, 10.17448 ] } },
{ "type": "Feature", "properties": { "decimalLatitude": 10.162665, "decimalLongitude": -84.152629, "eventDate": "2023-07-23T10:43:00Z", "countryCode": "CR" }, "geometry": { "type": "Point", "coordinates": [ -84.152629, 10.162665 ] } },
{ "type": "Feature", "properties": { "decimalLatitude": 10.01268, "decimalLongitude": -84.104916, "eventDate": "2023-07-23T11:43:00Z", "countryCode": "CR" }, "geometry": { "type": "Point", "coordinates": [ -84.104916, 10.01268 ] } },
{ "type": "Feature", "properties": { "decimalLatitude": 10.181222, "decimalLongitude": -84.153555, "eventDate": "2023-10-30T12:50:00Z", "countryCode": "CR" }, "geometry": { "type": "Point", "coordinates": [ -84.153555, 10.181222 ] } },
{ "type": "Feature", "properties": { "decimalLatitude": 8.640318, "decimalLongitude": -80.031499, "eventDate": "2024-11-09T00:00:00Z", "countryCode": "PA" }, "geometry": { "type": "Point", "coordinates": [ -80.031499, 8.640318 ] } },
{ "type": "Feature", "properties": { "decimalLatitude": 8.882952, "decimalLongitude": -82.683685, "eventDate": "2025-04-22T00:00:00Z", "countryCode": "PA" }, "geometry": { "type": "Point", "coordinates": [ -82.683685, 8.882952 ] } },
{ "type": "Feature", "properties": { "decimalLatitude": 8.888121, "decimalLongitude": -82.68436, "eventDate": "2025-05-26T00:00:00Z", "countryCode": "PA" }, "geometry": { "type": "Point", "coordinates": [ -82.68436, 8.888121 ] } },
{ "type": "Feature", "properties": { "decimalLatitude": 8.885968, "decimalLongitude": -82.676049, "eventDate": "2025-05-27T00:00:00Z", "countryCode": "PA" }, "geometry": { "type": "Point", "coordinates": [ -82.676049, 8.885968 ] } },
{ "type": "Feature", "properties": { "decimalLatitude": 8.885968, "decimalLongitude": -82.676049, "eventDate": "2025-05-27T00:00:00Z", "countryCode": "PA" }, "geometry": { "type": "Point", "coordinates": [ -82.676049, 8.885968 ] } },
{ "type": "Feature", "properties": { "decimalLatitude": 8.885968, "decimalLongitude": -82.676049, "eventDate": "2025-05-27T00:00:00Z", "countryCode": "PA" }, "geometry": { "type": "Point", "coordinates": [ -82.676049, 8.885968 ] } },
{ "type": "Feature", "properties": { "decimalLatitude": 9.87523, "decimalLongitude": -84.133872, "eventDate": "2025-09-27T10:41:00Z", "countryCode": "CR" }, "geometry": { "type": "Point", "coordinates": [ -84.133872, 9.87523 ] } }
]
}
