{
"type": "FeatureCollection",
"name": "eogenes-alcides-gbif",
"crs": { "type": "name", "properties": { "name": "urn:ogc:def:crs:OGC:1.3:CRS84" } },
"features": [
{ "type": "Feature", "properties": { "decimalLatitude": 39.75, "decimalLongitude": 45.6, "eventDate": "2015-06-14T00:00:00Z", "countryCode": "AM" }, "geometry": { "type": "Point", "coordinates": [ 45.6, 39.75 ] } },
{ "type": "Feature", "properties": { "decimalLatitude": 39.758332, "decimalLongitude": 45.609454, "eventDate": "2015-06-14T18:41:00Z", "countryCode": "AM" }, "geometry": { "type": "Point", "coordinates": [ 45.609454, 39.758332 ] } },
{ "type": "Feature", "properties": { "decimalLatitude": 39.72, "decimalLongitude": 45.58, "eventDate": "2016-06-17T00:00:00Z", "countryCode": "AM" }, "geometry": { "type": "Point", "coordinates": [ 45.58, 39.72 ] } },
{ "type": "Feature", "properties": { "decimalLatitude": 40.852389, "decimalLongitude": 41.530896, "eventDate": "2016-07-06T00:00:00Z", "countryCode": "TR" }, "geometry": { "type": "Point", "coordinates": [ 41.530896, 40.852389 ] } },
{ "type": "Feature", "properties": { "decimalLatitude": 40.852412, "decimalLongitude": 41.530826, "eventDate": "2016-07-06T00:00:00Z", "countryCode": "TR" }, "geometry": { "type": "Point", "coordinates": [ 41.530826, 40.852412 ] } },
{ "type": "Feature", "properties": { "decimalLatitude": 40.852535, "decimalLongitude": 41.530978, "eventDate": "2016-07-06T00:00:00Z", "countryCode": "TR" }, "geometry": { "type": "Point", "coordinates": [ 41.530978, 40.852535 ] } },
{ "type": "Feature", "properties": { "decimalLatitude": 39.883145, "decimalLongitude": 45.342, "eventDate": "2017-07-14T00:00:00Z", "countryCode": "AM" }, "geometry": { "type": "Point", "coordinates": [ 45.342, 39.883145 ] } },
{ "type": "Feature", "properties": { "decimalLatitude": 40.46762, "decimalLongitude": 41.502308, "eventDate": "2017-07-16T09:33:00Z", "countryCode": "TR" }, "geometry": { "type": "Point", "coordinates": [ 41.502308, 40.46762 ] } },
{ "type": "Feature", "properties": { "decimalLatitude": 35.859611, "decimalLongitude": 51.480563, "eventDate": "2017-08-30T16:30:00Z", "countryCode": "IR" }, "geometry": { "type": "Point", "coordinates": [ 51.480563, 35.859611 ] } },
{ "type": "Feature", "properties": { "decimalLatitude": 36.084862, "decimalLongitude": 52.294442, "eventDate": "2018-06-27T00:00:00Z", "countryCode": "IR" }, "geometry": { "type": "Point", "coordinates": [ 52.294442, 36.084862 ] } },
{ "type": "Feature", "properties": { "decimalLatitude": 36.352481, "decimalLongitude": 53.860357, "eventDate": "2018-06-29T00:00:00Z", "countryCode": "IR" }, "geometry": { "type": "Point", "coordinates": [ 53.860357, 36.352481 ] } },
{ "type": "Feature", "properties": { "decimalLatitude": 36.351776, "decimalLongitude": 53.860585, "eventDate": "2018-06-29T00:00:00Z", "countryCode": "IR" }, "geometry": { "type": "Point", "coordinates": [ 53.860585, 36.351776 ] } },
{ "type": "Feature", "properties": { "decimalLatitude": 36.351853, "decimalLongitude": 53.860504, "eventDate": "2018-06-29T00:00:00Z", "countryCode": "IR" }, "geometry": { "type": "Point", "coordinates": [ 53.860504, 36.351853 ] } },
{ "type": "Feature", "properties": { "decimalLatitude": 36.35261, "decimalLongitude": 53.860165, "eventDate": "2018-06-29T00:00:00Z", "countryCode": "IR" }, "geometry": { "type": "Point", "coordinates": [ 53.860165, 36.35261 ] } },
{ "type": "Feature", "properties": { "decimalLatitude": 36.352542, "decimalLongitude": 53.860109, "eventDate": "2018-06-29T00:00:00Z", "countryCode": "IR" }, "geometry": { "type": "Point", "coordinates": [ 53.860109, 36.352542 ] } },
{ "type": "Feature", "properties": { "decimalLatitude": 36.08441, "decimalLongitude": 52.294527, "eventDate": "2018-06-27T00:00:00Z", "countryCode": "IR" }, "geometry": { "type": "Point", "coordinates": [ 52.294527, 36.08441 ] } },
{ "type": "Feature", "properties": { "decimalLatitude": 39.7127, "decimalLongitude": 45.5726, "eventDate": "2019-06-12T00:00:00Z", "countryCode": "AM" }, "geometry": { "type": "Point", "coordinates": [ 45.5726, 39.7127 ] } },
{ "type": "Feature", "properties": { "decimalLatitude": 38.400569, "decimalLongitude": 42.109502, "eventDate": "2019-06-18T13:53:00Z", "countryCode": "TR" }, "geometry": { "type": "Point", "coordinates": [ 42.109502, 38.400569 ] } },
{ "type": "Feature", "properties": { "decimalLatitude": 38.394272, "decimalLongitude": 43.397469, "eventDate": "2019-07-20T10:48:00Z", "countryCode": "TR" }, "geometry": { "type": "Point", "coordinates": [ 43.397469, 38.394272 ] } },
{ "type": "Feature", "properties": { "decimalLatitude": 40.569599, "decimalLongitude": 42.307656, "eventDate": "2019-07-16T09:51:00Z", "countryCode": "TR" }, "geometry": { "type": "Point", "coordinates": [ 42.307656, 40.569599 ] } },
{ "type": "Feature", "properties": { "decimalLatitude": 39.983312, "decimalLongitude": 41.063243, "eventDate": "2019-07-16T14:05:00Z", "countryCode": "TR" }, "geometry": { "type": "Point", "coordinates": [ 41.063243, 39.983312 ] } },
{ "type": "Feature", "properties": { "decimalLatitude": 40.564121, "decimalLongitude": 42.326586, "eventDate": "2019-07-16T09:53:00Z", "countryCode": "TR" }, "geometry": { "type": "Point", "coordinates": [ 42.326586, 40.564121 ] } },
{ "type": "Feature", "properties": { "decimalLatitude": 40.58089, "decimalLongitude": 41.596181, "eventDate": "2024-07-11T16:02:00Z", "countryCode": "TR" }, "geometry": { "type": "Point", "coordinates": [ 41.596181, 40.58089 ] } },
{ "type": "Feature", "properties": { "decimalLatitude": 40.430633, "decimalLongitude": 40.871313, "eventDate": "2024-07-15T09:29:00Z", "countryCode": "TR" }, "geometry": { "type": "Point", "coordinates": [ 40.871313, 40.430633 ] } },
{ "type": "Feature", "properties": { "decimalLatitude": 36.760754, "decimalLongitude": 43.419252, "eventDate": "2025-05-12T14:47:00Z", "countryCode": "IQ" }, "geometry": { "type": "Point", "coordinates": [ 43.419252, 36.760754 ] } },
{ "type": "Feature", "properties": { "decimalLatitude": 40.429829, "decimalLongitude": 40.913755, "eventDate": "2025-06-21T00:00:00Z", "countryCode": "TR" }, "geometry": { "type": "Point", "coordinates": [ 40.913755, 40.429829 ] } },
{ "type": "Feature", "properties": { "decimalLatitude": 38.892792, "decimalLongitude": 46.190912, "eventDate": "2025-06-28T10:24:00Z", "countryCode": "AM" }, "geometry": { "type": "Point", "coordinates": [ 46.190912, 38.892792 ] } },
{ "type": "Feature", "properties": { "decimalLatitude": 39.94841, "decimalLongitude": 44.742212, "eventDate": "2025-06-07T11:55:00Z", "countryCode": "AM" }, "geometry": { "type": "Point", "coordinates": [ 44.742212, 39.94841 ] } },
{ "type": "Feature", "properties": { "decimalLatitude": 41.280008, "decimalLongitude": 45.898881, "eventDate": "2025-06-02T06:21:00Z", "countryCode": "GE" }, "geometry": { "type": "Point", "coordinates": [ 45.898881, 41.280008 ] } },
{ "type": "Feature", "properties": { "decimalLatitude": 39.937218, "decimalLongitude": 44.742009, "eventDate": "2025-06-07T11:20:00Z", "countryCode": "AM" }, "geometry": { "type": "Point", "coordinates": [ 44.742009, 39.937218 ] } },
{ "type": "Feature", "properties": { "decimalLatitude": 37.766487, "decimalLongitude": 44.080819, "eventDate": "2025-08-04T10:58:00Z", "countryCode": "TR" }, "geometry": { "type": "Point", "coordinates": [ 44.080819, 37.766487 ] } },
{ "type": "Feature", "properties": { "decimalLatitude": 37.76601, "decimalLongitude": 44.080597, "eventDate": "2025-08-04T00:00:00Z", "countryCode": "TR" }, "geometry": { "type": "Point", "coordinates": [ 44.080597, 37.76601 ] } },
{ "type": "Feature", "properties": { "decimalLatitude": 37.765804, "decimalLongitude": 44.080616, "eventDate": "2025-08-04T00:00:00Z", "countryCode": "TR" }, "geometry": { "type": "Point", "coordinates": [ 44.080616, 37.765804 ] } },
{ "type": "Feature", "properties": { "decimalLatitude": 37.766756, "decimalLongitude": 44.081008, "eventDate": "2025-08-04T00:00:00Z", "countryCode": "TR" }, "geometry": { "type": "Point", "coordinates": [ 44.081008, 37.766756 ] } }
]
}
