{
"type": "FeatureCollection",
"name": "epiphile-orea-gbif",
"crs": { "type": "name", "properties": { "name": "urn:ogc:def:crs:OGC:1.3:CRS84" } },
"features": [
{ "type": "Feature", "properties": { "decimalLatitude": -27.064, "decimalLongitude": -51.119, "eventDate": "2015-02-05T00:00:00Z", "countryCode": "BR" }, "geometry": { "type": "Point", "coordinates": [ -51.119, -27.064 ] } },
{ "type": "Feature", "properties": { "decimalLatitude": -22.742867, "decimalLongitude": -45.596356, "eventDate": "2015-05-20T11:08:00Z", "countryCode": "BR" }, "geometry": { "type": "Point", "coordinates": [ -45.596356, -22.742867 ] } },
{ "type": "Feature", "properties": { "decimalLatitude": -25.85756, "decimalLongitude": -53.975704, "eventDate": "2015-06-23T16:06:00Z", "countryCode": "AR" }, "geometry": { "type": "Point", "coordinates": [ -53.975704, -25.85756 ] } },
{ "type": "Feature", "properties": { "decimalLatitude": -25.859412, "decimalLongitude": -53.960773, "eventDate": "2015-08-13T11:47:00Z", "countryCode": "AR" }, "geometry": { "type": "Point", "coordinates": [ -53.960773, -25.859412 ] } },
{ "type": "Feature", "properties": { "decimalLatitude": -26.499984, "decimalLongitude": -53.833163, "eventDate": "2015-08-15T12:14:00Z", "countryCode": "AR" }, "geometry": { "type": "Point", "coordinates": [ -53.833163, -26.499984 ] } },
{ "type": "Feature", "properties": { "decimalLatitude": -28.314198, "decimalLongitude": -52.188462, "eventDate": "2015-08-31T14:09:00Z", "countryCode": "BR" }, "geometry": { "type": "Point", "coordinates": [ -52.188462, -28.314198 ] } },
{ "type": "Feature", "properties": { "decimalLatitude": -25.701877, "decimalLongitude": -54.444809, "eventDate": "2015-09-07T09:56:00Z", "countryCode": "AR" }, "geometry": { "type": "Point", "coordinates": [ -54.444809, -25.701877 ] } },
{ "type": "Feature", "properties": { "decimalLatitude": -25.428611, "decimalLongitude": -49.309167, "eventDate": "2015-09-18T00:00:00Z", "countryCode": "BR" }, "geometry": { "type": "Point", "coordinates": [ -49.309167, -25.428611 ] } },
{ "type": "Feature", "properties": { "decimalLatitude": -26.691379, "decimalLongitude": -54.267108, "eventDate": "2016-02-17T16:06:00Z", "countryCode": "AR" }, "geometry": { "type": "Point", "coordinates": [ -54.267108, -26.691379 ] } },
{ "type": "Feature", "properties": { "decimalLatitude": -26.407534, "decimalLongitude": -52.359859, "eventDate": "2016-02-06T16:26:00Z", "countryCode": "BR" }, "geometry": { "type": "Point", "coordinates": [ -52.359859, -26.407534 ] } },
{ "type": "Feature", "properties": { "decimalLatitude": 9.6769, "decimalLongitude": -83.7223, "eventDate": "2016-03-13T00:00:00Z", "countryCode": "CR" }, "geometry": { "type": "Point", "coordinates": [ -83.7223, 9.6769 ] } },
{ "type": "Feature", "properties": { "decimalLatitude": -22.438036, "decimalLongitude": -44.60867, "eventDate": "2016-04-23T11:42:00Z", "countryCode": "BR" }, "geometry": { "type": "Point", "coordinates": [ -44.60867, -22.438036 ] } },
{ "type": "Feature", "properties": { "decimalLatitude": -22.429051, "decimalLongitude": -44.620034, "eventDate": "2016-04-11T13:01:00Z", "countryCode": "BR" }, "geometry": { "type": "Point", "coordinates": [ -44.620034, -22.429051 ] } },
{ "type": "Feature", "properties": { "decimalLatitude": -10.638414, "decimalLongitude": -75.435053, "eventDate": "2016-06-01T00:00:00Z", "countryCode": "PE" }, "geometry": { "type": "Point", "coordinates": [ -75.435053, -10.638414 ] } },
{ "type": "Feature", "properties": { "decimalLatitude": -23.75871, "decimalLongitude": -64.850342, "eventDate": "2016-08-15T12:28:00Z", "countryCode": "AR" }, "geometry": { "type": "Point", "coordinates": [ -64.850342, -23.75871 ] } },
{ "type": "Feature", "properties": { "decimalLatitude": 10.885833, "decimalLongitude": -74.0325, "eventDate": "2016-10-17T00:00:00Z", "countryCode": "CO" }, "geometry": { "type": "Point", "coordinates": [ -74.0325, 10.885833 ] } },
{ "type": "Feature", "properties": { "decimalLatitude": 10.885833, "decimalLongitude": -74.0325, "eventDate": "2016-10-17T00:00:00Z", "countryCode": "CO" }, "geometry": { "type": "Point", "coordinates": [ -74.0325, 10.885833 ] } },
{ "type": "Feature", "properties": { "decimalLatitude": 10.885833, "decimalLongitude": -74.0325, "eventDate": "2016-10-17T00:00:00Z", "countryCode": "CO" }, "geometry": { "type": "Point", "coordinates": [ -74.0325, 10.885833 ] } },
{ "type": "Feature", "properties": { "decimalLatitude": -27.056452, "decimalLongitude": -54.828507, "eventDate": "2016-12-02T12:08:00Z", "countryCode": "AR" }, "geometry": { "type": "Point", "coordinates": [ -54.828507, -27.056452 ] } },
{ "type": "Feature", "properties": { "decimalLatitude": -27.056452, "decimalLongitude": -54.828507, "eventDate": "2016-12-02T12:09:00Z", "countryCode": "AR" }, "geometry": { "type": "Point", "coordinates": [ -54.828507, -27.056452 ] } },
{ "type": "Feature", "properties": { "decimalLatitude": 0.143, "decimalLongitude": -78.888, "eventDate": "2017-01-23T00:00:00Z", "countryCode": "EC" }, "geometry": { "type": "Point", "coordinates": [ -78.888, 0.143 ] } },
{ "type": "Feature", "properties": { "decimalLatitude": 0.143, "decimalLongitude": -78.888, "eventDate": "2017-02-21T00:00:00Z", "countryCode": "EC" }, "geometry": { "type": "Point", "coordinates": [ -78.888, 0.143 ] } },
{ "type": "Feature", "properties": { "decimalLatitude": -24.266111, "decimalLongitude": -48.448333, "eventDate": "2017-03-11T00:00:00Z", "countryCode": "BR" }, "geometry": { "type": "Point", "coordinates": [ -48.448333, -24.266111 ] } },
{ "type": "Feature", "properties": { "decimalLatitude": -24.120425, "decimalLongitude": -64.452035, "eventDate": "2017-04-25T13:19:00Z", "countryCode": "AR" }, "geometry": { "type": "Point", "coordinates": [ -64.452035, -24.120425 ] } },
{ "type": "Feature", "properties": { "decimalLatitude": -24.883766, "decimalLongitude": -64.62751, "eventDate": "2017-04-29T15:06:00Z", "countryCode": "AR" }, "geometry": { "type": "Point", "coordinates": [ -64.62751, -24.883766 ] } },
{ "type": "Feature", "properties": { "decimalLatitude": -27.868724, "decimalLongitude": -49.566776, "eventDate": "2017-04-28T14:28:00Z", "countryCode": "BR" }, "geometry": { "type": "Point", "coordinates": [ -49.566776, -27.868724 ] } },
{ "type": "Feature", "properties": { "decimalLatitude": 0.143, "decimalLongitude": -78.888, "eventDate": "2017-04-20T00:00:00Z", "countryCode": "EC" }, "geometry": { "type": "Point", "coordinates": [ -78.888, 0.143 ] } },
{ "type": "Feature", "properties": { "decimalLatitude": -24.283889, "decimalLongitude": -48.424722, "eventDate": "2017-04-11T00:00:00Z", "countryCode": "BR" }, "geometry": { "type": "Point", "coordinates": [ -48.424722, -24.283889 ] } },
{ "type": "Feature", "properties": { "decimalLatitude": 5.795895, "decimalLongitude": -76.037126, "eventDate": "2017-06-14T00:00:00Z", "countryCode": "CO" }, "geometry": { "type": "Point", "coordinates": [ -76.037126, 5.795895 ] } },
{ "type": "Feature", "properties": { "decimalLatitude": -22.028561, "decimalLongitude": -63.69658, "eventDate": "2017-07-21T15:04:02Z", "countryCode": "AR" }, "geometry": { "type": "Point", "coordinates": [ -63.69658, -22.028561 ] } },
{ "type": "Feature", "properties": { "decimalLatitude": -23.700264, "decimalLongitude": -64.859191, "eventDate": "2017-08-15T14:24:00Z", "countryCode": "AR" }, "geometry": { "type": "Point", "coordinates": [ -64.859191, -23.700264 ] } },
{ "type": "Feature", "properties": { "decimalLatitude": -14.1812, "decimalLongitude": -69.356, "eventDate": "2017-11-07T00:00:00Z", "countryCode": "PE" }, "geometry": { "type": "Point", "coordinates": [ -69.356, -14.1812 ] } },
{ "type": "Feature", "properties": { "decimalLatitude": -13.157743, "decimalLongitude": -72.523241, "eventDate": "2017-12-26T23:53:27Z", "countryCode": "PE" }, "geometry": { "type": "Point", "coordinates": [ -72.523241, -13.157743 ] } },
{ "type": "Feature", "properties": { "decimalLatitude": -22.360718, "decimalLongitude": -44.753783, "eventDate": "2018-01-27T00:00:00Z", "countryCode": "BR" }, "geometry": { "type": "Point", "coordinates": [ -44.753783, -22.360718 ] } },
{ "type": "Feature", "properties": { "decimalLatitude": 14.593695, "decimalLongitude": -91.232742, "eventDate": "2018-02-03T10:53:53Z", "countryCode": "GT" }, "geometry": { "type": "Point", "coordinates": [ -91.232742, 14.593695 ] } },
{ "type": "Feature", "properties": { "decimalLatitude": -20.482106, "decimalLongitude": -41.8518, "eventDate": "2018-02-16T14:19:00Z", "countryCode": "BR" }, "geometry": { "type": "Point", "coordinates": [ -41.8518, -20.482106 ] } },
{ "type": "Feature", "properties": { "decimalLatitude": -25.385035, "decimalLongitude": -49.015442, "eventDate": "2018-03-06T13:33:45Z", "countryCode": "BR" }, "geometry": { "type": "Point", "coordinates": [ -49.015442, -25.385035 ] } },
{ "type": "Feature", "properties": { "decimalLatitude": 8.882953, "decimalLongitude": -82.683686, "eventDate": "2018-04-28T00:00:00Z", "countryCode": "PA" }, "geometry": { "type": "Point", "coordinates": [ -82.683686, 8.882953 ] } },
{ "type": "Feature", "properties": { "decimalLatitude": -23.675862, "decimalLongitude": -46.734365, "eventDate": "2018-05-18T00:00:00Z", "countryCode": "BR" }, "geometry": { "type": "Point", "coordinates": [ -46.734365, -23.675862 ] } },
{ "type": "Feature", "properties": { "decimalLatitude": -29.683349, "decimalLongitude": -53.721805, "eventDate": "2018-07-15T10:37:00Z", "countryCode": "BR" }, "geometry": { "type": "Point", "coordinates": [ -53.721805, -29.683349 ] } },
{ "type": "Feature", "properties": { "decimalLatitude": -27.200546, "decimalLongitude": -54.017848, "eventDate": "2018-07-18T14:40:00Z", "countryCode": "AR" }, "geometry": { "type": "Point", "coordinates": [ -54.017848, -27.200546 ] } },
{ "type": "Feature", "properties": { "decimalLatitude": -25.414722, "decimalLongitude": -49.298054, "eventDate": "2018-07-20T12:58:40Z", "countryCode": "BR" }, "geometry": { "type": "Point", "coordinates": [ -49.298054, -25.414722 ] } },
{ "type": "Feature", "properties": { "decimalLatitude": -23.607456, "decimalLongitude": -46.827246, "eventDate": "2018-07-07T10:59:00Z", "countryCode": "BR" }, "geometry": { "type": "Point", "coordinates": [ -46.827246, -23.607456 ] } },
{ "type": "Feature", "properties": { "decimalLatitude": -23.451634, "decimalLongitude": -46.762104, "eventDate": "2018-07-09T16:33:00Z", "countryCode": "BR" }, "geometry": { "type": "Point", "coordinates": [ -46.762104, -23.451634 ] } },
{ "type": "Feature", "properties": { "decimalLatitude": 7.205422, "decimalLongitude": -72.442625, "eventDate": "2018-09-02T00:00:00Z", "countryCode": "CO" }, "geometry": { "type": "Point", "coordinates": [ -72.442625, 7.205422 ] } },
{ "type": "Feature", "properties": { "decimalLatitude": 7.205422, "decimalLongitude": -72.442625, "eventDate": "2018-09-01T00:00:00Z", "countryCode": "CO" }, "geometry": { "type": "Point", "coordinates": [ -72.442625, 7.205422 ] } },
{ "type": "Feature", "properties": { "decimalLatitude": -0.056938, "decimalLongitude": -78.778258, "eventDate": "2018-09-07T00:00:00Z", "countryCode": "EC" }, "geometry": { "type": "Point", "coordinates": [ -78.778258, -0.056938 ] } },
{ "type": "Feature", "properties": { "decimalLatitude": -27.232652, "decimalLongitude": -53.851547, "eventDate": "2018-09-08T11:14:00Z", "countryCode": "BR" }, "geometry": { "type": "Point", "coordinates": [ -53.851547, -27.232652 ] } },
{ "type": "Feature", "properties": { "decimalLatitude": -27.203495, "decimalLongitude": -54.001195, "eventDate": "2018-09-22T10:52:45Z", "countryCode": "AR" }, "geometry": { "type": "Point", "coordinates": [ -54.001195, -27.203495 ] } },
{ "type": "Feature", "properties": { "decimalLatitude": -27.469213, "decimalLongitude": -58.830635, "eventDate": "2018-10-10T07:06:00Z", "countryCode": "AR" }, "geometry": { "type": "Point", "coordinates": [ -58.830635, -27.469213 ] } },
{ "type": "Feature", "properties": { "decimalLatitude": -23.399749, "decimalLongitude": -46.533114, "eventDate": "2018-12-09T16:04:01Z", "countryCode": "BR" }, "geometry": { "type": "Point", "coordinates": [ -46.533114, -23.399749 ] } },
{ "type": "Feature", "properties": { "decimalLatitude": -27.059681, "decimalLongitude": -54.825705, "eventDate": "2018-12-10T11:19:34Z", "countryCode": "AR" }, "geometry": { "type": "Point", "coordinates": [ -54.825705, -27.059681 ] } },
{ "type": "Feature", "properties": { "decimalLatitude": -28.027984, "decimalLongitude": -49.61235, "eventDate": "2019-01-01T00:00:00Z", "countryCode": "BR" }, "geometry": { "type": "Point", "coordinates": [ -49.61235, -28.027984 ] } },
{ "type": "Feature", "properties": { "decimalLatitude": 9.466302, "decimalLongitude": -83.584856, "eventDate": "2019-01-05T21:26:00Z", "countryCode": "CR" }, "geometry": { "type": "Point", "coordinates": [ -83.584856, 9.466302 ] } },
{ "type": "Feature", "properties": { "decimalLatitude": -0.615165, "decimalLongitude": -77.604096, "eventDate": "2019-02-03T15:41:00Z", "countryCode": "EC" }, "geometry": { "type": "Point", "coordinates": [ -77.604096, -0.615165 ] } },
{ "type": "Feature", "properties": { "decimalLatitude": -22.917607, "decimalLongitude": -45.894797, "eventDate": "2019-05-27T00:00:00Z", "countryCode": "BR" }, "geometry": { "type": "Point", "coordinates": [ -45.894797, -22.917607 ] } },
{ "type": "Feature", "properties": { "decimalLatitude": -15.940953, "decimalLongitude": -67.476981, "eventDate": "2019-05-08T12:56:00Z", "countryCode": "BO" }, "geometry": { "type": "Point", "coordinates": [ -67.476981, -15.940953 ] } },
{ "type": "Feature", "properties": { "decimalLatitude": -23.419175, "decimalLongitude": -46.634618, "eventDate": "2019-05-05T01:18:00Z", "countryCode": "BR" }, "geometry": { "type": "Point", "coordinates": [ -46.634618, -23.419175 ] } },
{ "type": "Feature", "properties": { "decimalLatitude": -27.200383, "decimalLongitude": -54.017021, "eventDate": "2019-05-04T12:22:00Z", "countryCode": "AR" }, "geometry": { "type": "Point", "coordinates": [ -54.017021, -27.200383 ] } },
{ "type": "Feature", "properties": { "decimalLatitude": -29.430277, "decimalLongitude": -50.855556, "eventDate": "2019-06-15T13:10:00Z", "countryCode": "BR" }, "geometry": { "type": "Point", "coordinates": [ -50.855556, -29.430277 ] } },
{ "type": "Feature", "properties": { "decimalLatitude": 4.727004, "decimalLongitude": -75.577663, "eventDate": "2019-06-30T13:15:06Z", "countryCode": "CO" }, "geometry": { "type": "Point", "coordinates": [ -75.577663, 4.727004 ] } },
{ "type": "Feature", "properties": { "decimalLatitude": -22.331581, "decimalLongitude": -45.112928, "eventDate": "2019-06-16T11:38:00Z", "countryCode": "BR" }, "geometry": { "type": "Point", "coordinates": [ -45.112928, -22.331581 ] } },
{ "type": "Feature", "properties": { "decimalLatitude": 8.788812, "decimalLongitude": -82.965024, "eventDate": "2019-06-26T11:00:00Z", "countryCode": "CR" }, "geometry": { "type": "Point", "coordinates": [ -82.965024, 8.788812 ] } },
{ "type": "Feature", "properties": { "decimalLatitude": -13.044078, "decimalLongitude": -71.528662, "eventDate": "2019-10-08T10:58:00Z", "countryCode": "PE" }, "geometry": { "type": "Point", "coordinates": [ -71.528662, -13.044078 ] } },
{ "type": "Feature", "properties": { "decimalLatitude": -0.837631, "decimalLongitude": -79.205603, "eventDate": "2020-01-17T22:43:00Z", "countryCode": "EC" }, "geometry": { "type": "Point", "coordinates": [ -79.205603, -0.837631 ] } },
{ "type": "Feature", "properties": { "decimalLatitude": 4.724251, "decimalLongitude": -75.569085, "eventDate": "2020-01-09T00:00:00Z", "countryCode": "CO" }, "geometry": { "type": "Point", "coordinates": [ -75.569085, 4.724251 ] } },
{ "type": "Feature", "properties": { "decimalLatitude": -27.140135, "decimalLongitude": -53.926072, "eventDate": "2020-01-29T10:51:00Z", "countryCode": "AR" }, "geometry": { "type": "Point", "coordinates": [ -53.926072, -27.140135 ] } },
{ "type": "Feature", "properties": { "decimalLatitude": 4.899584, "decimalLongitude": -73.302579, "eventDate": "2020-02-03T14:22:00Z", "countryCode": "CO" }, "geometry": { "type": "Point", "coordinates": [ -73.302579, 4.899584 ] } },
{ "type": "Feature", "properties": { "decimalLatitude": 5.775764, "decimalLongitude": -76.028155, "eventDate": "2020-08-06T11:29:00Z", "countryCode": "CO" }, "geometry": { "type": "Point", "coordinates": [ -76.028155, 5.775764 ] } },
{ "type": "Feature", "properties": { "decimalLatitude": 5.416721, "decimalLongitude": -75.725017, "eventDate": "2020-08-04T14:10:00Z", "countryCode": "CO" }, "geometry": { "type": "Point", "coordinates": [ -75.725017, 5.416721 ] } },
{ "type": "Feature", "properties": { "decimalLatitude": 4.606776, "decimalLongitude": -74.311832, "eventDate": "2020-09-06T13:41:00Z", "countryCode": "CO" }, "geometry": { "type": "Point", "coordinates": [ -74.311832, 4.606776 ] } },
{ "type": "Feature", "properties": { "decimalLatitude": -23.743016, "decimalLongitude": -46.891037, "eventDate": "2020-12-31T20:33:00Z", "countryCode": "BR" }, "geometry": { "type": "Point", "coordinates": [ -46.891037, -23.743016 ] } },
{ "type": "Feature", "properties": { "decimalLatitude": -26.442644, "decimalLongitude": -53.840558, "eventDate": "2020-12-28T16:52:00Z", "countryCode": "AR" }, "geometry": { "type": "Point", "coordinates": [ -53.840558, -26.442644 ] } },
{ "type": "Feature", "properties": { "decimalLatitude": -22.310076, "decimalLongitude": -42.497062, "eventDate": "2021-01-13T10:49:00Z", "countryCode": "BR" }, "geometry": { "type": "Point", "coordinates": [ -42.497062, -22.310076 ] } },
{ "type": "Feature", "properties": { "decimalLatitude": -22.310076, "decimalLongitude": -42.497062, "eventDate": "2021-01-13T10:49:00Z", "countryCode": "BR" }, "geometry": { "type": "Point", "coordinates": [ -42.497062, -22.310076 ] } },
{ "type": "Feature", "properties": { "decimalLatitude": -22.310076, "decimalLongitude": -42.497062, "eventDate": "2021-01-13T10:49:00Z", "countryCode": "BR" }, "geometry": { "type": "Point", "coordinates": [ -42.497062, -22.310076 ] } },
{ "type": "Feature", "properties": { "decimalLatitude": -27.147956, "decimalLongitude": -51.899931, "eventDate": "2021-02-14T19:32:00Z", "countryCode": "BR" }, "geometry": { "type": "Point", "coordinates": [ -51.899931, -27.147956 ] } },
{ "type": "Feature", "properties": { "decimalLatitude": -23.427223, "decimalLongitude": -46.632907, "eventDate": "2021-02-24T12:40:00Z", "countryCode": "BR" }, "geometry": { "type": "Point", "coordinates": [ -46.632907, -23.427223 ] } },
{ "type": "Feature", "properties": { "decimalLatitude": 4.72515, "decimalLongitude": -75.57538, "eventDate": "2021-03-06T12:01:00Z", "countryCode": "CO" }, "geometry": { "type": "Point", "coordinates": [ -75.57538, 4.72515 ] } },
{ "type": "Feature", "properties": { "decimalLatitude": -22.310076, "decimalLongitude": -42.497062, "eventDate": "2021-03-24T09:24:00Z", "countryCode": "BR" }, "geometry": { "type": "Point", "coordinates": [ -42.497062, -22.310076 ] } },
{ "type": "Feature", "properties": { "decimalLatitude": -27.147994, "decimalLongitude": -51.899716, "eventDate": "2021-03-24T15:41:00Z", "countryCode": "BR" }, "geometry": { "type": "Point", "coordinates": [ -51.899716, -27.147994 ] } },
{ "type": "Feature", "properties": { "decimalLatitude": -23.230635, "decimalLongitude": -46.955926, "eventDate": "2021-03-20T11:50:00Z", "countryCode": "BR" }, "geometry": { "type": "Point", "coordinates": [ -46.955926, -23.230635 ] } },
{ "type": "Feature", "properties": { "decimalLatitude": -25.398905, "decimalLongitude": -49.306942, "eventDate": "2021-04-23T13:40:03Z", "countryCode": "BR" }, "geometry": { "type": "Point", "coordinates": [ -49.306942, -25.398905 ] } },
{ "type": "Feature", "properties": { "decimalLatitude": -23.437342, "decimalLongitude": -46.632222, "eventDate": "2021-05-02T00:00:00Z", "countryCode": "BR" }, "geometry": { "type": "Point", "coordinates": [ -46.632222, -23.437342 ] } },
{ "type": "Feature", "properties": { "decimalLatitude": -23.414167, "decimalLongitude": -46.6, "eventDate": "2021-05-02T23:28:00Z", "countryCode": "BR" }, "geometry": { "type": "Point", "coordinates": [ -46.6, -23.414167 ] } },
{ "type": "Feature", "properties": { "decimalLatitude": -23.455481, "decimalLongitude": -46.629667, "eventDate": "2021-05-01T13:06:57Z", "countryCode": "BR" }, "geometry": { "type": "Point", "coordinates": [ -46.629667, -23.455481 ] } },
{ "type": "Feature", "properties": { "decimalLatitude": -23.398824, "decimalLongitude": -46.532141, "eventDate": "2021-06-20T00:00:00Z", "countryCode": "BR" }, "geometry": { "type": "Point", "coordinates": [ -46.532141, -23.398824 ] } },
{ "type": "Feature", "properties": { "decimalLatitude": -23.398824, "decimalLongitude": -46.532141, "eventDate": "2021-06-27T00:00:00Z", "countryCode": "BR" }, "geometry": { "type": "Point", "coordinates": [ -46.532141, -23.398824 ] } },
{ "type": "Feature", "properties": { "decimalLatitude": -23.403983, "decimalLongitude": -46.535145, "eventDate": "2021-06-27T21:27:00Z", "countryCode": "BR" }, "geometry": { "type": "Point", "coordinates": [ -46.535145, -23.403983 ] } },
{ "type": "Feature", "properties": { "decimalLatitude": -23.398824, "decimalLongitude": -46.532141, "eventDate": "2021-06-27T00:00:00Z", "countryCode": "BR" }, "geometry": { "type": "Point", "coordinates": [ -46.532141, -23.398824 ] } },
{ "type": "Feature", "properties": { "decimalLatitude": -23.398824, "decimalLongitude": -46.532141, "eventDate": "2021-06-20T00:00:00Z", "countryCode": "BR" }, "geometry": { "type": "Point", "coordinates": [ -46.532141, -23.398824 ] } },
{ "type": "Feature", "properties": { "decimalLatitude": -23.403983, "decimalLongitude": -46.535145, "eventDate": "2021-06-27T21:21:00Z", "countryCode": "BR" }, "geometry": { "type": "Point", "coordinates": [ -46.535145, -23.403983 ] } },
{ "type": "Feature", "properties": { "decimalLatitude": -25.66663, "decimalLongitude": -49.27852, "eventDate": "2021-06-02T10:46:00Z", "countryCode": "BR" }, "geometry": { "type": "Point", "coordinates": [ -49.27852, -25.66663 ] } },
{ "type": "Feature", "properties": { "decimalLatitude": -25.457462, "decimalLongitude": -49.011172, "eventDate": "2021-06-24T11:09:00Z", "countryCode": "BR" }, "geometry": { "type": "Point", "coordinates": [ -49.011172, -25.457462 ] } },
{ "type": "Feature", "properties": { "decimalLatitude": -23.455485, "decimalLongitude": -46.629667, "eventDate": "2021-07-06T12:38:33Z", "countryCode": "BR" }, "geometry": { "type": "Point", "coordinates": [ -46.629667, -23.455485 ] } },
{ "type": "Feature", "properties": { "decimalLatitude": -23.455485, "decimalLongitude": -46.629667, "eventDate": "2021-07-13T11:19:26Z", "countryCode": "BR" }, "geometry": { "type": "Point", "coordinates": [ -46.629667, -23.455485 ] } },
{ "type": "Feature", "properties": { "decimalLatitude": -23.445445, "decimalLongitude": -46.626622, "eventDate": "2021-07-21T00:00:00Z", "countryCode": "BR" }, "geometry": { "type": "Point", "coordinates": [ -46.626622, -23.445445 ] } },
{ "type": "Feature", "properties": { "decimalLatitude": -23.456003, "decimalLongitude": -46.629819, "eventDate": "2021-07-20T11:31:22Z", "countryCode": "BR" }, "geometry": { "type": "Point", "coordinates": [ -46.629819, -23.456003 ] } },
{ "type": "Feature", "properties": { "decimalLatitude": -23.495176, "decimalLongitude": -46.519442, "eventDate": "2021-07-12T20:36:00Z", "countryCode": "BR" }, "geometry": { "type": "Point", "coordinates": [ -46.519442, -23.495176 ] } },
{ "type": "Feature", "properties": { "decimalLatitude": -25.416, "decimalLongitude": -49.304199, "eventDate": "2021-07-23T12:42:05Z", "countryCode": "BR" }, "geometry": { "type": "Point", "coordinates": [ -49.304199, -25.416 ] } },
{ "type": "Feature", "properties": { "decimalLatitude": -23.445366, "decimalLongitude": -46.626214, "eventDate": "2021-08-03T00:00:00Z", "countryCode": "BR" }, "geometry": { "type": "Point", "coordinates": [ -46.626214, -23.445366 ] } },
{ "type": "Feature", "properties": { "decimalLatitude": -23.483498, "decimalLongitude": -46.507019, "eventDate": "2021-08-17T00:00:00Z", "countryCode": "BR" }, "geometry": { "type": "Point", "coordinates": [ -46.507019, -23.483498 ] } },
{ "type": "Feature", "properties": { "decimalLatitude": -23.493368, "decimalLongitude": -46.520398, "eventDate": "2021-08-17T00:00:00Z", "countryCode": "BR" }, "geometry": { "type": "Point", "coordinates": [ -46.520398, -23.493368 ] } },
{ "type": "Feature", "properties": { "decimalLatitude": -27.594804, "decimalLongitude": -48.556929, "eventDate": "2021-09-28T12:13:00Z", "countryCode": "BR" }, "geometry": { "type": "Point", "coordinates": [ -48.556929, -27.594804 ] } },
{ "type": "Feature", "properties": { "decimalLatitude": -25.455079, "decimalLongitude": -49.333905, "eventDate": "2021-09-19T16:46:00Z", "countryCode": "BR" }, "geometry": { "type": "Point", "coordinates": [ -49.333905, -25.455079 ] } },
{ "type": "Feature", "properties": { "decimalLatitude": -17.406166, "decimalLongitude": -65.237667, "eventDate": "2021-09-22T09:33:48Z", "countryCode": "BO" }, "geometry": { "type": "Point", "coordinates": [ -65.237667, -17.406166 ] } },
{ "type": "Feature", "properties": { "decimalLatitude": -27.059805, "decimalLongitude": -54.825756, "eventDate": "2021-09-20T16:00:00Z", "countryCode": "AR" }, "geometry": { "type": "Point", "coordinates": [ -54.825756, -27.059805 ] } },
{ "type": "Feature", "properties": { "decimalLatitude": -0.622952, "decimalLongitude": -77.602818, "eventDate": "2021-09-21T10:35:00Z", "countryCode": "EC" }, "geometry": { "type": "Point", "coordinates": [ -77.602818, -0.622952 ] } },
{ "type": "Feature", "properties": { "decimalLatitude": 0.106476, "decimalLongitude": -78.985476, "eventDate": "2021-09-11T11:47:00Z", "countryCode": "EC" }, "geometry": { "type": "Point", "coordinates": [ -78.985476, 0.106476 ] } },
{ "type": "Feature", "properties": { "decimalLatitude": 1.12956, "decimalLongitude": -77.99535, "eventDate": "2021-09-20T00:00:00Z", "countryCode": "CO" }, "geometry": { "type": "Point", "coordinates": [ -77.99535, 1.12956 ] } },
{ "type": "Feature", "properties": { "decimalLatitude": -22.215124, "decimalLongitude": -45.960255, "eventDate": "2021-11-06T15:27:00Z", "countryCode": "BR" }, "geometry": { "type": "Point", "coordinates": [ -45.960255, -22.215124 ] } },
{ "type": "Feature", "properties": { "decimalLatitude": -13.036912, "decimalLongitude": -71.505607, "eventDate": "2021-11-16T10:41:00Z", "countryCode": "PE" }, "geometry": { "type": "Point", "coordinates": [ -71.505607, -13.036912 ] } },
{ "type": "Feature", "properties": { "decimalLatitude": -13.036912, "decimalLongitude": -71.505607, "eventDate": "2021-11-16T10:57:00Z", "countryCode": "PE" }, "geometry": { "type": "Point", "coordinates": [ -71.505607, -13.036912 ] } },
{ "type": "Feature", "properties": { "decimalLatitude": -13.025997, "decimalLongitude": -71.499575, "eventDate": "2021-11-22T10:35:00Z", "countryCode": "PE" }, "geometry": { "type": "Point", "coordinates": [ -71.499575, -13.025997 ] } },
{ "type": "Feature", "properties": { "decimalLatitude": -5.925789, "decimalLongitude": -77.351239, "eventDate": "2021-12-01T12:50:00Z", "countryCode": "PE" }, "geometry": { "type": "Point", "coordinates": [ -77.351239, -5.925789 ] } },
{ "type": "Feature", "properties": { "decimalLatitude": -25.782544, "decimalLongitude": -49.697772, "eventDate": "2021-12-20T14:29:00Z", "countryCode": "BR" }, "geometry": { "type": "Point", "coordinates": [ -49.697772, -25.782544 ] } },
{ "type": "Feature", "properties": { "decimalLatitude": -23.495176, "decimalLongitude": -46.519442, "eventDate": "2022-01-20T11:14:00Z", "countryCode": "BR" }, "geometry": { "type": "Point", "coordinates": [ -46.519442, -23.495176 ] } },
{ "type": "Feature", "properties": { "decimalLatitude": -29.166871, "decimalLongitude": -51.180101, "eventDate": "2022-01-28T20:44:00Z", "countryCode": "BR" }, "geometry": { "type": "Point", "coordinates": [ -51.180101, -29.166871 ] } },
{ "type": "Feature", "properties": { "decimalLatitude": -23.230635, "decimalLongitude": -46.955926, "eventDate": "2022-02-27T00:00:00Z", "countryCode": "BR" }, "geometry": { "type": "Point", "coordinates": [ -46.955926, -23.230635 ] } },
{ "type": "Feature", "properties": { "decimalLatitude": -23.563888, "decimalLongitude": -46.729175, "eventDate": "2022-02-05T13:03:32Z", "countryCode": "BR" }, "geometry": { "type": "Point", "coordinates": [ -46.729175, -23.563888 ] } },
{ "type": "Feature", "properties": { "decimalLatitude": -22.443124, "decimalLongitude": -44.61177, "eventDate": "2022-03-17T16:39:00Z", "countryCode": "BR" }, "geometry": { "type": "Point", "coordinates": [ -44.61177, -22.443124 ] } },
{ "type": "Feature", "properties": { "decimalLatitude": -22.310076, "decimalLongitude": -42.497062, "eventDate": "2022-03-15T11:48:00Z", "countryCode": "BR" }, "geometry": { "type": "Point", "coordinates": [ -42.497062, -22.310076 ] } },
{ "type": "Feature", "properties": { "decimalLatitude": 10.305131, "decimalLongitude": -84.791484, "eventDate": "2022-03-11T12:01:00Z", "countryCode": "CR" }, "geometry": { "type": "Point", "coordinates": [ -84.791484, 10.305131 ] } },
{ "type": "Feature", "properties": { "decimalLatitude": -22.8665, "decimalLongitude": -45.958708, "eventDate": "2022-04-22T11:11:07Z", "countryCode": "BR" }, "geometry": { "type": "Point", "coordinates": [ -45.958708, -22.8665 ] } },
{ "type": "Feature", "properties": { "decimalLatitude": -23.455485, "decimalLongitude": -46.629667, "eventDate": "2022-04-26T12:53:59Z", "countryCode": "BR" }, "geometry": { "type": "Point", "coordinates": [ -46.629667, -23.455485 ] } },
{ "type": "Feature", "properties": { "decimalLatitude": -23.410028, "decimalLongitude": -46.592783, "eventDate": "2022-05-01T00:00:00Z", "countryCode": "BR" }, "geometry": { "type": "Point", "coordinates": [ -46.592783, -23.410028 ] } },
{ "type": "Feature", "properties": { "decimalLatitude": -22.310076, "decimalLongitude": -42.497062, "eventDate": "2022-05-30T15:01:00Z", "countryCode": "BR" }, "geometry": { "type": "Point", "coordinates": [ -42.497062, -22.310076 ] } },
{ "type": "Feature", "properties": { "decimalLatitude": 5.617412, "decimalLongitude": -75.835696, "eventDate": "2022-05-25T11:05:00Z", "countryCode": "CO" }, "geometry": { "type": "Point", "coordinates": [ -75.835696, 5.617412 ] } },
{ "type": "Feature", "properties": { "decimalLatitude": -23.432435, "decimalLongitude": -45.965791, "eventDate": "2022-06-04T11:30:00Z", "countryCode": "BR" }, "geometry": { "type": "Point", "coordinates": [ -45.965791, -23.432435 ] } },
{ "type": "Feature", "properties": { "decimalLatitude": 14.563223, "decimalLongitude": -88.642189, "eventDate": "2022-06-24T12:20:00Z", "countryCode": "HN" }, "geometry": { "type": "Point", "coordinates": [ -88.642189, 14.563223 ] } },
{ "type": "Feature", "properties": { "decimalLatitude": 14.563148, "decimalLongitude": -88.642311, "eventDate": "2022-06-24T12:20:00Z", "countryCode": "HN" }, "geometry": { "type": "Point", "coordinates": [ -88.642311, 14.563148 ] } },
{ "type": "Feature", "properties": { "decimalLatitude": -22.937082, "decimalLongitude": -45.956909, "eventDate": "2022-07-17T13:34:00Z", "countryCode": "BR" }, "geometry": { "type": "Point", "coordinates": [ -45.956909, -22.937082 ] } },
{ "type": "Feature", "properties": { "decimalLatitude": -23.776798, "decimalLongitude": -46.301333, "eventDate": "2022-07-02T13:18:58Z", "countryCode": "BR" }, "geometry": { "type": "Point", "coordinates": [ -46.301333, -23.776798 ] } },
{ "type": "Feature", "properties": { "decimalLatitude": 3.624183, "decimalLongitude": -76.168397, "eventDate": "2022-07-03T12:23:08Z", "countryCode": "CO" }, "geometry": { "type": "Point", "coordinates": [ -76.168397, 3.624183 ] } },
{ "type": "Feature", "properties": { "decimalLatitude": -23.46024, "decimalLongitude": -47.05857, "eventDate": "2022-07-12T12:21:18Z", "countryCode": "BR" }, "geometry": { "type": "Point", "coordinates": [ -47.05857, -23.46024 ] } },
{ "type": "Feature", "properties": { "decimalLatitude": -23.442162, "decimalLongitude": -46.624261, "eventDate": "2022-07-17T00:00:00Z", "countryCode": "BR" }, "geometry": { "type": "Point", "coordinates": [ -46.624261, -23.442162 ] } },
{ "type": "Feature", "properties": { "decimalLatitude": -23.773382, "decimalLongitude": -46.292527, "eventDate": "2022-07-25T13:11:00Z", "countryCode": "BR" }, "geometry": { "type": "Point", "coordinates": [ -46.292527, -23.773382 ] } },
{ "type": "Feature", "properties": { "decimalLatitude": -23.773373, "decimalLongitude": -46.292587, "eventDate": "2022-07-02T13:00:00Z", "countryCode": "BR" }, "geometry": { "type": "Point", "coordinates": [ -46.292587, -23.773373 ] } },
{ "type": "Feature", "properties": { "decimalLatitude": -23.421404, "decimalLongitude": -46.621506, "eventDate": "2022-08-07T20:29:00Z", "countryCode": "BR" }, "geometry": { "type": "Point", "coordinates": [ -46.621506, -23.421404 ] } },
{ "type": "Feature", "properties": { "decimalLatitude": -23.421404, "decimalLongitude": -46.621506, "eventDate": "2022-08-07T20:30:00Z", "countryCode": "BR" }, "geometry": { "type": "Point", "coordinates": [ -46.621506, -23.421404 ] } },
{ "type": "Feature", "properties": { "decimalLatitude": 5.069457, "decimalLongitude": -74.380305, "eventDate": "2022-08-16T11:44:51Z", "countryCode": "CO" }, "geometry": { "type": "Point", "coordinates": [ -74.380305, 5.069457 ] } },
{ "type": "Feature", "properties": { "decimalLatitude": 3.324277, "decimalLongitude": -76.600702, "eventDate": "2022-09-23T12:59:00Z", "countryCode": "CO" }, "geometry": { "type": "Point", "coordinates": [ -76.600702, 3.324277 ] } },
{ "type": "Feature", "properties": { "decimalLatitude": -14.733172, "decimalLongitude": -40.214272, "eventDate": "2022-09-16T12:28:01Z", "countryCode": "BR" }, "geometry": { "type": "Point", "coordinates": [ -40.214272, -14.733172 ] } },
{ "type": "Feature", "properties": { "decimalLatitude": -14.736002, "decimalLongitude": -40.211682, "eventDate": "2022-09-16T12:25:00Z", "countryCode": "BR" }, "geometry": { "type": "Point", "coordinates": [ -40.211682, -14.736002 ] } },
{ "type": "Feature", "properties": { "decimalLatitude": -12.83608, "decimalLongitude": -72.795005, "eventDate": "2022-09-17T11:36:00Z", "countryCode": "PE" }, "geometry": { "type": "Point", "coordinates": [ -72.795005, -12.83608 ] } },
{ "type": "Feature", "properties": { "decimalLatitude": 3.322789, "decimalLongitude": -76.599163, "eventDate": "2022-09-23T11:50:00Z", "countryCode": "CO" }, "geometry": { "type": "Point", "coordinates": [ -76.599163, 3.322789 ] } },
{ "type": "Feature", "properties": { "decimalLatitude": -13.029492, "decimalLongitude": -71.497989, "eventDate": "2022-10-03T12:16:00Z", "countryCode": "PE" }, "geometry": { "type": "Point", "coordinates": [ -71.497989, -13.029492 ] } },
{ "type": "Feature", "properties": { "decimalLatitude": -29.673973, "decimalLongitude": -53.579622, "eventDate": "2022-10-28T10:44:00Z", "countryCode": "BR" }, "geometry": { "type": "Point", "coordinates": [ -53.579622, -29.673973 ] } },
{ "type": "Feature", "properties": { "decimalLatitude": -0.637839, "decimalLongitude": -76.150113, "eventDate": "2022-10-27T10:22:00Z", "countryCode": "EC" }, "geometry": { "type": "Point", "coordinates": [ -76.150113, -0.637839 ] } },
{ "type": "Feature", "properties": { "decimalLatitude": -0.685524, "decimalLongitude": -77.601522, "eventDate": "2022-10-09T08:52:00Z", "countryCode": "EC" }, "geometry": { "type": "Point", "coordinates": [ -77.601522, -0.685524 ] } },
{ "type": "Feature", "properties": { "decimalLatitude": -12.040649, "decimalLongitude": -71.723036, "eventDate": "2022-10-20T11:24:00Z", "countryCode": "PE" }, "geometry": { "type": "Point", "coordinates": [ -71.723036, -12.040649 ] } },
{ "type": "Feature", "properties": { "decimalLatitude": -26.703878, "decimalLongitude": -54.396367, "eventDate": "2022-10-25T11:52:00Z", "countryCode": "AR" }, "geometry": { "type": "Point", "coordinates": [ -54.396367, -26.703878 ] } },
{ "type": "Feature", "properties": { "decimalLatitude": 9.784786, "decimalLongitude": -83.751392, "eventDate": "2022-11-12T08:32:00Z", "countryCode": "CR" }, "geometry": { "type": "Point", "coordinates": [ -83.751392, 9.784786 ] } },
{ "type": "Feature", "properties": { "decimalLatitude": -29.674028, "decimalLongitude": -53.580685, "eventDate": "2023-01-15T15:34:00Z", "countryCode": "BR" }, "geometry": { "type": "Point", "coordinates": [ -53.580685, -29.674028 ] } },
{ "type": "Feature", "properties": { "decimalLatitude": -29.602791, "decimalLongitude": -53.687734, "eventDate": "2023-01-20T15:57:00Z", "countryCode": "BR" }, "geometry": { "type": "Point", "coordinates": [ -53.687734, -29.602791 ] } },
{ "type": "Feature", "properties": { "decimalLatitude": 4.792863, "decimalLongitude": -75.604124, "eventDate": "2023-01-18T11:49:00Z", "countryCode": "CO" }, "geometry": { "type": "Point", "coordinates": [ -75.604124, 4.792863 ] } },
{ "type": "Feature", "properties": { "decimalLatitude": -29.604338, "decimalLongitude": -53.688318, "eventDate": "2023-01-29T14:43:00Z", "countryCode": "BR" }, "geometry": { "type": "Point", "coordinates": [ -53.688318, -29.604338 ] } },
{ "type": "Feature", "properties": { "decimalLatitude": 8.784887, "decimalLongitude": -82.960495, "eventDate": "2023-01-24T11:49:52Z", "countryCode": "CR" }, "geometry": { "type": "Point", "coordinates": [ -82.960495, 8.784887 ] } },
{ "type": "Feature", "properties": { "decimalLatitude": 5.642371, "decimalLongitude": -75.810776, "eventDate": "2023-01-23T11:27:43Z", "countryCode": "CO" }, "geometry": { "type": "Point", "coordinates": [ -75.810776, 5.642371 ] } },
{ "type": "Feature", "properties": { "decimalLatitude": -27.192947, "decimalLongitude": -53.885301, "eventDate": "2023-02-04T14:26:00Z", "countryCode": "BR" }, "geometry": { "type": "Point", "coordinates": [ -53.885301, -27.192947 ] } },
{ "type": "Feature", "properties": { "decimalLatitude": -23.437683, "decimalLongitude": -46.636337, "eventDate": "2023-02-10T13:03:00Z", "countryCode": "BR" }, "geometry": { "type": "Point", "coordinates": [ -46.636337, -23.437683 ] } },
{ "type": "Feature", "properties": { "decimalLatitude": -23.399702, "decimalLongitude": -46.581099, "eventDate": "2023-02-10T13:49:00Z", "countryCode": "BR" }, "geometry": { "type": "Point", "coordinates": [ -46.581099, -23.399702 ] } },
{ "type": "Feature", "properties": { "decimalLatitude": -29.604437, "decimalLongitude": -53.688369, "eventDate": "2023-02-21T14:41:00Z", "countryCode": "BR" }, "geometry": { "type": "Point", "coordinates": [ -53.688369, -29.604437 ] } },
{ "type": "Feature", "properties": { "decimalLatitude": -29.674166, "decimalLongitude": -53.579585, "eventDate": "2023-03-01T14:26:00Z", "countryCode": "BR" }, "geometry": { "type": "Point", "coordinates": [ -53.579585, -29.674166 ] } },
{ "type": "Feature", "properties": { "decimalLatitude": -23.495176, "decimalLongitude": -46.519442, "eventDate": "2023-03-31T13:09:00Z", "countryCode": "BR" }, "geometry": { "type": "Point", "coordinates": [ -46.519442, -23.495176 ] } },
{ "type": "Feature", "properties": { "decimalLatitude": -23.564, "decimalLongitude": -46.729871, "eventDate": "2023-03-17T14:24:00Z", "countryCode": "BR" }, "geometry": { "type": "Point", "coordinates": [ -46.729871, -23.564 ] } },
{ "type": "Feature", "properties": { "decimalLatitude": -25.395239, "decimalLongitude": -49.354705, "eventDate": "2023-03-31T11:25:50Z", "countryCode": "BR" }, "geometry": { "type": "Point", "coordinates": [ -49.354705, -25.395239 ] } },
{ "type": "Feature", "properties": { "decimalLatitude": -23.940409, "decimalLongitude": -51.167153, "eventDate": "2023-04-01T13:53:00Z", "countryCode": "BR" }, "geometry": { "type": "Point", "coordinates": [ -51.167153, -23.940409 ] } },
{ "type": "Feature", "properties": { "decimalLatitude": -24.458787, "decimalLongitude": -50.03433, "eventDate": "2023-04-21T13:08:00Z", "countryCode": "BR" }, "geometry": { "type": "Point", "coordinates": [ -50.03433, -24.458787 ] } },
{ "type": "Feature", "properties": { "decimalLatitude": -23.495176, "decimalLongitude": -46.519442, "eventDate": "2023-04-21T12:08:00Z", "countryCode": "BR" }, "geometry": { "type": "Point", "coordinates": [ -46.519442, -23.495176 ] } },
{ "type": "Feature", "properties": { "decimalLatitude": -22.828417, "decimalLongitude": -45.695813, "eventDate": "2023-04-21T13:07:42Z", "countryCode": "BR" }, "geometry": { "type": "Point", "coordinates": [ -45.695813, -22.828417 ] } },
{ "type": "Feature", "properties": { "decimalLatitude": -25.301495, "decimalLongitude": -49.72381, "eventDate": "2023-04-29T13:56:15Z", "countryCode": "BR" }, "geometry": { "type": "Point", "coordinates": [ -49.72381, -25.301495 ] } },
{ "type": "Feature", "properties": { "decimalLatitude": -25.301865, "decimalLongitude": -49.730747, "eventDate": "2023-04-29T13:56:15Z", "countryCode": "BR" }, "geometry": { "type": "Point", "coordinates": [ -49.730747, -25.301865 ] } },
{ "type": "Feature", "properties": { "decimalLatitude": -25.397051, "decimalLongitude": -49.283706, "eventDate": "2023-04-28T12:21:20Z", "countryCode": "BR" }, "geometry": { "type": "Point", "coordinates": [ -49.283706, -25.397051 ] } },
{ "type": "Feature", "properties": { "decimalLatitude": 5.189837, "decimalLongitude": -75.995061, "eventDate": "2023-04-25T00:00:00Z", "countryCode": "CO" }, "geometry": { "type": "Point", "coordinates": [ -75.995061, 5.189837 ] } },
{ "type": "Feature", "properties": { "decimalLatitude": -25.385164, "decimalLongitude": -49.290576, "eventDate": "2023-04-29T12:46:12Z", "countryCode": "BR" }, "geometry": { "type": "Point", "coordinates": [ -49.290576, -25.385164 ] } },
{ "type": "Feature", "properties": { "decimalLatitude": -25.9761, "decimalLongitude": -54.1145, "eventDate": "2023-05-01T13:16:00Z", "countryCode": "AR" }, "geometry": { "type": "Point", "coordinates": [ -54.1145, -25.9761 ] } },
{ "type": "Feature", "properties": { "decimalLatitude": -23.460748, "decimalLongitude": -47.057784, "eventDate": "2023-05-06T13:24:00Z", "countryCode": "BR" }, "geometry": { "type": "Point", "coordinates": [ -47.057784, -23.460748 ] } },
{ "type": "Feature", "properties": { "decimalLatitude": -27.686362, "decimalLongitude": -48.776858, "eventDate": "2023-05-10T10:34:00Z", "countryCode": "BR" }, "geometry": { "type": "Point", "coordinates": [ -48.776858, -27.686362 ] } },
{ "type": "Feature", "properties": { "decimalLatitude": -27.574556, "decimalLongitude": -48.471709, "eventDate": "2023-05-10T10:51:17Z", "countryCode": "BR" }, "geometry": { "type": "Point", "coordinates": [ -48.471709, -27.574556 ] } },
{ "type": "Feature", "properties": { "decimalLatitude": -22.591596, "decimalLongitude": -46.474424, "eventDate": "2023-05-14T14:20:16Z", "countryCode": "BR" }, "geometry": { "type": "Point", "coordinates": [ -46.474424, -22.591596 ] } },
{ "type": "Feature", "properties": { "decimalLatitude": -27.686362, "decimalLongitude": -48.776858, "eventDate": "2023-05-24T13:20:00Z", "countryCode": "BR" }, "geometry": { "type": "Point", "coordinates": [ -48.776858, -27.686362 ] } },
{ "type": "Feature", "properties": { "decimalLatitude": -23.555771, "decimalLongitude": -46.639557, "eventDate": "2023-05-27T12:41:00Z", "countryCode": "BR" }, "geometry": { "type": "Point", "coordinates": [ -46.639557, -23.555771 ] } },
{ "type": "Feature", "properties": { "decimalLatitude": -22.743852, "decimalLongitude": -45.632977, "eventDate": "2023-05-13T13:41:39Z", "countryCode": "BR" }, "geometry": { "type": "Point", "coordinates": [ -45.632977, -22.743852 ] } },
{ "type": "Feature", "properties": { "decimalLatitude": -27.012389, "decimalLongitude": -50.923438, "eventDate": "2023-06-04T11:42:03Z", "countryCode": "BR" }, "geometry": { "type": "Point", "coordinates": [ -50.923438, -27.012389 ] } },
{ "type": "Feature", "properties": { "decimalLatitude": -22.262748, "decimalLongitude": -43.011672, "eventDate": "2023-06-09T16:41:00Z", "countryCode": "BR" }, "geometry": { "type": "Point", "coordinates": [ -43.011672, -22.262748 ] } },
{ "type": "Feature", "properties": { "decimalLatitude": -22.876367, "decimalLongitude": -46.027879, "eventDate": "2023-06-19T13:15:00Z", "countryCode": "BR" }, "geometry": { "type": "Point", "coordinates": [ -46.027879, -22.876367 ] } },
{ "type": "Feature", "properties": { "decimalLatitude": -23.583774, "decimalLongitude": -46.478236, "eventDate": "2023-06-11T12:02:00Z", "countryCode": "BR" }, "geometry": { "type": "Point", "coordinates": [ -46.478236, -23.583774 ] } },
{ "type": "Feature", "properties": { "decimalLatitude": -22.877173, "decimalLongitude": -46.023638, "eventDate": "2023-06-19T13:09:00Z", "countryCode": "BR" }, "geometry": { "type": "Point", "coordinates": [ -46.023638, -22.877173 ] } },
{ "type": "Feature", "properties": { "decimalLatitude": -27.014374, "decimalLongitude": -50.924542, "eventDate": "2023-06-04T11:41:00Z", "countryCode": "BR" }, "geometry": { "type": "Point", "coordinates": [ -50.924542, -27.014374 ] } },
{ "type": "Feature", "properties": { "decimalLatitude": -25.475776, "decimalLongitude": -49.375811, "eventDate": "2023-06-10T11:36:40Z", "countryCode": "BR" }, "geometry": { "type": "Point", "coordinates": [ -49.375811, -25.475776 ] } },
{ "type": "Feature", "properties": { "decimalLatitude": -20.923691, "decimalLongitude": -42.542376, "eventDate": "2023-06-15T13:44:00Z", "countryCode": "BR" }, "geometry": { "type": "Point", "coordinates": [ -42.542376, -20.923691 ] } },
{ "type": "Feature", "properties": { "decimalLatitude": -25.231781, "decimalLongitude": -49.206687, "eventDate": "2023-06-03T15:24:03Z", "countryCode": "BR" }, "geometry": { "type": "Point", "coordinates": [ -49.206687, -25.231781 ] } },
{ "type": "Feature", "properties": { "decimalLatitude": -10.570198, "decimalLongitude": -63.618943, "eventDate": "2023-06-02T22:02:00Z", "countryCode": "BR" }, "geometry": { "type": "Point", "coordinates": [ -63.618943, -10.570198 ] } },
{ "type": "Feature", "properties": { "decimalLatitude": -23.435203, "decimalLongitude": -46.635632, "eventDate": "2023-07-21T13:15:00Z", "countryCode": "BR" }, "geometry": { "type": "Point", "coordinates": [ -46.635632, -23.435203 ] } },
{ "type": "Feature", "properties": { "decimalLatitude": -26.518917, "decimalLongitude": -53.986845, "eventDate": "2023-07-23T13:42:00Z", "countryCode": "AR" }, "geometry": { "type": "Point", "coordinates": [ -53.986845, -26.518917 ] } },
{ "type": "Feature", "properties": { "decimalLatitude": 6.126944, "decimalLongitude": -75.600833, "eventDate": "2023-07-13T14:15:00Z", "countryCode": "CO" }, "geometry": { "type": "Point", "coordinates": [ -75.600833, 6.126944 ] } },
{ "type": "Feature", "properties": { "decimalLatitude": 11.097578, "decimalLongitude": -74.077789, "eventDate": "2023-07-20T09:43:00Z", "countryCode": "CO" }, "geometry": { "type": "Point", "coordinates": [ -74.077789, 11.097578 ] } },
{ "type": "Feature", "properties": { "decimalLatitude": -23.230635, "decimalLongitude": -46.955926, "eventDate": "2023-08-15T11:35:00Z", "countryCode": "BR" }, "geometry": { "type": "Point", "coordinates": [ -46.955926, -23.230635 ] } },
{ "type": "Feature", "properties": { "decimalLatitude": -23.785277, "decimalLongitude": -46.303691, "eventDate": "2023-08-31T10:11:00Z", "countryCode": "BR" }, "geometry": { "type": "Point", "coordinates": [ -46.303691, -23.785277 ] } },
{ "type": "Feature", "properties": { "decimalLatitude": -23.460614, "decimalLongitude": -47.057917, "eventDate": "2023-08-19T11:03:00Z", "countryCode": "BR" }, "geometry": { "type": "Point", "coordinates": [ -47.057917, -23.460614 ] } },
{ "type": "Feature", "properties": { "decimalLatitude": -27.150036, "decimalLongitude": -53.899944, "eventDate": "2023-08-17T13:11:00Z", "countryCode": "AR" }, "geometry": { "type": "Point", "coordinates": [ -53.899944, -27.150036 ] } },
{ "type": "Feature", "properties": { "decimalLatitude": -27.153353, "decimalLongitude": -53.902129, "eventDate": "2023-08-30T17:39:00Z", "countryCode": "AR" }, "geometry": { "type": "Point", "coordinates": [ -53.902129, -27.153353 ] } },
{ "type": "Feature", "properties": { "decimalLatitude": -20.31145, "decimalLongitude": -46.525488, "eventDate": "2023-08-12T14:12:00Z", "countryCode": "BR" }, "geometry": { "type": "Point", "coordinates": [ -46.525488, -20.31145 ] } },
{ "type": "Feature", "properties": { "decimalLatitude": -23.559406, "decimalLongitude": -46.74956, "eventDate": "2023-08-21T12:43:50Z", "countryCode": "BR" }, "geometry": { "type": "Point", "coordinates": [ -46.74956, -23.559406 ] } },
{ "type": "Feature", "properties": { "decimalLatitude": -27.147683, "decimalLongitude": -53.896381, "eventDate": "2023-08-17T14:32:00Z", "countryCode": "AR" }, "geometry": { "type": "Point", "coordinates": [ -53.896381, -27.147683 ] } },
{ "type": "Feature", "properties": { "decimalLatitude": 4.206424, "decimalLongitude": -73.795453, "eventDate": "2023-09-06T11:43:00Z", "countryCode": "CO" }, "geometry": { "type": "Point", "coordinates": [ -73.795453, 4.206424 ] } },
{ "type": "Feature", "properties": { "decimalLatitude": -23.555771, "decimalLongitude": -46.639557, "eventDate": "2023-09-07T12:20:00Z", "countryCode": "BR" }, "geometry": { "type": "Point", "coordinates": [ -46.639557, -23.555771 ] } },
{ "type": "Feature", "properties": { "decimalLatitude": -23.555771, "decimalLongitude": -46.639557, "eventDate": "2023-09-07T12:20:00Z", "countryCode": "BR" }, "geometry": { "type": "Point", "coordinates": [ -46.639557, -23.555771 ] } },
{ "type": "Feature", "properties": { "decimalLatitude": -13.048582, "decimalLongitude": -71.531827, "eventDate": "2023-09-04T13:10:00Z", "countryCode": "PE" }, "geometry": { "type": "Point", "coordinates": [ -71.531827, -13.048582 ] } },
{ "type": "Feature", "properties": { "decimalLatitude": -26.926592, "decimalLongitude": -54.215089, "eventDate": "2023-09-30T14:22:59Z", "countryCode": "AR" }, "geometry": { "type": "Point", "coordinates": [ -54.215089, -26.926592 ] } },
{ "type": "Feature", "properties": { "decimalLatitude": -20.245766, "decimalLongitude": -46.420741, "eventDate": "2023-09-24T11:54:00Z", "countryCode": "BR" }, "geometry": { "type": "Point", "coordinates": [ -46.420741, -20.245766 ] } },
{ "type": "Feature", "properties": { "decimalLatitude": -27.231737, "decimalLongitude": -53.851586, "eventDate": "2023-10-15T12:45:00Z", "countryCode": "BR" }, "geometry": { "type": "Point", "coordinates": [ -53.851586, -27.231737 ] } },
{ "type": "Feature", "properties": { "decimalLatitude": -29.166575, "decimalLongitude": -51.148383, "eventDate": "2023-11-07T18:32:04Z", "countryCode": "BR" }, "geometry": { "type": "Point", "coordinates": [ -51.148383, -29.166575 ] } },
{ "type": "Feature", "properties": { "decimalLatitude": -1.411004, "decimalLongitude": -78.17026, "eventDate": "2023-11-18T10:26:00Z", "countryCode": "EC" }, "geometry": { "type": "Point", "coordinates": [ -78.17026, -1.411004 ] } },
{ "type": "Feature", "properties": { "decimalLatitude": -22.359973, "decimalLongitude": -44.810257, "eventDate": "2023-11-11T15:03:00Z", "countryCode": "BR" }, "geometry": { "type": "Point", "coordinates": [ -44.810257, -22.359973 ] } },
{ "type": "Feature", "properties": { "decimalLatitude": -23.235262, "decimalLongitude": -46.933503, "eventDate": "2023-11-09T14:39:27Z", "countryCode": "BR" }, "geometry": { "type": "Point", "coordinates": [ -46.933503, -23.235262 ] } },
{ "type": "Feature", "properties": { "decimalLatitude": -4.379911, "decimalLongitude": -78.711407, "eventDate": "2023-12-29T12:55:45Z", "countryCode": "EC" }, "geometry": { "type": "Point", "coordinates": [ -78.711407, -4.379911 ] } },
{ "type": "Feature", "properties": { "decimalLatitude": -22.678056, "decimalLongitude": -45.4725, "eventDate": "2024-01-25T12:49:00Z", "countryCode": "BR" }, "geometry": { "type": "Point", "coordinates": [ -45.4725, -22.678056 ] } },
{ "type": "Feature", "properties": { "decimalLatitude": -29.374558, "decimalLongitude": -50.876435, "eventDate": "2024-01-31T14:19:47Z", "countryCode": "BR" }, "geometry": { "type": "Point", "coordinates": [ -50.876435, -29.374558 ] } },
{ "type": "Feature", "properties": { "decimalLatitude": -25.827763, "decimalLongitude": -50.426291, "eventDate": "2024-02-05T11:09:00Z", "countryCode": "BR" }, "geometry": { "type": "Point", "coordinates": [ -50.426291, -25.827763 ] } },
{ "type": "Feature", "properties": { "decimalLatitude": -26.156186, "decimalLongitude": -49.373972, "eventDate": "2024-02-18T13:46:16Z", "countryCode": "BR" }, "geometry": { "type": "Point", "coordinates": [ -49.373972, -26.156186 ] } },
{ "type": "Feature", "properties": { "decimalLatitude": -26.249768, "decimalLongitude": -49.383937, "eventDate": "2024-02-18T13:52:00Z", "countryCode": "BR" }, "geometry": { "type": "Point", "coordinates": [ -49.383937, -26.249768 ] } },
{ "type": "Feature", "properties": { "decimalLatitude": -26.454578, "decimalLongitude": -52.566587, "eventDate": "2024-03-14T13:03:44Z", "countryCode": "BR" }, "geometry": { "type": "Point", "coordinates": [ -52.566587, -26.454578 ] } },
{ "type": "Feature", "properties": { "decimalLatitude": -23.457291, "decimalLongitude": -46.772035, "eventDate": "2024-03-17T14:29:00Z", "countryCode": "BR" }, "geometry": { "type": "Point", "coordinates": [ -46.772035, -23.457291 ] } },
{ "type": "Feature", "properties": { "decimalLatitude": -23.461795, "decimalLongitude": -46.757606, "eventDate": "2024-03-17T14:32:00Z", "countryCode": "BR" }, "geometry": { "type": "Point", "coordinates": [ -46.757606, -23.461795 ] } },
{ "type": "Feature", "properties": { "decimalLatitude": -29.673744, "decimalLongitude": -53.580308, "eventDate": "2024-03-25T15:12:00Z", "countryCode": "BR" }, "geometry": { "type": "Point", "coordinates": [ -53.580308, -29.673744 ] } },
{ "type": "Feature", "properties": { "decimalLatitude": -26.518599, "decimalLongitude": -53.984743, "eventDate": "2024-03-26T12:12:00Z", "countryCode": "AR" }, "geometry": { "type": "Point", "coordinates": [ -53.984743, -26.518599 ] } },
{ "type": "Feature", "properties": { "decimalLatitude": -22.217342, "decimalLongitude": -45.963119, "eventDate": "2024-04-10T10:29:55Z", "countryCode": "BR" }, "geometry": { "type": "Point", "coordinates": [ -45.963119, -22.217342 ] } },
{ "type": "Feature", "properties": { "decimalLatitude": -28.932574, "decimalLongitude": -52.133526, "eventDate": "2024-04-18T15:16:00Z", "countryCode": "BR" }, "geometry": { "type": "Point", "coordinates": [ -52.133526, -28.932574 ] } },
{ "type": "Feature", "properties": { "decimalLatitude": -23.576671, "decimalLongitude": -46.469967, "eventDate": "2024-04-27T11:58:00Z", "countryCode": "BR" }, "geometry": { "type": "Point", "coordinates": [ -46.469967, -23.576671 ] } },
{ "type": "Feature", "properties": { "decimalLatitude": -23.572455, "decimalLongitude": -46.469542, "eventDate": "2024-04-27T12:14:00Z", "countryCode": "BR" }, "geometry": { "type": "Point", "coordinates": [ -46.469542, -23.572455 ] } },
{ "type": "Feature", "properties": { "decimalLatitude": -18.208391, "decimalLongitude": -63.680205, "eventDate": "2024-04-28T11:59:22Z", "countryCode": "BO" }, "geometry": { "type": "Point", "coordinates": [ -63.680205, -18.208391 ] } },
{ "type": "Feature", "properties": { "decimalLatitude": -25.395298, "decimalLongitude": -49.354841, "eventDate": "2024-04-18T11:28:29Z", "countryCode": "BR" }, "geometry": { "type": "Point", "coordinates": [ -49.354841, -25.395298 ] } },
{ "type": "Feature", "properties": { "decimalLatitude": -25.455922, "decimalLongitude": -49.335345, "eventDate": "2024-05-07T09:09:00Z", "countryCode": "BR" }, "geometry": { "type": "Point", "coordinates": [ -49.335345, -25.455922 ] } },
{ "type": "Feature", "properties": { "decimalLatitude": -25.385704, "decimalLongitude": -49.01286, "eventDate": "2024-05-12T09:19:17Z", "countryCode": "BR" }, "geometry": { "type": "Point", "coordinates": [ -49.01286, -25.385704 ] } },
{ "type": "Feature", "properties": { "decimalLatitude": -23.436149, "decimalLongitude": -46.637048, "eventDate": "2024-05-11T12:20:00Z", "countryCode": "BR" }, "geometry": { "type": "Point", "coordinates": [ -46.637048, -23.436149 ] } },
{ "type": "Feature", "properties": { "decimalLatitude": -20.100846, "decimalLongitude": -43.66403, "eventDate": "2024-05-01T11:05:00Z", "countryCode": "BR" }, "geometry": { "type": "Point", "coordinates": [ -43.66403, -20.100846 ] } },
{ "type": "Feature", "properties": { "decimalLatitude": -22.310076, "decimalLongitude": -42.497062, "eventDate": "2024-05-05T16:07:00Z", "countryCode": "BR" }, "geometry": { "type": "Point", "coordinates": [ -42.497062, -22.310076 ] } },
{ "type": "Feature", "properties": { "decimalLatitude": -23.776955, "decimalLongitude": -46.301333, "eventDate": "2024-06-01T12:15:00Z", "countryCode": "BR" }, "geometry": { "type": "Point", "coordinates": [ -46.301333, -23.776955 ] } },
{ "type": "Feature", "properties": { "decimalLatitude": -23.453637, "decimalLongitude": -46.762688, "eventDate": "2024-06-22T10:38:12Z", "countryCode": "BR" }, "geometry": { "type": "Point", "coordinates": [ -46.762688, -23.453637 ] } },
{ "type": "Feature", "properties": { "decimalLatitude": -23.78791, "decimalLongitude": -46.3049, "eventDate": "2024-06-01T12:18:00Z", "countryCode": "BR" }, "geometry": { "type": "Point", "coordinates": [ -46.3049, -23.78791 ] } },
{ "type": "Feature", "properties": { "decimalLatitude": -22.310076, "decimalLongitude": -42.497062, "eventDate": "2024-07-03T14:39:00Z", "countryCode": "BR" }, "geometry": { "type": "Point", "coordinates": [ -42.497062, -22.310076 ] } },
{ "type": "Feature", "properties": { "decimalLatitude": -23.583774, "decimalLongitude": -46.478236, "eventDate": "2024-07-07T12:33:00Z", "countryCode": "BR" }, "geometry": { "type": "Point", "coordinates": [ -46.478236, -23.583774 ] } },
{ "type": "Feature", "properties": { "decimalLatitude": -26.494806, "decimalLongitude": -49.288434, "eventDate": "2024-07-21T12:57:00Z", "countryCode": "BR" }, "geometry": { "type": "Point", "coordinates": [ -49.288434, -26.494806 ] } },
{ "type": "Feature", "properties": { "decimalLatitude": 10.337975, "decimalLongitude": -84.808272, "eventDate": "2024-07-12T12:50:00Z", "countryCode": "CR" }, "geometry": { "type": "Point", "coordinates": [ -84.808272, 10.337975 ] } },
{ "type": "Feature", "properties": { "decimalLatitude": -23.638649, "decimalLongitude": -46.625609, "eventDate": "2024-08-02T12:07:31Z", "countryCode": "BR" }, "geometry": { "type": "Point", "coordinates": [ -46.625609, -23.638649 ] } },
{ "type": "Feature", "properties": { "decimalLatitude": -23.555771, "decimalLongitude": -46.639557, "eventDate": "2024-08-15T12:20:00Z", "countryCode": "BR" }, "geometry": { "type": "Point", "coordinates": [ -46.639557, -23.555771 ] } },
{ "type": "Feature", "properties": { "decimalLatitude": -25.446954, "decimalLongitude": -49.239232, "eventDate": "2024-08-22T13:31:00Z", "countryCode": "BR" }, "geometry": { "type": "Point", "coordinates": [ -49.239232, -25.446954 ] } },
{ "type": "Feature", "properties": { "decimalLatitude": -23.639315, "decimalLongitude": -46.619051, "eventDate": "2024-08-23T13:29:00Z", "countryCode": "BR" }, "geometry": { "type": "Point", "coordinates": [ -46.619051, -23.639315 ] } },
{ "type": "Feature", "properties": { "decimalLatitude": -11.035425, "decimalLongitude": -75.3638, "eventDate": "2024-08-02T10:52:00Z", "countryCode": "PE" }, "geometry": { "type": "Point", "coordinates": [ -75.3638, -11.035425 ] } },
{ "type": "Feature", "properties": { "decimalLatitude": -13.049816, "decimalLongitude": -71.527213, "eventDate": "2024-08-11T15:23:00Z", "countryCode": "PE" }, "geometry": { "type": "Point", "coordinates": [ -71.527213, -13.049816 ] } },
{ "type": "Feature", "properties": { "decimalLatitude": -23.639303, "decimalLongitude": -46.618672, "eventDate": "2024-08-30T11:14:00Z", "countryCode": "BR" }, "geometry": { "type": "Point", "coordinates": [ -46.618672, -23.639303 ] } },
{ "type": "Feature", "properties": { "decimalLatitude": -6.091425, "decimalLongitude": -76.967892, "eventDate": "2024-08-09T00:00:00Z", "countryCode": "PE" }, "geometry": { "type": "Point", "coordinates": [ -76.967892, -6.091425 ] } },
{ "type": "Feature", "properties": { "decimalLatitude": -26.952771, "decimalLongitude": -49.128345, "eventDate": "2024-08-28T11:27:00Z", "countryCode": "BR" }, "geometry": { "type": "Point", "coordinates": [ -49.128345, -26.952771 ] } },
{ "type": "Feature", "properties": { "decimalLatitude": -6.091192, "decimalLongitude": -76.967614, "eventDate": "2024-08-08T11:57:00Z", "countryCode": "PE" }, "geometry": { "type": "Point", "coordinates": [ -76.967614, -6.091192 ] } },
{ "type": "Feature", "properties": { "decimalLatitude": -26.519225, "decimalLongitude": -53.99482, "eventDate": "2024-10-20T11:05:13Z", "countryCode": "AR" }, "geometry": { "type": "Point", "coordinates": [ -53.99482, -26.519225 ] } },
{ "type": "Feature", "properties": { "decimalLatitude": -26.53381, "decimalLongitude": -53.95522, "eventDate": "2024-10-20T16:20:00Z", "countryCode": "AR" }, "geometry": { "type": "Point", "coordinates": [ -53.95522, -26.53381 ] } },
{ "type": "Feature", "properties": { "decimalLatitude": -0.703893, "decimalLongitude": -76.419878, "eventDate": "2024-11-19T13:09:59Z", "countryCode": "EC" }, "geometry": { "type": "Point", "coordinates": [ -76.419878, -0.703893 ] } },
{ "type": "Feature", "properties": { "decimalLatitude": -25.525314, "decimalLongitude": -50.646908, "eventDate": "2024-12-14T15:00:00Z", "countryCode": "BR" }, "geometry": { "type": "Point", "coordinates": [ -50.646908, -25.525314 ] } },
{ "type": "Feature", "properties": { "decimalLatitude": -25.525314, "decimalLongitude": -50.646908, "eventDate": "2024-12-14T15:07:00Z", "countryCode": "BR" }, "geometry": { "type": "Point", "coordinates": [ -50.646908, -25.525314 ] } },
{ "type": "Feature", "properties": { "decimalLatitude": -22.912142, "decimalLongitude": -45.959622, "eventDate": "2024-12-19T08:07:00Z", "countryCode": "BR" }, "geometry": { "type": "Point", "coordinates": [ -45.959622, -22.912142 ] } },
{ "type": "Feature", "properties": { "decimalLatitude": -23.289557, "decimalLongitude": -46.94252, "eventDate": "2024-12-24T15:34:00Z", "countryCode": "BR" }, "geometry": { "type": "Point", "coordinates": [ -46.94252, -23.289557 ] } },
{ "type": "Feature", "properties": { "decimalLatitude": -20.418863, "decimalLongitude": -41.847012, "eventDate": "2025-01-06T15:30:11Z", "countryCode": "BR" }, "geometry": { "type": "Point", "coordinates": [ -41.847012, -20.418863 ] } },
{ "type": "Feature", "properties": { "decimalLatitude": -25.352178, "decimalLongitude": -49.0018, "eventDate": "2025-01-08T07:33:00Z", "countryCode": "BR" }, "geometry": { "type": "Point", "coordinates": [ -49.0018, -25.352178 ] } },
{ "type": "Feature", "properties": { "decimalLatitude": -20.764887, "decimalLongitude": -42.860062, "eventDate": "2025-01-22T16:32:22Z", "countryCode": "BR" }, "geometry": { "type": "Point", "coordinates": [ -42.860062, -20.764887 ] } },
{ "type": "Feature", "properties": { "decimalLatitude": -26.877796, "decimalLongitude": -54.239612, "eventDate": "2025-01-16T12:08:00Z", "countryCode": "AR" }, "geometry": { "type": "Point", "coordinates": [ -54.239612, -26.877796 ] } },
{ "type": "Feature", "properties": { "decimalLatitude": -23.322457, "decimalLongitude": -46.58696, "eventDate": "2025-02-23T13:07:48Z", "countryCode": "BR" }, "geometry": { "type": "Point", "coordinates": [ -46.58696, -23.322457 ] } },
{ "type": "Feature", "properties": { "decimalLatitude": -23.322464, "decimalLongitude": -46.58696, "eventDate": "2025-02-23T12:17:00Z", "countryCode": "BR" }, "geometry": { "type": "Point", "coordinates": [ -46.58696, -23.322464 ] } },
{ "type": "Feature", "properties": { "decimalLatitude": -28.819331, "decimalLongitude": -50.816886, "eventDate": "2025-02-24T10:18:51Z", "countryCode": "BR" }, "geometry": { "type": "Point", "coordinates": [ -50.816886, -28.819331 ] } },
{ "type": "Feature", "properties": { "decimalLatitude": -22.777336, "decimalLongitude": -45.543266, "eventDate": "2025-03-03T16:53:41Z", "countryCode": "BR" }, "geometry": { "type": "Point", "coordinates": [ -45.543266, -22.777336 ] } },
{ "type": "Feature", "properties": { "decimalLatitude": -21.764983, "decimalLongitude": -46.606155, "eventDate": "2025-03-12T15:04:36Z", "countryCode": "BR" }, "geometry": { "type": "Point", "coordinates": [ -46.606155, -21.764983 ] } },
{ "type": "Feature", "properties": { "decimalLatitude": -23.727677, "decimalLongitude": -46.682378, "eventDate": "2025-03-18T13:02:00Z", "countryCode": "BR" }, "geometry": { "type": "Point", "coordinates": [ -46.682378, -23.727677 ] } },
{ "type": "Feature", "properties": { "decimalLatitude": -23.45727, "decimalLongitude": -46.75743, "eventDate": "2025-03-22T13:12:30Z", "countryCode": "BR" }, "geometry": { "type": "Point", "coordinates": [ -46.75743, -23.45727 ] } },
{ "type": "Feature", "properties": { "decimalLatitude": -22.310076, "decimalLongitude": -42.497062, "eventDate": "2025-03-28T19:22:00Z", "countryCode": "BR" }, "geometry": { "type": "Point", "coordinates": [ -42.497062, -22.310076 ] } },
{ "type": "Feature", "properties": { "decimalLatitude": -26.479484, "decimalLongitude": -49.275471, "eventDate": "2025-04-22T13:36:00Z", "countryCode": "BR" }, "geometry": { "type": "Point", "coordinates": [ -49.275471, -26.479484 ] } },
{ "type": "Feature", "properties": { "decimalLatitude": -27.859127, "decimalLongitude": -49.570781, "eventDate": "2025-04-10T14:27:00Z", "countryCode": "BR" }, "geometry": { "type": "Point", "coordinates": [ -49.570781, -27.859127 ] } },
{ "type": "Feature", "properties": { "decimalLatitude": -25.385122, "decimalLongitude": -49.015392, "eventDate": "2025-04-26T09:51:47Z", "countryCode": "BR" }, "geometry": { "type": "Point", "coordinates": [ -49.015392, -25.385122 ] } },
{ "type": "Feature", "properties": { "decimalLatitude": -26.505232, "decimalLongitude": -50.268607, "eventDate": "2025-04-10T19:11:53Z", "countryCode": "BR" }, "geometry": { "type": "Point", "coordinates": [ -50.268607, -26.505232 ] } },
{ "type": "Feature", "properties": { "decimalLatitude": -23.203961, "decimalLongitude": -46.60215, "eventDate": "2025-05-04T14:55:19Z", "countryCode": "BR" }, "geometry": { "type": "Point", "coordinates": [ -46.60215, -23.203961 ] } },
{ "type": "Feature", "properties": { "decimalLatitude": -25.410027, "decimalLongitude": -50.594558, "eventDate": "2025-05-17T13:22:45Z", "countryCode": "BR" }, "geometry": { "type": "Point", "coordinates": [ -50.594558, -25.410027 ] } },
{ "type": "Feature", "properties": { "decimalLatitude": -10.788906, "decimalLongitude": -63.633403, "eventDate": "2025-05-15T09:31:52Z", "countryCode": "BR" }, "geometry": { "type": "Point", "coordinates": [ -63.633403, -10.788906 ] } },
{ "type": "Feature", "properties": { "decimalLatitude": -22.341076, "decimalLongitude": -43.017946, "eventDate": "2025-05-28T10:47:26Z", "countryCode": "BR" }, "geometry": { "type": "Point", "coordinates": [ -43.017946, -22.341076 ] } },
{ "type": "Feature", "properties": { "decimalLatitude": -23.396372, "decimalLongitude": -46.533266, "eventDate": "2025-05-14T13:07:32Z", "countryCode": "BR" }, "geometry": { "type": "Point", "coordinates": [ -46.533266, -23.396372 ] } },
{ "type": "Feature", "properties": { "decimalLatitude": -0.671544, "decimalLongitude": -77.59859, "eventDate": "2025-05-24T15:20:17Z", "countryCode": "EC" }, "geometry": { "type": "Point", "coordinates": [ -77.59859, -0.671544 ] } },
{ "type": "Feature", "properties": { "decimalLatitude": -20.484382, "decimalLongitude": -41.048489, "eventDate": "2025-06-27T13:04:00Z", "countryCode": "BR" }, "geometry": { "type": "Point", "coordinates": [ -41.048489, -20.484382 ] } },
{ "type": "Feature", "properties": { "decimalLatitude": -19.254505, "decimalLongitude": -43.516555, "eventDate": "2025-07-01T10:07:23Z", "countryCode": "BR" }, "geometry": { "type": "Point", "coordinates": [ -43.516555, -19.254505 ] } },
{ "type": "Feature", "properties": { "decimalLatitude": -23.316603, "decimalLongitude": -46.226135, "eventDate": "2025-07-07T12:14:00Z", "countryCode": "BR" }, "geometry": { "type": "Point", "coordinates": [ -46.226135, -23.316603 ] } },
{ "type": "Feature", "properties": { "decimalLatitude": -19.25711, "decimalLongitude": -43.512988, "eventDate": "2025-07-01T12:05:05Z", "countryCode": "BR" }, "geometry": { "type": "Point", "coordinates": [ -43.512988, -19.25711 ] } },
{ "type": "Feature", "properties": { "decimalLatitude": -19.254492, "decimalLongitude": -43.516558, "eventDate": "2025-07-01T10:09:24Z", "countryCode": "BR" }, "geometry": { "type": "Point", "coordinates": [ -43.516558, -19.254492 ] } },
{ "type": "Feature", "properties": { "decimalLatitude": 4.140931, "decimalLongitude": -75.718891, "eventDate": "2025-07-05T13:07:00Z", "countryCode": "CO" }, "geometry": { "type": "Point", "coordinates": [ -75.718891, 4.140931 ] } },
{ "type": "Feature", "properties": { "decimalLatitude": -25.385055, "decimalLongitude": -49.0154, "eventDate": "2025-07-27T15:18:52Z", "countryCode": "BR" }, "geometry": { "type": "Point", "coordinates": [ -49.0154, -25.385055 ] } },
{ "type": "Feature", "properties": { "decimalLatitude": -23.85036, "decimalLongitude": -45.332852, "eventDate": "2025-07-27T11:37:00Z", "countryCode": "BR" }, "geometry": { "type": "Point", "coordinates": [ -45.332852, -23.85036 ] } },
{ "type": "Feature", "properties": { "decimalLatitude": -22.676188, "decimalLongitude": -45.666294, "eventDate": "2025-07-19T18:00:26Z", "countryCode": "BR" }, "geometry": { "type": "Point", "coordinates": [ -45.666294, -22.676188 ] } },
{ "type": "Feature", "properties": { "decimalLatitude": -23.332557, "decimalLongitude": -46.686489, "eventDate": "2025-08-16T10:34:00Z", "countryCode": "BR" }, "geometry": { "type": "Point", "coordinates": [ -46.686489, -23.332557 ] } },
{ "type": "Feature", "properties": { "decimalLatitude": -23.583555, "decimalLongitude": -46.478834, "eventDate": "2025-08-16T09:21:42Z", "countryCode": "BR" }, "geometry": { "type": "Point", "coordinates": [ -46.478834, -23.583555 ] } },
{ "type": "Feature", "properties": { "decimalLatitude": -23.464806, "decimalLongitude": -46.734687, "eventDate": "2025-08-24T09:44:00Z", "countryCode": "BR" }, "geometry": { "type": "Point", "coordinates": [ -46.734687, -23.464806 ] } },
{ "type": "Feature", "properties": { "decimalLatitude": -23.58329, "decimalLongitude": -46.464655, "eventDate": "2025-08-03T11:38:03Z", "countryCode": "BR" }, "geometry": { "type": "Point", "coordinates": [ -46.464655, -23.58329 ] } },
{ "type": "Feature", "properties": { "decimalLatitude": -23.26402, "decimalLongitude": -46.963799, "eventDate": "2025-09-08T20:41:00Z", "countryCode": "BR" }, "geometry": { "type": "Point", "coordinates": [ -46.963799, -23.26402 ] } },
{ "type": "Feature", "properties": { "decimalLatitude": -22.68988, "decimalLongitude": -45.481178, "eventDate": "2025-09-06T13:10:45Z", "countryCode": "BR" }, "geometry": { "type": "Point", "coordinates": [ -45.481178, -22.68988 ] } },
{ "type": "Feature", "properties": { "decimalLatitude": -22.329722, "decimalLongitude": -42.542022, "eventDate": "2025-09-21T20:22:21Z", "countryCode": "BR" }, "geometry": { "type": "Point", "coordinates": [ -42.542022, -22.329722 ] } },
{ "type": "Feature", "properties": { "decimalLatitude": -25.397035, "decimalLongitude": -49.283455, "eventDate": "2025-09-21T12:07:33Z", "countryCode": "BR" }, "geometry": { "type": "Point", "coordinates": [ -49.283455, -25.397035 ] } },
{ "type": "Feature", "properties": { "decimalLatitude": -17.080991, "decimalLongitude": -65.666419, "eventDate": "2025-09-14T11:51:00Z", "countryCode": "BO" }, "geometry": { "type": "Point", "coordinates": [ -65.666419, -17.080991 ] } },
{ "type": "Feature", "properties": { "decimalLatitude": -13.416688, "decimalLongitude": -70.905881, "eventDate": "2025-09-18T09:10:00Z", "countryCode": "PE" }, "geometry": { "type": "Point", "coordinates": [ -70.905881, -13.416688 ] } },
{ "type": "Feature", "properties": { "decimalLatitude": -12.636091, "decimalLongitude": -72.556842, "eventDate": "2025-10-25T08:44:00Z", "countryCode": "PE" }, "geometry": { "type": "Point", "coordinates": [ -72.556842, -12.636091 ] } },
{ "type": "Feature", "properties": { "decimalLatitude": -25.903853, "decimalLongitude": -56.152839, "eventDate": "2025-10-31T12:23:47Z", "countryCode": "PY" }, "geometry": { "type": "Point", "coordinates": [ -56.152839, -25.903853 ] } },
{ "type": "Feature", "properties": { "decimalLatitude": -29.657074, "decimalLongitude": -53.783926, "eventDate": "2025-10-31T15:12:00Z", "countryCode": "BR" }, "geometry": { "type": "Point", "coordinates": [ -53.783926, -29.657074 ] } },
{ "type": "Feature", "properties": { "decimalLatitude": -13.06083, "decimalLongitude": -71.55165, "eventDate": "2025-10-10T09:24:00Z", "countryCode": "PE" }, "geometry": { "type": "Point", "coordinates": [ -71.55165, -13.06083 ] } },
{ "type": "Feature", "properties": { "decimalLatitude": 11.094761, "decimalLongitude": -74.080039, "eventDate": "2025-10-29T09:38:39Z", "countryCode": "CO" }, "geometry": { "type": "Point", "coordinates": [ -74.080039, 11.094761 ] } },
{ "type": "Feature", "properties": { "decimalLatitude": -27.059241, "decimalLongitude": -54.827156, "eventDate": "2025-11-06T16:28:11Z", "countryCode": "AR" }, "geometry": { "type": "Point", "coordinates": [ -54.827156, -27.059241 ] } },
{ "type": "Feature", "properties": { "decimalLatitude": -17.156235, "decimalLongitude": -65.772218, "eventDate": "2025-11-28T16:37:00Z", "countryCode": "BO" }, "geometry": { "type": "Point", "coordinates": [ -65.772218, -17.156235 ] } },
{ "type": "Feature", "properties": { "decimalLatitude": -20.370853, "decimalLongitude": -43.464847, "eventDate": "2025-12-12T15:40:16Z", "countryCode": "BR" }, "geometry": { "type": "Point", "coordinates": [ -43.464847, -20.370853 ] } },
{ "type": "Feature", "properties": { "decimalLatitude": -20.419378, "decimalLongitude": -41.842912, "eventDate": "2025-12-27T14:14:21Z", "countryCode": "BR" }, "geometry": { "type": "Point", "coordinates": [ -41.842912, -20.419378 ] } },
{ "type": "Feature", "properties": { "decimalLatitude": -26.512496, "decimalLongitude": -49.117681, "eventDate": "2025-12-31T17:49:00Z", "countryCode": "BR" }, "geometry": { "type": "Point", "coordinates": [ -49.117681, -26.512496 ] } }
]
}
