{
"type": "FeatureCollection",
"name": "eucyclodes-gavissima-gbif",
"crs": { "type": "name", "properties": { "name": "urn:ogc:def:crs:OGC:1.3:CRS84" } },
"features": [
{ "type": "Feature", "properties": { "decimalLatitude": 36.604447, "decimalLongitude": 129.370744, "eventDate": "2015-07-26T00:00:00Z", "countryCode": "KR" }, "geometry": { "type": "Point", "coordinates": [ 129.370744, 36.604447 ] } },
{ "type": "Feature", "properties": { "decimalLatitude": 3.250209, "decimalLongitude": 102.832031, "eventDate": "2015-12-08T07:13:55Z", "countryCode": "MY" }, "geometry": { "type": "Point", "coordinates": [ 102.832031, 3.250209 ] } },
{ "type": "Feature", "properties": { "decimalLatitude": 3.691245, "decimalLongitude": 97.661499, "eventDate": "2016-03-03T02:42:00Z", "countryCode": "ID" }, "geometry": { "type": "Point", "coordinates": [ 97.661499, 3.691245 ] } },
{ "type": "Feature", "properties": { "decimalLatitude": 27.394074, "decimalLongitude": 95.60822, "eventDate": "2016-05-27T22:16:00Z", "countryCode": "IN" }, "geometry": { "type": "Point", "coordinates": [ 95.60822, 27.394074 ] } },
{ "type": "Feature", "properties": { "decimalLatitude": 27.394021, "decimalLongitude": 95.606825, "eventDate": "2017-03-22T20:33:00Z", "countryCode": "IN" }, "geometry": { "type": "Point", "coordinates": [ 95.606825, 27.394021 ] } },
{ "type": "Feature", "properties": { "decimalLatitude": 4.350793, "decimalLongitude": 117.91231, "eventDate": "2018-03-09T00:00:00Z", "countryCode": "MY" }, "geometry": { "type": "Point", "coordinates": [ 117.91231, 4.350793 ] } },
{ "type": "Feature", "properties": { "decimalLatitude": 24.43202, "decimalLongitude": 92.330689, "eventDate": "2018-08-02T21:08:24Z", "countryCode": "IN" }, "geometry": { "type": "Point", "coordinates": [ 92.330689, 24.43202 ] } },
{ "type": "Feature", "properties": { "decimalLatitude": 24.43202, "decimalLongitude": 92.330689, "eventDate": "2018-08-02T23:13:13Z", "countryCode": "IN" }, "geometry": { "type": "Point", "coordinates": [ 92.330689, 24.43202 ] } },
{ "type": "Feature", "properties": { "decimalLatitude": 6.011804, "decimalLongitude": 116.534333, "eventDate": "2018-10-09T05:56:30Z", "countryCode": "MY" }, "geometry": { "type": "Point", "coordinates": [ 116.534333, 6.011804 ] } },
{ "type": "Feature", "properties": { "decimalLatitude": 17.932079, "decimalLongitude": 99.561818, "eventDate": "2018-11-09T07:05:00Z", "countryCode": "TH" }, "geometry": { "type": "Point", "coordinates": [ 99.561818, 17.932079 ] } },
{ "type": "Feature", "properties": { "decimalLatitude": 17.931727, "decimalLongitude": 99.562232, "eventDate": "2018-11-09T10:44:00Z", "countryCode": "TH" }, "geometry": { "type": "Point", "coordinates": [ 99.562232, 17.931727 ] } },
{ "type": "Feature", "properties": { "decimalLatitude": 22.276207, "decimalLongitude": 103.967024, "eventDate": "2019-06-01T23:03:00Z", "countryCode": "VN" }, "geometry": { "type": "Point", "coordinates": [ 103.967024, 22.276207 ] } },
{ "type": "Feature", "properties": { "decimalLatitude": 24.432951, "decimalLongitude": 92.329328, "eventDate": "2019-10-29T13:34:00Z", "countryCode": "IN" }, "geometry": { "type": "Point", "coordinates": [ 92.329328, 24.432951 ] } },
{ "type": "Feature", "properties": { "decimalLatitude": 24.43202, "decimalLongitude": 92.330689, "eventDate": "2019-11-26T06:00:13Z", "countryCode": "IN" }, "geometry": { "type": "Point", "coordinates": [ 92.330689, 24.43202 ] } },
{ "type": "Feature", "properties": { "decimalLatitude": 24.43202, "decimalLongitude": 92.330689, "eventDate": "2020-07-15T00:34:24Z", "countryCode": "IN" }, "geometry": { "type": "Point", "coordinates": [ 92.330689, 24.43202 ] } },
{ "type": "Feature", "properties": { "decimalLatitude": 37.45774, "decimalLongitude": 128.145124, "eventDate": "2020-07-21T12:43:00Z", "countryCode": "KR" }, "geometry": { "type": "Point", "coordinates": [ 128.145124, 37.45774 ] } },
{ "type": "Feature", "properties": { "decimalLatitude": 24.43202, "decimalLongitude": 92.330689, "eventDate": "2020-08-17T01:26:22Z", "countryCode": "IN" }, "geometry": { "type": "Point", "coordinates": [ 92.330689, 24.43202 ] } },
{ "type": "Feature", "properties": { "decimalLatitude": 29.665708, "decimalLongitude": 79.458531, "eventDate": "2020-09-09T20:27:18Z", "countryCode": "IN" }, "geometry": { "type": "Point", "coordinates": [ 79.458531, 29.665708 ] } },
{ "type": "Feature", "properties": { "decimalLatitude": 24.43202, "decimalLongitude": 92.330689, "eventDate": "2020-10-08T19:21:41Z", "countryCode": "IN" }, "geometry": { "type": "Point", "coordinates": [ 92.330689, 24.43202 ] } },
{ "type": "Feature", "properties": { "decimalLatitude": 24.43202, "decimalLongitude": 92.330689, "eventDate": "2021-04-07T09:42:21Z", "countryCode": "IN" }, "geometry": { "type": "Point", "coordinates": [ 92.330689, 24.43202 ] } },
{ "type": "Feature", "properties": { "decimalLatitude": 18.603259, "decimalLongitude": 82.599649, "eventDate": "2021-06-19T22:05:11Z", "countryCode": "IN" }, "geometry": { "type": "Point", "coordinates": [ 82.599649, 18.603259 ] } },
{ "type": "Feature", "properties": { "decimalLatitude": 24.43202, "decimalLongitude": 92.330689, "eventDate": "2021-06-03T01:03:40Z", "countryCode": "IN" }, "geometry": { "type": "Point", "coordinates": [ 92.330689, 24.43202 ] } },
{ "type": "Feature", "properties": { "decimalLatitude": 27.075583, "decimalLongitude": 88.161735, "eventDate": "2021-06-26T08:55:00Z", "countryCode": "IN" }, "geometry": { "type": "Point", "coordinates": [ 88.161735, 27.075583 ] } },
{ "type": "Feature", "properties": { "decimalLatitude": 27.335348, "decimalLongitude": 88.611442, "eventDate": "2021-06-02T09:05:00Z", "countryCode": "IN" }, "geometry": { "type": "Point", "coordinates": [ 88.611442, 27.335348 ] } },
{ "type": "Feature", "properties": { "decimalLatitude": 10.270592, "decimalLongitude": 77.533374, "eventDate": "2021-08-18T13:26:46Z", "countryCode": "IN" }, "geometry": { "type": "Point", "coordinates": [ 77.533374, 10.270592 ] } },
{ "type": "Feature", "properties": { "decimalLatitude": 5.771057, "decimalLongitude": 117.371624, "eventDate": "2022-05-24T05:54:00Z", "countryCode": "MY" }, "geometry": { "type": "Point", "coordinates": [ 117.371624, 5.771057 ] } },
{ "type": "Feature", "properties": { "decimalLatitude": 18.816797, "decimalLongitude": 98.924115, "eventDate": "2022-06-25T12:50:00Z", "countryCode": "TH" }, "geometry": { "type": "Point", "coordinates": [ 98.924115, 18.816797 ] } },
{ "type": "Feature", "properties": { "decimalLatitude": 27.335194, "decimalLongitude": 88.611304, "eventDate": "2022-06-04T21:17:00Z", "countryCode": "IN" }, "geometry": { "type": "Point", "coordinates": [ 88.611304, 27.335194 ] } },
{ "type": "Feature", "properties": { "decimalLatitude": 27.310877, "decimalLongitude": 88.590059, "eventDate": "2022-07-31T22:33:06Z", "countryCode": "IN" }, "geometry": { "type": "Point", "coordinates": [ 88.590059, 27.310877 ] } },
{ "type": "Feature", "properties": { "decimalLatitude": 26.957386, "decimalLongitude": 88.142045, "eventDate": "2022-07-27T21:29:00Z", "countryCode": "IN" }, "geometry": { "type": "Point", "coordinates": [ 88.142045, 26.957386 ] } },
{ "type": "Feature", "properties": { "decimalLatitude": 4.771078, "decimalLongitude": 101.467897, "eventDate": "2022-08-14T06:06:59Z", "countryCode": "MY" }, "geometry": { "type": "Point", "coordinates": [ 101.467897, 4.771078 ] } },
{ "type": "Feature", "properties": { "decimalLatitude": 27.539783, "decimalLongitude": 88.62311, "eventDate": "2022-08-21T05:58:00Z", "countryCode": "IN" }, "geometry": { "type": "Point", "coordinates": [ 88.62311, 27.539783 ] } },
{ "type": "Feature", "properties": { "decimalLatitude": 27.551467, "decimalLongitude": 88.478239, "eventDate": "2022-09-18T22:50:00Z", "countryCode": "IN" }, "geometry": { "type": "Point", "coordinates": [ 88.478239, 27.551467 ] } },
{ "type": "Feature", "properties": { "decimalLatitude": 17.934734, "decimalLongitude": 99.575844, "eventDate": "2023-01-11T23:27:00Z", "countryCode": "TH" }, "geometry": { "type": "Point", "coordinates": [ 99.575844, 17.934734 ] } },
{ "type": "Feature", "properties": { "decimalLatitude": 5.771057, "decimalLongitude": 117.371624, "eventDate": "2023-04-04T03:35:00Z", "countryCode": "MY" }, "geometry": { "type": "Point", "coordinates": [ 117.371624, 5.771057 ] } },
{ "type": "Feature", "properties": { "decimalLatitude": 5.443023, "decimalLongitude": 116.451597, "eventDate": "2023-04-01T16:39:00Z", "countryCode": "MY" }, "geometry": { "type": "Point", "coordinates": [ 116.451597, 5.443023 ] } },
{ "type": "Feature", "properties": { "decimalLatitude": 27.54288, "decimalLongitude": 95.354295, "eventDate": "2023-04-27T12:07:34Z", "countryCode": "IN" }, "geometry": { "type": "Point", "coordinates": [ 95.354295, 27.54288 ] } },
{ "type": "Feature", "properties": { "decimalLatitude": 27.539993, "decimalLongitude": 88.623175, "eventDate": "2023-06-11T20:52:00Z", "countryCode": "IN" }, "geometry": { "type": "Point", "coordinates": [ 88.623175, 27.539993 ] } },
{ "type": "Feature", "properties": { "decimalLatitude": 3.715936, "decimalLongitude": 101.750429, "eventDate": "2023-07-22T21:01:00Z", "countryCode": "MY" }, "geometry": { "type": "Point", "coordinates": [ 101.750429, 3.715936 ] } },
{ "type": "Feature", "properties": { "decimalLatitude": 29.325031, "decimalLongitude": 95.334461, "eventDate": "2023-07-17T21:20:00Z", "countryCode": "CN" }, "geometry": { "type": "Point", "coordinates": [ 95.334461, 29.325031 ] } },
{ "type": "Feature", "properties": { "decimalLatitude": 28.707626, "decimalLongitude": 95.947743, "eventDate": "2023-08-25T21:22:00Z", "countryCode": "IN" }, "geometry": { "type": "Point", "coordinates": [ 95.947743, 28.707626 ] } },
{ "type": "Feature", "properties": { "decimalLatitude": 5.441773, "decimalLongitude": 116.450688, "eventDate": "2023-08-31T00:00:00Z", "countryCode": "MY" }, "geometry": { "type": "Point", "coordinates": [ 116.450688, 5.441773 ] } },
{ "type": "Feature", "properties": { "decimalLatitude": 29.790442, "decimalLongitude": 79.559379, "eventDate": "2023-09-18T06:36:00Z", "countryCode": "IN" }, "geometry": { "type": "Point", "coordinates": [ 79.559379, 29.790442 ] } },
{ "type": "Feature", "properties": { "decimalLatitude": 29.787669, "decimalLongitude": 79.561219, "eventDate": "2023-09-18T08:44:18Z", "countryCode": "IN" }, "geometry": { "type": "Point", "coordinates": [ 79.561219, 29.787669 ] } },
{ "type": "Feature", "properties": { "decimalLatitude": 12.937, "decimalLongitude": 75.723, "eventDate": "2023-09-14T00:36:35Z", "countryCode": "IN" }, "geometry": { "type": "Point", "coordinates": [ 75.723, 12.937 ] } },
{ "type": "Feature", "properties": { "decimalLatitude": 5.650072, "decimalLongitude": 116.373718, "eventDate": "2023-11-13T03:12:00Z", "countryCode": "MY" }, "geometry": { "type": "Point", "coordinates": [ 116.373718, 5.650072 ] } },
{ "type": "Feature", "properties": { "decimalLatitude": 18.816797, "decimalLongitude": 98.924115, "eventDate": "2024-03-17T09:51:00Z", "countryCode": "TH" }, "geometry": { "type": "Point", "coordinates": [ 98.924115, 18.816797 ] } },
{ "type": "Feature", "properties": { "decimalLatitude": 12.824252, "decimalLongitude": 99.365508, "eventDate": "2024-04-09T04:13:00Z", "countryCode": "TH" }, "geometry": { "type": "Point", "coordinates": [ 99.365508, 12.824252 ] } },
{ "type": "Feature", "properties": { "decimalLatitude": 27.120718, "decimalLongitude": 88.817293, "eventDate": "2024-05-30T20:51:00Z", "countryCode": "IN" }, "geometry": { "type": "Point", "coordinates": [ 88.817293, 27.120718 ] } },
{ "type": "Feature", "properties": { "decimalLatitude": 29.838056, "decimalLongitude": 79.6075, "eventDate": "2024-06-24T22:30:00Z", "countryCode": "IN" }, "geometry": { "type": "Point", "coordinates": [ 79.6075, 29.838056 ] } },
{ "type": "Feature", "properties": { "decimalLatitude": 23.944042, "decimalLongitude": 102.15712, "eventDate": "2024-06-07T21:17:00Z", "countryCode": "CN" }, "geometry": { "type": "Point", "coordinates": [ 102.15712, 23.944042 ] } },
{ "type": "Feature", "properties": { "decimalLatitude": 18.884752, "decimalLongitude": 109.666275, "eventDate": "2024-06-10T10:56:00Z", "countryCode": "CN" }, "geometry": { "type": "Point", "coordinates": [ 109.666275, 18.884752 ] } },
{ "type": "Feature", "properties": { "decimalLatitude": 26.907755, "decimalLongitude": 88.408096, "eventDate": "2024-07-09T08:58:00Z", "countryCode": "IN" }, "geometry": { "type": "Point", "coordinates": [ 88.408096, 26.907755 ] } },
{ "type": "Feature", "properties": { "decimalLatitude": 31.607617, "decimalLongitude": 76.914406, "eventDate": "2024-09-21T05:30:42Z", "countryCode": "IN" }, "geometry": { "type": "Point", "coordinates": [ 76.914406, 31.607617 ] } },
{ "type": "Feature", "properties": { "decimalLatitude": 5.771057, "decimalLongitude": 117.371624, "eventDate": "2024-12-18T07:31:00Z", "countryCode": "MY" }, "geometry": { "type": "Point", "coordinates": [ 117.371624, 5.771057 ] } },
{ "type": "Feature", "properties": { "decimalLatitude": 3.403128, "decimalLongitude": 101.840272, "eventDate": "2024-12-20T21:02:18Z", "countryCode": "MY" }, "geometry": { "type": "Point", "coordinates": [ 101.840272, 3.403128 ] } },
{ "type": "Feature", "properties": { "decimalLatitude": 3.40313, "decimalLongitude": 101.840278, "eventDate": "2024-12-20T20:48:00Z", "countryCode": "MY" }, "geometry": { "type": "Point", "coordinates": [ 101.840278, 3.40313 ] } },
{ "type": "Feature", "properties": { "decimalLatitude": 5.771057, "decimalLongitude": 117.371624, "eventDate": "2024-12-18T07:47:00Z", "countryCode": "MY" }, "geometry": { "type": "Point", "coordinates": [ 117.371624, 5.771057 ] } },
{ "type": "Feature", "properties": { "decimalLatitude": 5.771057, "decimalLongitude": 117.371624, "eventDate": "2024-12-21T04:57:00Z", "countryCode": "MY" }, "geometry": { "type": "Point", "coordinates": [ 117.371624, 5.771057 ] } },
{ "type": "Feature", "properties": { "decimalLatitude": 5.443144, "decimalLongitude": 116.451618, "eventDate": "2025-01-07T05:26:00Z", "countryCode": "MY" }, "geometry": { "type": "Point", "coordinates": [ 116.451618, 5.443144 ] } },
{ "type": "Feature", "properties": { "decimalLatitude": 24.752588, "decimalLongitude": 97.562142, "eventDate": "2025-02-17T01:48:54Z", "countryCode": "MM" }, "geometry": { "type": "Point", "coordinates": [ 97.562142, 24.752588 ] } },
{ "type": "Feature", "properties": { "decimalLatitude": 22.199662, "decimalLongitude": 100.879489, "eventDate": "2025-04-05T00:18:00Z", "countryCode": "CN" }, "geometry": { "type": "Point", "coordinates": [ 100.879489, 22.199662 ] } },
{ "type": "Feature", "properties": { "decimalLatitude": 8.379692, "decimalLongitude": 77.467669, "eventDate": "2025-04-03T04:38:41Z", "countryCode": "IN" }, "geometry": { "type": "Point", "coordinates": [ 77.467669, 8.379692 ] } },
{ "type": "Feature", "properties": { "decimalLatitude": 17.801099, "decimalLongitude": 98.361693, "eventDate": "2025-05-21T14:27:00Z", "countryCode": "TH" }, "geometry": { "type": "Point", "coordinates": [ 98.361693, 17.801099 ] } },
{ "type": "Feature", "properties": { "decimalLatitude": 25.28751, "decimalLongitude": 108.07188, "eventDate": "2025-05-18T01:42:00Z", "countryCode": "CN" }, "geometry": { "type": "Point", "coordinates": [ 108.07188, 25.28751 ] } },
{ "type": "Feature", "properties": { "decimalLatitude": 5.855563, "decimalLongitude": 101.235677, "eventDate": "2025-06-25T05:30:00Z", "countryCode": "TH" }, "geometry": { "type": "Point", "coordinates": [ 101.235677, 5.855563 ] } },
{ "type": "Feature", "properties": { "decimalLatitude": 27.052278, "decimalLongitude": 88.598061, "eventDate": "2025-06-28T23:49:00Z", "countryCode": "IN" }, "geometry": { "type": "Point", "coordinates": [ 88.598061, 27.052278 ] } },
{ "type": "Feature", "properties": { "decimalLatitude": 27.102003, "decimalLongitude": 88.679381, "eventDate": "2025-06-22T22:45:42Z", "countryCode": "IN" }, "geometry": { "type": "Point", "coordinates": [ 88.679381, 27.102003 ] } },
{ "type": "Feature", "properties": { "decimalLatitude": 18.481013, "decimalLongitude": 73.406589, "eventDate": "2025-06-07T15:10:00Z", "countryCode": "IN" }, "geometry": { "type": "Point", "coordinates": [ 73.406589, 18.481013 ] } },
{ "type": "Feature", "properties": { "decimalLatitude": 3.467389, "decimalLongitude": 101.922049, "eventDate": "2025-06-19T06:28:00Z", "countryCode": "MY" }, "geometry": { "type": "Point", "coordinates": [ 101.922049, 3.467389 ] } },
{ "type": "Feature", "properties": { "decimalLatitude": 27.335643, "decimalLongitude": 88.610999, "eventDate": "2025-06-18T21:03:00Z", "countryCode": "IN" }, "geometry": { "type": "Point", "coordinates": [ 88.610999, 27.335643 ] } },
{ "type": "Feature", "properties": { "decimalLatitude": 37.976539, "decimalLongitude": 127.277574, "eventDate": "2025-07-05T01:15:00Z", "countryCode": "KR" }, "geometry": { "type": "Point", "coordinates": [ 127.277574, 37.976539 ] } },
{ "type": "Feature", "properties": { "decimalLatitude": 27.335376, "decimalLongitude": 88.611647, "eventDate": "2025-07-26T09:32:00Z", "countryCode": "IN" }, "geometry": { "type": "Point", "coordinates": [ 88.611647, 27.335376 ] } },
{ "type": "Feature", "properties": { "decimalLatitude": 27.67905, "decimalLongitude": 119.64194, "eventDate": "2025-07-04T05:26:00Z", "countryCode": "CN" }, "geometry": { "type": "Point", "coordinates": [ 119.64194, 27.67905 ] } },
{ "type": "Feature", "properties": { "decimalLatitude": 36.931324, "decimalLongitude": 128.947072, "eventDate": "2025-07-20T00:00:00Z", "countryCode": "KR" }, "geometry": { "type": "Point", "coordinates": [ 128.947072, 36.931324 ] } },
{ "type": "Feature", "properties": { "decimalLatitude": 27.546834, "decimalLongitude": 93.898921, "eventDate": "2025-08-28T23:00:00Z", "countryCode": "IN" }, "geometry": { "type": "Point", "coordinates": [ 93.898921, 27.546834 ] } },
{ "type": "Feature", "properties": { "decimalLatitude": 18.90631, "decimalLongitude": 109.682541, "eventDate": "2025-08-07T23:53:00Z", "countryCode": "CN" }, "geometry": { "type": "Point", "coordinates": [ 109.682541, 18.90631 ] } },
{ "type": "Feature", "properties": { "decimalLatitude": 22.186506, "decimalLongitude": 100.863491, "eventDate": "2025-09-08T09:10:00Z", "countryCode": "CN" }, "geometry": { "type": "Point", "coordinates": [ 100.863491, 22.186506 ] } },
{ "type": "Feature", "properties": { "decimalLatitude": 27.072513, "decimalLongitude": 88.507656, "eventDate": "2025-10-13T23:37:00Z", "countryCode": "IN" }, "geometry": { "type": "Point", "coordinates": [ 88.507656, 27.072513 ] } }
]
}
