{
"type": "FeatureCollection",
"name": "euphaedra-themis-gbif",
"crs": { "type": "name", "properties": { "name": "urn:ogc:def:crs:OGC:1.3:CRS84" } },
"features": [
{ "type": "Feature", "properties": { "decimalLatitude": 3.98183, "decimalLongitude": 9.2625, "eventDate": "2016-10-10T00:00:00Z", "countryCode": "CM" }, "geometry": { "type": "Point", "coordinates": [ 9.2625, 3.98183 ] } },
{ "type": "Feature", "properties": { "decimalLatitude": 3.98183, "decimalLongitude": 9.2625, "eventDate": "2016-10-11T00:00:00Z", "countryCode": "CM" }, "geometry": { "type": "Point", "coordinates": [ 9.2625, 3.98183 ] } },
{ "type": "Feature", "properties": { "decimalLatitude": 9.070744, "decimalLongitude": 7.499683, "eventDate": "2016-11-27T09:41:10Z", "countryCode": "NG" }, "geometry": { "type": "Point", "coordinates": [ 7.499683, 9.070744 ] } },
{ "type": "Feature", "properties": { "decimalLatitude": 8.97327, "decimalLongitude": 7.27607, "eventDate": "2017-08-13T12:16:18Z", "countryCode": "NG" }, "geometry": { "type": "Point", "coordinates": [ 7.27607, 8.97327 ] } },
{ "type": "Feature", "properties": { "decimalLatitude": 6.266325, "decimalLongitude": -0.462863, "eventDate": "2019-02-04T08:32:00Z", "countryCode": "GH" }, "geometry": { "type": "Point", "coordinates": [ -0.462863, 6.266325 ] } },
{ "type": "Feature", "properties": { "decimalLatitude": 7.00745, "decimalLongitude": 0.645213, "eventDate": "2019-10-27T12:09:00Z", "countryCode": "TG" }, "geometry": { "type": "Point", "coordinates": [ 0.645213, 7.00745 ] } },
{ "type": "Feature", "properties": { "decimalLatitude": 5.975787, "decimalLongitude": -0.68067, "eventDate": "2021-04-14T00:00:00Z", "countryCode": "GH" }, "geometry": { "type": "Point", "coordinates": [ -0.68067, 5.975787 ] } },
{ "type": "Feature", "properties": { "decimalLatitude": 5.97647, "decimalLongitude": -0.68685, "eventDate": "2021-04-17T00:00:00Z", "countryCode": "GH" }, "geometry": { "type": "Point", "coordinates": [ -0.68685, 5.97647 ] } },
{ "type": "Feature", "properties": { "decimalLatitude": 5.97647, "decimalLongitude": -0.68891, "eventDate": "2021-04-01T00:00:00Z", "countryCode": "GH" }, "geometry": { "type": "Point", "coordinates": [ -0.68891, 5.97647 ] } },
{ "type": "Feature", "properties": { "decimalLatitude": 5.975787, "decimalLongitude": -0.683417, "eventDate": "2021-04-19T00:00:00Z", "countryCode": "GH" }, "geometry": { "type": "Point", "coordinates": [ -0.683417, 5.975787 ] } },
{ "type": "Feature", "properties": { "decimalLatitude": 5.975104, "decimalLongitude": -0.673804, "eventDate": "2021-04-14T00:00:00Z", "countryCode": "GH" }, "geometry": { "type": "Point", "coordinates": [ -0.673804, 5.975104 ] } },
{ "type": "Feature", "properties": { "decimalLatitude": 5.975104, "decimalLongitude": -0.671744, "eventDate": "2021-04-30T00:00:00Z", "countryCode": "GH" }, "geometry": { "type": "Point", "coordinates": [ -0.671744, 5.975104 ] } },
{ "type": "Feature", "properties": { "decimalLatitude": 5.975787, "decimalLongitude": -0.677924, "eventDate": "2021-04-14T00:00:00Z", "countryCode": "GH" }, "geometry": { "type": "Point", "coordinates": [ -0.677924, 5.975787 ] } },
{ "type": "Feature", "properties": { "decimalLatitude": 7.792718, "decimalLongitude": 6.731838, "eventDate": "2021-06-13T16:32:35Z", "countryCode": "NG" }, "geometry": { "type": "Point", "coordinates": [ 6.731838, 7.792718 ] } },
{ "type": "Feature", "properties": { "decimalLatitude": 7.8, "decimalLongitude": 6.7, "eventDate": "2021-06-13T00:00:00Z", "countryCode": "NG" }, "geometry": { "type": "Point", "coordinates": [ 6.7, 7.8 ] } },
{ "type": "Feature", "properties": { "decimalLatitude": 7.790028, "decimalLongitude": 6.730667, "eventDate": "2021-08-17T11:54:02Z", "countryCode": "NG" }, "geometry": { "type": "Point", "coordinates": [ 6.730667, 7.790028 ] } },
{ "type": "Feature", "properties": { "decimalLatitude": 7.8, "decimalLongitude": 6.7, "eventDate": "2021-08-17T00:00:00Z", "countryCode": "NG" }, "geometry": { "type": "Point", "coordinates": [ 6.7, 7.8 ] } },
{ "type": "Feature", "properties": { "decimalLatitude": 7.8, "decimalLongitude": 6.7, "eventDate": "2021-10-02T00:00:00Z", "countryCode": "NG" }, "geometry": { "type": "Point", "coordinates": [ 6.7, 7.8 ] } },
{ "type": "Feature", "properties": { "decimalLatitude": 6.844643, "decimalLongitude": 0.423394, "eventDate": "2021-12-07T10:38:00Z", "countryCode": "GH" }, "geometry": { "type": "Point", "coordinates": [ 0.423394, 6.844643 ] } },
{ "type": "Feature", "properties": { "decimalLatitude": 6.687424, "decimalLongitude": -1.343063, "eventDate": "2024-09-03T11:19:00Z", "countryCode": "GH" }, "geometry": { "type": "Point", "coordinates": [ -1.343063, 6.687424 ] } },
{ "type": "Feature", "properties": { "decimalLatitude": 6.687424, "decimalLongitude": -1.343063, "eventDate": "2024-09-19T15:19:00Z", "countryCode": "GH" }, "geometry": { "type": "Point", "coordinates": [ -1.343063, 6.687424 ] } },
{ "type": "Feature", "properties": { "decimalLatitude": 6.687424, "decimalLongitude": -1.343063, "eventDate": "2024-09-19T15:19:00Z", "countryCode": "GH" }, "geometry": { "type": "Point", "coordinates": [ -1.343063, 6.687424 ] } }
]
}
