{
"type": "FeatureCollection",
"name": "euphaedra-janetta-gbif",
"crs": { "type": "name", "properties": { "name": "urn:ogc:def:crs:OGC:1.3:CRS84" } },
"features": [
{ "type": "Feature", "properties": { "decimalLatitude": 4.10145, "decimalLongitude": 9.061, "eventDate": "2016-02-04T00:00:00Z", "countryCode": "CM" }, "geometry": { "type": "Point", "coordinates": [ 9.061, 4.10145 ] } },
{ "type": "Feature", "properties": { "decimalLatitude": 6.691082, "decimalLongitude": -1.339356, "eventDate": "2016-05-15T10:51:00Z", "countryCode": "GH" }, "geometry": { "type": "Point", "coordinates": [ -1.339356, 6.691082 ] } },
{ "type": "Feature", "properties": { "decimalLatitude": 6.230458, "decimalLongitude": -0.54523, "eventDate": "2019-02-05T12:06:00Z", "countryCode": "GH" }, "geometry": { "type": "Point", "coordinates": [ -0.54523, 6.230458 ] } },
{ "type": "Feature", "properties": { "decimalLatitude": 8.18436, "decimalLongitude": -9.46081, "eventDate": "2019-03-11T00:00:00Z", "countryCode": "GN" }, "geometry": { "type": "Point", "coordinates": [ -9.46081, 8.18436 ] } },
{ "type": "Feature", "properties": { "decimalLatitude": 7.821503, "decimalLongitude": 0.534054, "eventDate": "2019-09-03T14:43:00Z", "countryCode": "GH" }, "geometry": { "type": "Point", "coordinates": [ 0.534054, 7.821503 ] } },
{ "type": "Feature", "properties": { "decimalLatitude": 6.166667, "decimalLongitude": -0.6, "eventDate": "2020-01-04T13:24:00Z", "countryCode": "GH" }, "geometry": { "type": "Point", "coordinates": [ -0.6, 6.166667 ] } },
{ "type": "Feature", "properties": { "decimalLatitude": 5.319451, "decimalLongitude": -1.42712, "eventDate": "2020-02-19T12:24:00Z", "countryCode": "GH" }, "geometry": { "type": "Point", "coordinates": [ -1.42712, 5.319451 ] } },
{ "type": "Feature", "properties": { "decimalLatitude": 6.032466, "decimalLongitude": -0.636725, "eventDate": "2021-04-24T00:00:00Z", "countryCode": "GH" }, "geometry": { "type": "Point", "coordinates": [ -0.636725, 6.032466 ] } },
{ "type": "Feature", "properties": { "decimalLatitude": 6.032466, "decimalLongitude": -0.638098, "eventDate": "2021-04-25T00:00:00Z", "countryCode": "GH" }, "geometry": { "type": "Point", "coordinates": [ -0.638098, 6.032466 ] } },
{ "type": "Feature", "properties": { "decimalLatitude": 6.032466, "decimalLongitude": -0.627112, "eventDate": "2021-04-27T00:00:00Z", "countryCode": "GH" }, "geometry": { "type": "Point", "coordinates": [ -0.627112, 6.032466 ] } },
{ "type": "Feature", "properties": { "decimalLatitude": 6.032466, "decimalLongitude": -0.628485, "eventDate": "2021-04-22T00:00:00Z", "countryCode": "GH" }, "geometry": { "type": "Point", "coordinates": [ -0.628485, 6.032466 ] } },
{ "type": "Feature", "properties": { "decimalLatitude": 6.032466, "decimalLongitude": -0.631232, "eventDate": "2021-04-23T00:00:00Z", "countryCode": "GH" }, "geometry": { "type": "Point", "coordinates": [ -0.631232, 6.032466 ] } },
{ "type": "Feature", "properties": { "decimalLatitude": 6.029735, "decimalLongitude": -0.627112, "eventDate": "2021-04-29T00:00:00Z", "countryCode": "GH" }, "geometry": { "type": "Point", "coordinates": [ -0.627112, 6.029735 ] } },
{ "type": "Feature", "properties": { "decimalLatitude": 6.029735, "decimalLongitude": -0.622992, "eventDate": "2021-04-30T00:00:00Z", "countryCode": "GH" }, "geometry": { "type": "Point", "coordinates": [ -0.622992, 6.029735 ] } },
{ "type": "Feature", "properties": { "decimalLatitude": 6.0311, "decimalLongitude": -0.631232, "eventDate": "2021-04-27T00:00:00Z", "countryCode": "GH" }, "geometry": { "type": "Point", "coordinates": [ -0.631232, 6.0311 ] } },
{ "type": "Feature", "properties": { "decimalLatitude": 6.0311, "decimalLongitude": -0.629858, "eventDate": "2021-04-28T00:00:00Z", "countryCode": "GH" }, "geometry": { "type": "Point", "coordinates": [ -0.629858, 6.0311 ] } },
{ "type": "Feature", "properties": { "decimalLatitude": 6.032466, "decimalLongitude": -0.646338, "eventDate": "2021-04-13T00:00:00Z", "countryCode": "GH" }, "geometry": { "type": "Point", "coordinates": [ -0.646338, 6.032466 ] } },
{ "type": "Feature", "properties": { "decimalLatitude": 6.032466, "decimalLongitude": -0.658697, "eventDate": "2021-04-13T00:00:00Z", "countryCode": "GH" }, "geometry": { "type": "Point", "coordinates": [ -0.658697, 6.032466 ] } },
{ "type": "Feature", "properties": { "decimalLatitude": 6.032466, "decimalLongitude": -0.651831, "eventDate": "2021-04-14T00:00:00Z", "countryCode": "GH" }, "geometry": { "type": "Point", "coordinates": [ -0.651831, 6.032466 ] } },
{ "type": "Feature", "properties": { "decimalLatitude": 6.032466, "decimalLongitude": -0.655951, "eventDate": "2021-04-13T00:00:00Z", "countryCode": "GH" }, "geometry": { "type": "Point", "coordinates": [ -0.655951, 6.032466 ] } },
{ "type": "Feature", "properties": { "decimalLatitude": 6.032466, "decimalLongitude": -0.643591, "eventDate": "2021-04-12T00:00:00Z", "countryCode": "GH" }, "geometry": { "type": "Point", "coordinates": [ -0.643591, 6.032466 ] } },
{ "type": "Feature", "properties": { "decimalLatitude": 6.0311, "decimalLongitude": -0.632605, "eventDate": "2021-04-26T00:00:00Z", "countryCode": "GH" }, "geometry": { "type": "Point", "coordinates": [ -0.632605, 6.0311 ] } },
{ "type": "Feature", "properties": { "decimalLatitude": 6.032466, "decimalLongitude": -0.653204, "eventDate": "2021-04-16T00:00:00Z", "countryCode": "GH" }, "geometry": { "type": "Point", "coordinates": [ -0.653204, 6.032466 ] } },
{ "type": "Feature", "properties": { "decimalLatitude": 6.032466, "decimalLongitude": -0.650458, "eventDate": "2021-04-21T00:00:00Z", "countryCode": "GH" }, "geometry": { "type": "Point", "coordinates": [ -0.650458, 6.032466 ] } },
{ "type": "Feature", "properties": { "decimalLatitude": 6.032466, "decimalLongitude": -0.646338, "eventDate": "2021-04-27T00:00:00Z", "countryCode": "GH" }, "geometry": { "type": "Point", "coordinates": [ -0.646338, 6.032466 ] } },
{ "type": "Feature", "properties": { "decimalLatitude": 6.032466, "decimalLongitude": -0.640845, "eventDate": "2021-04-22T00:00:00Z", "countryCode": "GH" }, "geometry": { "type": "Point", "coordinates": [ -0.640845, 6.032466 ] } },
{ "type": "Feature", "properties": { "decimalLatitude": 6.028369, "decimalLongitude": -0.618872, "eventDate": "2021-05-01T00:00:00Z", "countryCode": "GH" }, "geometry": { "type": "Point", "coordinates": [ -0.618872, 6.028369 ] } },
{ "type": "Feature", "properties": { "decimalLatitude": 6.027003, "decimalLongitude": -0.614752, "eventDate": "2021-05-02T00:00:00Z", "countryCode": "GH" }, "geometry": { "type": "Point", "coordinates": [ -0.614752, 6.027003 ] } },
{ "type": "Feature", "properties": { "decimalLatitude": 6.027003, "decimalLongitude": -0.616125, "eventDate": "2021-05-03T00:00:00Z", "countryCode": "GH" }, "geometry": { "type": "Point", "coordinates": [ -0.616125, 6.027003 ] } },
{ "type": "Feature", "properties": { "decimalLatitude": 6.025638, "decimalLongitude": -0.618872, "eventDate": "2021-05-04T00:00:00Z", "countryCode": "GH" }, "geometry": { "type": "Point", "coordinates": [ -0.618872, 6.025638 ] } },
{ "type": "Feature", "properties": { "decimalLatitude": 6.025638, "decimalLongitude": -0.622992, "eventDate": "2021-05-05T00:00:00Z", "countryCode": "GH" }, "geometry": { "type": "Point", "coordinates": [ -0.622992, 6.025638 ] } },
{ "type": "Feature", "properties": { "decimalLatitude": 6.025638, "decimalLongitude": -0.62436, "eventDate": "2021-05-06T00:00:00Z", "countryCode": "GH" }, "geometry": { "type": "Point", "coordinates": [ -0.62436, 6.025638 ] } },
{ "type": "Feature", "properties": { "decimalLatitude": 6.025638, "decimalLongitude": -0.625738, "eventDate": "2021-05-07T00:00:00Z", "countryCode": "GH" }, "geometry": { "type": "Point", "coordinates": [ -0.625738, 6.025638 ] } },
{ "type": "Feature", "properties": { "decimalLatitude": 6.025638, "decimalLongitude": -0.631232, "eventDate": "2021-05-08T00:00:00Z", "countryCode": "GH" }, "geometry": { "type": "Point", "coordinates": [ -0.631232, 6.025638 ] } },
{ "type": "Feature", "properties": { "decimalLatitude": 5.377762, "decimalLongitude": -4.044998, "eventDate": "2022-07-19T11:29:00Z", "countryCode": "CI" }, "geometry": { "type": "Point", "coordinates": [ -4.044998, 5.377762 ] } },
{ "type": "Feature", "properties": { "decimalLatitude": 6.166667, "decimalLongitude": -0.6, "eventDate": "2022-11-05T13:02:00Z", "countryCode": "GH" }, "geometry": { "type": "Point", "coordinates": [ -0.6, 6.166667 ] } },
{ "type": "Feature", "properties": { "decimalLatitude": 7.382589, "decimalLongitude": -11.199857, "eventDate": "2023-02-15T00:00:00Z", "countryCode": "SL" }, "geometry": { "type": "Point", "coordinates": [ -11.199857, 7.382589 ] } },
{ "type": "Feature", "properties": { "decimalLatitude": 6.177226, "decimalLongitude": -10.483553, "eventDate": "2023-05-19T17:19:00Z", "countryCode": "LR" }, "geometry": { "type": "Point", "coordinates": [ -10.483553, 6.177226 ] } },
{ "type": "Feature", "properties": { "decimalLatitude": 6.687411, "decimalLongitude": -1.343673, "eventDate": "2024-06-16T09:55:00Z", "countryCode": "GH" }, "geometry": { "type": "Point", "coordinates": [ -1.343673, 6.687411 ] } },
{ "type": "Feature", "properties": { "decimalLatitude": 6.687424, "decimalLongitude": -1.343063, "eventDate": "2024-09-03T10:04:00Z", "countryCode": "GH" }, "geometry": { "type": "Point", "coordinates": [ -1.343063, 6.687424 ] } },
{ "type": "Feature", "properties": { "decimalLatitude": 5.385895, "decimalLongitude": -4.051102, "eventDate": "2024-10-13T10:37:00Z", "countryCode": "CI" }, "geometry": { "type": "Point", "coordinates": [ -4.051102, 5.385895 ] } },
{ "type": "Feature", "properties": { "decimalLatitude": 6.09, "decimalLongitude": -10.3123, "eventDate": "2024-12-14T12:24:00Z", "countryCode": "LR" }, "geometry": { "type": "Point", "coordinates": [ -10.3123, 6.09 ] } },
{ "type": "Feature", "properties": { "decimalLatitude": 5.393017, "decimalLongitude": -4.050129, "eventDate": "2025-01-11T00:00:00Z", "countryCode": "CI" }, "geometry": { "type": "Point", "coordinates": [ -4.050129, 5.393017 ] } },
{ "type": "Feature", "properties": { "decimalLatitude": 5.388239, "decimalLongitude": -4.058297, "eventDate": "2025-09-13T15:15:00Z", "countryCode": "CI" }, "geometry": { "type": "Point", "coordinates": [ -4.058297, 5.388239 ] } },
{ "type": "Feature", "properties": { "decimalLatitude": 5.38432, "decimalLongitude": -4.052473, "eventDate": "2025-09-12T16:26:00Z", "countryCode": "CI" }, "geometry": { "type": "Point", "coordinates": [ -4.052473, 5.38432 ] } },
{ "type": "Feature", "properties": { "decimalLatitude": 5.376869, "decimalLongitude": -4.058738, "eventDate": "2025-09-12T15:32:00Z", "countryCode": "CI" }, "geometry": { "type": "Point", "coordinates": [ -4.058738, 5.376869 ] } }
]
}
