{
"type": "FeatureCollection",
"name": "eurybia-molochina-gbif",
"crs": { "type": "name", "properties": { "name": "urn:ogc:def:crs:OGC:1.3:CRS84" } },
"features": [
{ "type": "Feature", "properties": { "decimalLatitude": -24.088999, "decimalLongitude": -46.622774, "eventDate": "2015-03-04T10:51:00Z", "countryCode": "BR" }, "geometry": { "type": "Point", "coordinates": [ -46.622774, -24.088999 ] } },
{ "type": "Feature", "properties": { "decimalLatitude": -2.948617, "decimalLongitude": -59.942994, "eventDate": "2015-09-17T11:03:00Z", "countryCode": "BR" }, "geometry": { "type": "Point", "coordinates": [ -59.942994, -2.948617 ] } },
{ "type": "Feature", "properties": { "decimalLatitude": -26.481392, "decimalLongitude": -49.08423, "eventDate": "2015-09-07T11:09:00Z", "countryCode": "BR" }, "geometry": { "type": "Point", "coordinates": [ -49.08423, -26.481392 ] } },
{ "type": "Feature", "properties": { "decimalLatitude": -24.002684, "decimalLongitude": -47.561968, "eventDate": "2015-10-09T16:06:00Z", "countryCode": "BR" }, "geometry": { "type": "Point", "coordinates": [ -47.561968, -24.002684 ] } },
{ "type": "Feature", "properties": { "decimalLatitude": -22.4118, "decimalLongitude": -42.7524, "eventDate": "2015-12-27T08:42:00Z", "countryCode": "BR" }, "geometry": { "type": "Point", "coordinates": [ -42.7524, -22.4118 ] } },
{ "type": "Feature", "properties": { "decimalLatitude": -22.603522, "decimalLongitude": -43.435692, "eventDate": "2016-08-01T10:42:00Z", "countryCode": "BR" }, "geometry": { "type": "Point", "coordinates": [ -43.435692, -22.603522 ] } },
{ "type": "Feature", "properties": { "decimalLatitude": -22.443155, "decimalLongitude": -42.7757, "eventDate": "2018-10-11T11:27:00Z", "countryCode": "BR" }, "geometry": { "type": "Point", "coordinates": [ -42.7757, -22.443155 ] } },
{ "type": "Feature", "properties": { "decimalLatitude": -25.412671, "decimalLongitude": -48.775414, "eventDate": "2021-02-01T00:27:15Z", "countryCode": "BR" }, "geometry": { "type": "Point", "coordinates": [ -48.775414, -25.412671 ] } },
{ "type": "Feature", "properties": { "decimalLatitude": -22.953733, "decimalLongitude": -43.295193, "eventDate": "2021-07-14T13:07:00Z", "countryCode": "BR" }, "geometry": { "type": "Point", "coordinates": [ -43.295193, -22.953733 ] } },
{ "type": "Feature", "properties": { "decimalLatitude": -27.049907, "decimalLongitude": -48.807475, "eventDate": "2021-12-19T14:12:00Z", "countryCode": "BR" }, "geometry": { "type": "Point", "coordinates": [ -48.807475, -27.049907 ] } },
{ "type": "Feature", "properties": { "decimalLatitude": -26.367108, "decimalLongitude": -49.234816, "eventDate": "2022-03-26T10:34:51Z", "countryCode": "BR" }, "geometry": { "type": "Point", "coordinates": [ -49.234816, -26.367108 ] } },
{ "type": "Feature", "properties": { "decimalLatitude": -24.187785, "decimalLongitude": -47.399751, "eventDate": "2022-03-25T06:10:00Z", "countryCode": "BR" }, "geometry": { "type": "Point", "coordinates": [ -47.399751, -24.187785 ] } },
{ "type": "Feature", "properties": { "decimalLatitude": -24.187785, "decimalLongitude": -47.399751, "eventDate": "2022-03-25T06:11:00Z", "countryCode": "BR" }, "geometry": { "type": "Point", "coordinates": [ -47.399751, -24.187785 ] } },
{ "type": "Feature", "properties": { "decimalLatitude": -27.594991, "decimalLongitude": -48.61373, "eventDate": "2022-04-12T12:46:00Z", "countryCode": "BR" }, "geometry": { "type": "Point", "coordinates": [ -48.61373, -27.594991 ] } },
{ "type": "Feature", "properties": { "decimalLatitude": -24.187785, "decimalLongitude": -47.399751, "eventDate": "2022-04-02T08:41:00Z", "countryCode": "BR" }, "geometry": { "type": "Point", "coordinates": [ -47.399751, -24.187785 ] } },
{ "type": "Feature", "properties": { "decimalLatitude": -1.73023, "decimalLongitude": -73.21039, "eventDate": "2022-04-10T00:00:00Z", "countryCode": "CO" }, "geometry": { "type": "Point", "coordinates": [ -73.21039, -1.73023 ] } },
{ "type": "Feature", "properties": { "decimalLatitude": -1.68227, "decimalLongitude": -73.26994, "eventDate": "2022-04-25T00:00:00Z", "countryCode": "CO" }, "geometry": { "type": "Point", "coordinates": [ -73.26994, -1.68227 ] } },
{ "type": "Feature", "properties": { "decimalLatitude": -27.69544, "decimalLongitude": -48.824504, "eventDate": "2022-04-26T12:25:00Z", "countryCode": "BR" }, "geometry": { "type": "Point", "coordinates": [ -48.824504, -27.69544 ] } },
{ "type": "Feature", "properties": { "decimalLatitude": -27.098997, "decimalLongitude": -48.917069, "eventDate": "2022-05-24T12:34:00Z", "countryCode": "BR" }, "geometry": { "type": "Point", "coordinates": [ -48.917069, -27.098997 ] } },
{ "type": "Feature", "properties": { "decimalLatitude": -22.906847, "decimalLongitude": -43.172896, "eventDate": "2022-07-03T14:04:00Z", "countryCode": "BR" }, "geometry": { "type": "Point", "coordinates": [ -43.172896, -22.906847 ] } },
{ "type": "Feature", "properties": { "decimalLatitude": -24.188074, "decimalLongitude": -47.397251, "eventDate": "2022-10-25T07:50:29Z", "countryCode": "BR" }, "geometry": { "type": "Point", "coordinates": [ -47.397251, -24.188074 ] } },
{ "type": "Feature", "properties": { "decimalLatitude": -22.537451, "decimalLongitude": -43.067996, "eventDate": "2022-10-12T10:06:00Z", "countryCode": "BR" }, "geometry": { "type": "Point", "coordinates": [ -43.067996, -22.537451 ] } },
{ "type": "Feature", "properties": { "decimalLatitude": -24.187785, "decimalLongitude": -47.399751, "eventDate": "2022-12-28T08:26:00Z", "countryCode": "BR" }, "geometry": { "type": "Point", "coordinates": [ -47.399751, -24.187785 ] } },
{ "type": "Feature", "properties": { "decimalLatitude": -22.906847, "decimalLongitude": -43.172896, "eventDate": "2023-02-12T10:45:00Z", "countryCode": "BR" }, "geometry": { "type": "Point", "coordinates": [ -43.172896, -22.906847 ] } },
{ "type": "Feature", "properties": { "decimalLatitude": -22.906847, "decimalLongitude": -43.172896, "eventDate": "2023-02-12T11:22:00Z", "countryCode": "BR" }, "geometry": { "type": "Point", "coordinates": [ -43.172896, -22.906847 ] } },
{ "type": "Feature", "properties": { "decimalLatitude": -22.557593, "decimalLongitude": -43.049657, "eventDate": "2023-03-22T16:27:00Z", "countryCode": "BR" }, "geometry": { "type": "Point", "coordinates": [ -43.049657, -22.557593 ] } },
{ "type": "Feature", "properties": { "decimalLatitude": -26.108894, "decimalLongitude": -48.861162, "eventDate": "2023-03-26T09:17:00Z", "countryCode": "BR" }, "geometry": { "type": "Point", "coordinates": [ -48.861162, -26.108894 ] } },
{ "type": "Feature", "properties": { "decimalLatitude": -28.48789, "decimalLongitude": -48.778425, "eventDate": "2023-04-15T21:04:00Z", "countryCode": "BR" }, "geometry": { "type": "Point", "coordinates": [ -48.778425, -28.48789 ] } },
{ "type": "Feature", "properties": { "decimalLatitude": -22.557532, "decimalLongitude": -43.049773, "eventDate": "2023-04-16T12:29:00Z", "countryCode": "BR" }, "geometry": { "type": "Point", "coordinates": [ -43.049773, -22.557532 ] } },
{ "type": "Feature", "properties": { "decimalLatitude": -23.799452, "decimalLongitude": -46.022942, "eventDate": "2023-04-29T21:32:00Z", "countryCode": "BR" }, "geometry": { "type": "Point", "coordinates": [ -46.022942, -23.799452 ] } },
{ "type": "Feature", "properties": { "decimalLatitude": -27.122375, "decimalLongitude": -48.701112, "eventDate": "2023-04-09T13:57:00Z", "countryCode": "BR" }, "geometry": { "type": "Point", "coordinates": [ -48.701112, -27.122375 ] } },
{ "type": "Feature", "properties": { "decimalLatitude": -24.041594, "decimalLongitude": -47.437395, "eventDate": "2023-04-16T15:01:07Z", "countryCode": "BR" }, "geometry": { "type": "Point", "coordinates": [ -47.437395, -24.041594 ] } },
{ "type": "Feature", "properties": { "decimalLatitude": -20.41135, "decimalLongitude": -40.676034, "eventDate": "2023-04-01T00:00:00Z", "countryCode": "BR" }, "geometry": { "type": "Point", "coordinates": [ -40.676034, -20.41135 ] } },
{ "type": "Feature", "properties": { "decimalLatitude": -23.799452, "decimalLongitude": -46.022942, "eventDate": "2023-05-06T08:36:00Z", "countryCode": "BR" }, "geometry": { "type": "Point", "coordinates": [ -46.022942, -23.799452 ] } },
{ "type": "Feature", "properties": { "decimalLatitude": -23.763152, "decimalLongitude": -45.953502, "eventDate": "2023-05-06T00:00:00Z", "countryCode": "BR" }, "geometry": { "type": "Point", "coordinates": [ -45.953502, -23.763152 ] } },
{ "type": "Feature", "properties": { "decimalLatitude": -22.557555, "decimalLongitude": -43.049809, "eventDate": "2023-05-13T11:44:00Z", "countryCode": "BR" }, "geometry": { "type": "Point", "coordinates": [ -43.049809, -22.557555 ] } },
{ "type": "Feature", "properties": { "decimalLatitude": -23.751098, "decimalLongitude": -46.565962, "eventDate": "2023-05-27T13:03:00Z", "countryCode": "BR" }, "geometry": { "type": "Point", "coordinates": [ -46.565962, -23.751098 ] } },
{ "type": "Feature", "properties": { "decimalLatitude": -23.799452, "decimalLongitude": -46.022942, "eventDate": "2023-05-06T08:32:00Z", "countryCode": "BR" }, "geometry": { "type": "Point", "coordinates": [ -46.022942, -23.799452 ] } },
{ "type": "Feature", "properties": { "decimalLatitude": -26.82524, "decimalLongitude": -48.650248, "eventDate": "2023-08-30T08:45:50Z", "countryCode": "BR" }, "geometry": { "type": "Point", "coordinates": [ -48.650248, -26.82524 ] } },
{ "type": "Feature", "properties": { "decimalLatitude": -20.411351, "decimalLongitude": -40.676034, "eventDate": "2023-09-09T11:02:00Z", "countryCode": "BR" }, "geometry": { "type": "Point", "coordinates": [ -40.676034, -20.411351 ] } },
{ "type": "Feature", "properties": { "decimalLatitude": -23.300163, "decimalLongitude": -44.880178, "eventDate": "2024-03-10T12:11:50Z", "countryCode": "BR" }, "geometry": { "type": "Point", "coordinates": [ -44.880178, -23.300163 ] } },
{ "type": "Feature", "properties": { "decimalLatitude": -22.530171, "decimalLongitude": -43.034872, "eventDate": "2024-05-17T12:21:00Z", "countryCode": "BR" }, "geometry": { "type": "Point", "coordinates": [ -43.034872, -22.530171 ] } },
{ "type": "Feature", "properties": { "decimalLatitude": -23.639644, "decimalLongitude": -46.62805, "eventDate": "2024-06-26T12:49:23Z", "countryCode": "BR" }, "geometry": { "type": "Point", "coordinates": [ -46.62805, -23.639644 ] } },
{ "type": "Feature", "properties": { "decimalLatitude": -23.994797, "decimalLongitude": -46.256856, "eventDate": "2024-07-03T10:07:00Z", "countryCode": "BR" }, "geometry": { "type": "Point", "coordinates": [ -46.256856, -23.994797 ] } },
{ "type": "Feature", "properties": { "decimalLatitude": -23.647866, "decimalLongitude": -46.616948, "eventDate": "2024-08-20T12:16:00Z", "countryCode": "BR" }, "geometry": { "type": "Point", "coordinates": [ -46.616948, -23.647866 ] } },
{ "type": "Feature", "properties": { "decimalLatitude": -27.09978, "decimalLongitude": -48.893377, "eventDate": "2024-09-21T12:14:00Z", "countryCode": "BR" }, "geometry": { "type": "Point", "coordinates": [ -48.893377, -27.09978 ] } },
{ "type": "Feature", "properties": { "decimalLatitude": -27.09978, "decimalLongitude": -48.893377, "eventDate": "2024-09-21T12:14:00Z", "countryCode": "BR" }, "geometry": { "type": "Point", "coordinates": [ -48.893377, -27.09978 ] } },
{ "type": "Feature", "properties": { "decimalLatitude": -23.473464, "decimalLongitude": -45.195364, "eventDate": "2024-11-20T14:18:23Z", "countryCode": "BR" }, "geometry": { "type": "Point", "coordinates": [ -45.195364, -23.473464 ] } },
{ "type": "Feature", "properties": { "decimalLatitude": 0.046925, "decimalLongitude": -72.463535, "eventDate": "2019-04-15T00:00:00Z", "countryCode": "CO" }, "geometry": { "type": "Point", "coordinates": [ -72.463535, 0.046925 ] } },
{ "type": "Feature", "properties": { "decimalLatitude": 0.046925, "decimalLongitude": -72.463535, "eventDate": "2019-04-13T00:00:00Z", "countryCode": "CO" }, "geometry": { "type": "Point", "coordinates": [ -72.463535, 0.046925 ] } },
{ "type": "Feature", "properties": { "decimalLatitude": 0.046925, "decimalLongitude": -72.463535, "eventDate": "2019-04-05T00:00:00Z", "countryCode": "CO" }, "geometry": { "type": "Point", "coordinates": [ -72.463535, 0.046925 ] } },
{ "type": "Feature", "properties": { "decimalLatitude": 0.046925, "decimalLongitude": -72.463535, "eventDate": "2019-04-13T00:00:00Z", "countryCode": "CO" }, "geometry": { "type": "Point", "coordinates": [ -72.463535, 0.046925 ] } },
{ "type": "Feature", "properties": { "decimalLatitude": 0.046925, "decimalLongitude": -72.463535, "eventDate": "2019-04-02T00:00:00Z", "countryCode": "CO" }, "geometry": { "type": "Point", "coordinates": [ -72.463535, 0.046925 ] } },
{ "type": "Feature", "properties": { "decimalLatitude": -27.049851, "decimalLongitude": -48.807454, "eventDate": "2019-04-23T13:21:00Z", "countryCode": "BR" }, "geometry": { "type": "Point", "coordinates": [ -48.807454, -27.049851 ] } },
{ "type": "Feature", "properties": { "decimalLatitude": -27.049849, "decimalLongitude": -48.80752, "eventDate": "2019-05-27T12:03:00Z", "countryCode": "BR" }, "geometry": { "type": "Point", "coordinates": [ -48.80752, -27.049849 ] } },
{ "type": "Feature", "properties": { "decimalLatitude": -22.958228, "decimalLongitude": -43.89873, "eventDate": "2025-02-28T09:10:00Z", "countryCode": "BR" }, "geometry": { "type": "Point", "coordinates": [ -43.89873, -22.958228 ] } },
{ "type": "Feature", "properties": { "decimalLatitude": -27.091346, "decimalLongitude": -48.924375, "eventDate": "2025-03-07T10:55:51Z", "countryCode": "BR" }, "geometry": { "type": "Point", "coordinates": [ -48.924375, -27.091346 ] } },
{ "type": "Feature", "properties": { "decimalLatitude": -22.559858, "decimalLongitude": -43.089255, "eventDate": "2025-03-11T13:34:00Z", "countryCode": "BR" }, "geometry": { "type": "Point", "coordinates": [ -43.089255, -22.559858 ] } },
{ "type": "Feature", "properties": { "decimalLatitude": -26.487851, "decimalLongitude": -49.277578, "eventDate": "2025-04-12T11:53:00Z", "countryCode": "BR" }, "geometry": { "type": "Point", "coordinates": [ -49.277578, -26.487851 ] } },
{ "type": "Feature", "properties": { "decimalLatitude": -23.787571, "decimalLongitude": -46.684267, "eventDate": "2025-04-12T10:42:36Z", "countryCode": "BR" }, "geometry": { "type": "Point", "coordinates": [ -46.684267, -23.787571 ] } },
{ "type": "Feature", "properties": { "decimalLatitude": -23.81458, "decimalLongitude": -46.726817, "eventDate": "2025-04-23T13:10:31Z", "countryCode": "BR" }, "geometry": { "type": "Point", "coordinates": [ -46.726817, -23.81458 ] } },
{ "type": "Feature", "properties": { "decimalLatitude": -25.870829, "decimalLongitude": -48.588589, "eventDate": "2025-04-17T09:36:48Z", "countryCode": "BR" }, "geometry": { "type": "Point", "coordinates": [ -48.588589, -25.870829 ] } },
{ "type": "Feature", "properties": { "decimalLatitude": -26.816027, "decimalLongitude": -48.650073, "eventDate": "2025-05-15T00:00:00Z", "countryCode": "BR" }, "geometry": { "type": "Point", "coordinates": [ -48.650073, -26.816027 ] } },
{ "type": "Feature", "properties": { "decimalLatitude": -24.588085, "decimalLongitude": -48.628871, "eventDate": "2025-06-03T11:58:15Z", "countryCode": "BR" }, "geometry": { "type": "Point", "coordinates": [ -48.628871, -24.588085 ] } },
{ "type": "Feature", "properties": { "decimalLatitude": -22.564143, "decimalLongitude": -43.309206, "eventDate": "2025-06-26T00:00:00Z", "countryCode": "BR" }, "geometry": { "type": "Point", "coordinates": [ -43.309206, -22.564143 ] } },
{ "type": "Feature", "properties": { "decimalLatitude": -26.917277, "decimalLongitude": -49.067912, "eventDate": "2025-07-03T10:22:00Z", "countryCode": "BR" }, "geometry": { "type": "Point", "coordinates": [ -49.067912, -26.917277 ] } },
{ "type": "Feature", "properties": { "decimalLatitude": -23.696049, "decimalLongitude": -46.442459, "eventDate": "2025-07-17T13:25:08Z", "countryCode": "BR" }, "geometry": { "type": "Point", "coordinates": [ -46.442459, -23.696049 ] } },
{ "type": "Feature", "properties": { "decimalLatitude": 1.240523, "decimalLongitude": -70.213359, "eventDate": "2025-07-06T16:56:00Z", "countryCode": "CO" }, "geometry": { "type": "Point", "coordinates": [ -70.213359, 1.240523 ] } },
{ "type": "Feature", "properties": { "decimalLatitude": -23.693806, "decimalLongitude": -46.448883, "eventDate": "2025-07-17T13:29:06Z", "countryCode": "BR" }, "geometry": { "type": "Point", "coordinates": [ -46.448883, -23.693806 ] } },
{ "type": "Feature", "properties": { "decimalLatitude": -23.905671, "decimalLongitude": -46.490657, "eventDate": "2025-08-02T12:21:00Z", "countryCode": "BR" }, "geometry": { "type": "Point", "coordinates": [ -46.490657, -23.905671 ] } },
{ "type": "Feature", "properties": { "decimalLatitude": -23.905671, "decimalLongitude": -46.490657, "eventDate": "2025-08-02T11:21:00Z", "countryCode": "BR" }, "geometry": { "type": "Point", "coordinates": [ -46.490657, -23.905671 ] } },
{ "type": "Feature", "properties": { "decimalLatitude": -24.512317, "decimalLongitude": -48.546249, "eventDate": "2025-09-09T14:43:32Z", "countryCode": "BR" }, "geometry": { "type": "Point", "coordinates": [ -48.546249, -24.512317 ] } },
{ "type": "Feature", "properties": { "decimalLatitude": -12.559624, "decimalLongitude": -70.100233, "eventDate": "2025-09-15T07:48:00Z", "countryCode": "PE" }, "geometry": { "type": "Point", "coordinates": [ -70.100233, -12.559624 ] } },
{ "type": "Feature", "properties": { "decimalLatitude": -20.411351, "decimalLongitude": -40.676034, "eventDate": "2025-12-28T09:44:00Z", "countryCode": "BR" }, "geometry": { "type": "Point", "coordinates": [ -40.676034, -20.411351 ] } }
]
}
