{
"type": "FeatureCollection",
"name": "euthalia-formosana-gbif",
"crs": { "type": "name", "properties": { "name": "urn:ogc:def:crs:OGC:1.3:CRS84" } },
"features": [
{ "type": "Feature", "properties": { "decimalLatitude": 24.863025, "decimalLongitude": 121.554472, "eventDate": "2015-05-18T00:00:00Z", "countryCode": "TW" }, "geometry": { "type": "Point", "coordinates": [ 121.554472, 24.863025 ] } },
{ "type": "Feature", "properties": { "decimalLatitude": 24.653042, "decimalLongitude": 121.404902, "eventDate": "2015-06-14T09:46:00Z", "countryCode": "TW" }, "geometry": { "type": "Point", "coordinates": [ 121.404902, 24.653042 ] } },
{ "type": "Feature", "properties": { "decimalLatitude": 24.659204, "decimalLongitude": 121.412584, "eventDate": "2015-06-07T18:20:00Z", "countryCode": "TW" }, "geometry": { "type": "Point", "coordinates": [ 121.412584, 24.659204 ] } },
{ "type": "Feature", "properties": { "decimalLatitude": 24.175922, "decimalLongitude": 121.40439, "eventDate": "2015-06-26T08:56:00Z", "countryCode": "TW" }, "geometry": { "type": "Point", "coordinates": [ 121.40439, 24.175922 ] } },
{ "type": "Feature", "properties": { "decimalLatitude": 24.184577, "decimalLongitude": 121.495986, "eventDate": "2015-06-19T00:00:00Z", "countryCode": "TW" }, "geometry": { "type": "Point", "coordinates": [ 121.495986, 24.184577 ] } },
{ "type": "Feature", "properties": { "decimalLatitude": 24.175278, "decimalLongitude": 121.475611, "eventDate": "2015-06-02T00:00:00Z", "countryCode": "TW" }, "geometry": { "type": "Point", "coordinates": [ 121.475611, 24.175278 ] } },
{ "type": "Feature", "properties": { "decimalLatitude": 24.145995, "decimalLongitude": 120.968502, "eventDate": "2015-06-14T00:00:00Z", "countryCode": "TW" }, "geometry": { "type": "Point", "coordinates": [ 120.968502, 24.145995 ] } },
{ "type": "Feature", "properties": { "decimalLatitude": 24.145995, "decimalLongitude": 120.968502, "eventDate": "2015-08-02T00:00:00Z", "countryCode": "TW" }, "geometry": { "type": "Point", "coordinates": [ 120.968502, 24.145995 ] } },
{ "type": "Feature", "properties": { "decimalLatitude": 24.145995, "decimalLongitude": 120.968502, "eventDate": "2015-09-06T00:00:00Z", "countryCode": "TW" }, "geometry": { "type": "Point", "coordinates": [ 120.968502, 24.145995 ] } },
{ "type": "Feature", "properties": { "decimalLatitude": 24.145995, "decimalLongitude": 120.968502, "eventDate": "2015-10-18T00:00:00Z", "countryCode": "TW" }, "geometry": { "type": "Point", "coordinates": [ 120.968502, 24.145995 ] } },
{ "type": "Feature", "properties": { "decimalLatitude": 24.67945, "decimalLongitude": 121.384925, "eventDate": "2016-06-05T14:26:00Z", "countryCode": "TW" }, "geometry": { "type": "Point", "coordinates": [ 121.384925, 24.67945 ] } },
{ "type": "Feature", "properties": { "decimalLatitude": 24.723751, "decimalLongitude": 121.378484, "eventDate": "2017-01-31T00:00:00Z", "countryCode": "TW" }, "geometry": { "type": "Point", "coordinates": [ 121.378484, 24.723751 ] } },
{ "type": "Feature", "properties": { "decimalLatitude": 24.195122, "decimalLongitude": 121.022054, "eventDate": "2017-06-12T00:00:00Z", "countryCode": "TW" }, "geometry": { "type": "Point", "coordinates": [ 121.022054, 24.195122 ] } },
{ "type": "Feature", "properties": { "decimalLatitude": 24.653197, "decimalLongitude": 121.404891, "eventDate": "2017-07-15T12:36:00Z", "countryCode": "TW" }, "geometry": { "type": "Point", "coordinates": [ 121.404891, 24.653197 ] } },
{ "type": "Feature", "properties": { "decimalLatitude": 24.653042, "decimalLongitude": 121.404902, "eventDate": "2017-07-11T13:33:00Z", "countryCode": "TW" }, "geometry": { "type": "Point", "coordinates": [ 121.404902, 24.653042 ] } },
{ "type": "Feature", "properties": { "decimalLatitude": 24.656804, "decimalLongitude": 121.407378, "eventDate": "2017-07-15T15:41:00Z", "countryCode": "TW" }, "geometry": { "type": "Point", "coordinates": [ 121.407378, 24.656804 ] } },
{ "type": "Feature", "properties": { "decimalLatitude": 24.044196, "decimalLongitude": 121.211881, "eventDate": "2017-07-25T00:00:00Z", "countryCode": "TW" }, "geometry": { "type": "Point", "coordinates": [ 121.211881, 24.044196 ] } },
{ "type": "Feature", "properties": { "decimalLatitude": 24.195122, "decimalLongitude": 121.022054, "eventDate": "2017-07-08T00:00:00Z", "countryCode": "TW" }, "geometry": { "type": "Point", "coordinates": [ 121.022054, 24.195122 ] } },
{ "type": "Feature", "properties": { "decimalLatitude": 23.205881, "decimalLongitude": 121.008129, "eventDate": "2017-07-14T11:58:00Z", "countryCode": "TW" }, "geometry": { "type": "Point", "coordinates": [ 121.008129, 23.205881 ] } },
{ "type": "Feature", "properties": { "decimalLatitude": 23.17213, "decimalLongitude": 121.03486, "eventDate": "2017-08-29T00:00:00Z", "countryCode": "TW" }, "geometry": { "type": "Point", "coordinates": [ 121.03486, 23.17213 ] } },
{ "type": "Feature", "properties": { "decimalLatitude": 24.044196, "decimalLongitude": 121.211881, "eventDate": "2017-08-15T00:00:00Z", "countryCode": "TW" }, "geometry": { "type": "Point", "coordinates": [ 121.211881, 24.044196 ] } },
{ "type": "Feature", "properties": { "decimalLatitude": 24.195122, "decimalLongitude": 121.022054, "eventDate": "2017-08-11T00:00:00Z", "countryCode": "TW" }, "geometry": { "type": "Point", "coordinates": [ 121.022054, 24.195122 ] } },
{ "type": "Feature", "properties": { "decimalLatitude": 24.195122, "decimalLongitude": 121.022054, "eventDate": "2017-09-12T00:00:00Z", "countryCode": "TW" }, "geometry": { "type": "Point", "coordinates": [ 121.022054, 24.195122 ] } },
{ "type": "Feature", "properties": { "decimalLatitude": 24.2006, "decimalLongitude": 121.4915, "eventDate": "2017-10-18T05:25:00Z", "countryCode": "TW" }, "geometry": { "type": "Point", "coordinates": [ 121.4915, 24.2006 ] } },
{ "type": "Feature", "properties": { "decimalLatitude": 24.699267, "decimalLongitude": 121.41726, "eventDate": "2018-06-27T11:39:00Z", "countryCode": "TW" }, "geometry": { "type": "Point", "coordinates": [ 121.41726, 24.699267 ] } },
{ "type": "Feature", "properties": { "decimalLatitude": 22.880074, "decimalLongitude": 121.177159, "eventDate": "2018-07-04T12:46:00Z", "countryCode": "TW" }, "geometry": { "type": "Point", "coordinates": [ 121.177159, 22.880074 ] } },
{ "type": "Feature", "properties": { "decimalLatitude": 24.185597, "decimalLongitude": 121.504964, "eventDate": "2018-11-06T11:14:54Z", "countryCode": "TW" }, "geometry": { "type": "Point", "coordinates": [ 121.504964, 24.185597 ] } },
{ "type": "Feature", "properties": { "decimalLatitude": 24.863641, "decimalLongitude": 121.551316, "eventDate": "2019-05-20T00:00:00Z", "countryCode": "TW" }, "geometry": { "type": "Point", "coordinates": [ 121.551316, 24.863641 ] } },
{ "type": "Feature", "properties": { "decimalLatitude": 24.185811, "decimalLongitude": 121.486695, "eventDate": "2019-07-14T15:28:00Z", "countryCode": "TW" }, "geometry": { "type": "Point", "coordinates": [ 121.486695, 24.185811 ] } },
{ "type": "Feature", "properties": { "decimalLatitude": 24.180247, "decimalLongitude": 121.48262, "eventDate": "2019-07-15T17:47:00Z", "countryCode": "TW" }, "geometry": { "type": "Point", "coordinates": [ 121.48262, 24.180247 ] } },
{ "type": "Feature", "properties": { "decimalLatitude": 24.182504, "decimalLongitude": 121.494117, "eventDate": "2019-08-03T12:34:00Z", "countryCode": "TW" }, "geometry": { "type": "Point", "coordinates": [ 121.494117, 24.182504 ] } },
{ "type": "Feature", "properties": { "decimalLatitude": 24.659801, "decimalLongitude": 121.301002, "eventDate": "2019-09-07T00:00:00Z", "countryCode": "TW" }, "geometry": { "type": "Point", "coordinates": [ 121.301002, 24.659801 ] } },
{ "type": "Feature", "properties": { "decimalLatitude": 24.664806, "decimalLongitude": 121.353611, "eventDate": "2019-10-26T00:00:00Z", "countryCode": "TW" }, "geometry": { "type": "Point", "coordinates": [ 121.353611, 24.664806 ] } },
{ "type": "Feature", "properties": { "decimalLatitude": 24.002288, "decimalLongitude": 121.052334, "eventDate": "2019-10-26T00:00:00Z", "countryCode": "TW" }, "geometry": { "type": "Point", "coordinates": [ 121.052334, 24.002288 ] } },
{ "type": "Feature", "properties": { "decimalLatitude": 24.002288, "decimalLongitude": 121.052334, "eventDate": "2019-10-25T00:00:00Z", "countryCode": "TW" }, "geometry": { "type": "Point", "coordinates": [ 121.052334, 24.002288 ] } },
{ "type": "Feature", "properties": { "decimalLatitude": 22.887563, "decimalLongitude": 120.738097, "eventDate": "2019-10-19T00:00:00Z", "countryCode": "TW" }, "geometry": { "type": "Point", "coordinates": [ 120.738097, 22.887563 ] } },
{ "type": "Feature", "properties": { "decimalLatitude": 24.022122, "decimalLongitude": 121.131726, "eventDate": "2020-04-08T00:00:00Z", "countryCode": "TW" }, "geometry": { "type": "Point", "coordinates": [ 121.131726, 24.022122 ] } },
{ "type": "Feature", "properties": { "decimalLatitude": 24.13344, "decimalLongitude": 121.639285, "eventDate": "2020-04-30T00:00:00Z", "countryCode": "TW" }, "geometry": { "type": "Point", "coordinates": [ 121.639285, 24.13344 ] } },
{ "type": "Feature", "properties": { "decimalLatitude": 24.13344, "decimalLongitude": 121.639285, "eventDate": "2020-04-30T00:00:00Z", "countryCode": "TW" }, "geometry": { "type": "Point", "coordinates": [ 121.639285, 24.13344 ] } },
{ "type": "Feature", "properties": { "decimalLatitude": 24.13344, "decimalLongitude": 121.639285, "eventDate": "2020-04-30T00:00:00Z", "countryCode": "TW" }, "geometry": { "type": "Point", "coordinates": [ 121.639285, 24.13344 ] } },
{ "type": "Feature", "properties": { "decimalLatitude": 24.13344, "decimalLongitude": 121.639285, "eventDate": "2020-05-13T00:00:00Z", "countryCode": "TW" }, "geometry": { "type": "Point", "coordinates": [ 121.639285, 24.13344 ] } },
{ "type": "Feature", "properties": { "decimalLatitude": 24.180897, "decimalLongitude": 121.40286, "eventDate": "2020-06-27T00:00:00Z", "countryCode": "TW" }, "geometry": { "type": "Point", "coordinates": [ 121.40286, 24.180897 ] } },
{ "type": "Feature", "properties": { "decimalLatitude": 24.660171, "decimalLongitude": 121.409497, "eventDate": "2020-06-19T13:23:00Z", "countryCode": "TW" }, "geometry": { "type": "Point", "coordinates": [ 121.409497, 24.660171 ] } },
{ "type": "Feature", "properties": { "decimalLatitude": 24.180586, "decimalLongitude": 121.403501, "eventDate": "2020-06-27T10:56:00Z", "countryCode": "TW" }, "geometry": { "type": "Point", "coordinates": [ 121.403501, 24.180586 ] } },
{ "type": "Feature", "properties": { "decimalLatitude": 24.654466, "decimalLongitude": 121.408057, "eventDate": "2020-06-21T00:00:00Z", "countryCode": "TW" }, "geometry": { "type": "Point", "coordinates": [ 121.408057, 24.654466 ] } },
{ "type": "Feature", "properties": { "decimalLatitude": 24.654466, "decimalLongitude": 121.408057, "eventDate": "2020-06-28T00:00:00Z", "countryCode": "TW" }, "geometry": { "type": "Point", "coordinates": [ 121.408057, 24.654466 ] } },
{ "type": "Feature", "properties": { "decimalLatitude": 24.68783, "decimalLongitude": 121.378387, "eventDate": "2020-06-13T00:00:00Z", "countryCode": "TW" }, "geometry": { "type": "Point", "coordinates": [ 121.378387, 24.68783 ] } },
{ "type": "Feature", "properties": { "decimalLatitude": 24.841194, "decimalLongitude": 121.541165, "eventDate": "2020-06-28T10:20:00Z", "countryCode": "TW" }, "geometry": { "type": "Point", "coordinates": [ 121.541165, 24.841194 ] } },
{ "type": "Feature", "properties": { "decimalLatitude": 23.059693, "decimalLongitude": 120.731842, "eventDate": "2020-07-19T12:07:48Z", "countryCode": "TW" }, "geometry": { "type": "Point", "coordinates": [ 120.731842, 23.059693 ] } },
{ "type": "Feature", "properties": { "decimalLatitude": 24.813253, "decimalLongitude": 121.351117, "eventDate": "2020-07-06T14:08:00Z", "countryCode": "TW" }, "geometry": { "type": "Point", "coordinates": [ 121.351117, 24.813253 ] } },
{ "type": "Feature", "properties": { "decimalLatitude": 23.563987, "decimalLongitude": 121.376953, "eventDate": "2020-09-18T00:00:00Z", "countryCode": "TW" }, "geometry": { "type": "Point", "coordinates": [ 121.376953, 23.563987 ] } },
{ "type": "Feature", "properties": { "decimalLatitude": 24.818639, "decimalLongitude": 121.263611, "eventDate": "2020-09-06T00:00:00Z", "countryCode": "TW" }, "geometry": { "type": "Point", "coordinates": [ 121.263611, 24.818639 ] } },
{ "type": "Feature", "properties": { "decimalLatitude": 23.341004, "decimalLongitude": 121.200094, "eventDate": "2020-10-09T12:20:00Z", "countryCode": "TW" }, "geometry": { "type": "Point", "coordinates": [ 121.200094, 23.341004 ] } },
{ "type": "Feature", "properties": { "decimalLatitude": 24.643536, "decimalLongitude": 121.011508, "eventDate": "2020-10-01T00:00:00Z", "countryCode": "TW" }, "geometry": { "type": "Point", "coordinates": [ 121.011508, 24.643536 ] } },
{ "type": "Feature", "properties": { "decimalLatitude": 24.687385, "decimalLongitude": 121.222288, "eventDate": "2020-11-15T00:00:00Z", "countryCode": "TW" }, "geometry": { "type": "Point", "coordinates": [ 121.222288, 24.687385 ] } },
{ "type": "Feature", "properties": { "decimalLatitude": 24.182445, "decimalLongitude": 121.485081, "eventDate": "2020-12-23T13:07:37Z", "countryCode": "TW" }, "geometry": { "type": "Point", "coordinates": [ 121.485081, 24.182445 ] } },
{ "type": "Feature", "properties": { "decimalLatitude": 22.803284, "decimalLongitude": 121.050832, "eventDate": "2021-05-10T00:00:00Z", "countryCode": "TW" }, "geometry": { "type": "Point", "coordinates": [ 121.050832, 22.803284 ] } },
{ "type": "Feature", "properties": { "decimalLatitude": 22.803284, "decimalLongitude": 121.050832, "eventDate": "2021-05-10T00:00:00Z", "countryCode": "TW" }, "geometry": { "type": "Point", "coordinates": [ 121.050832, 22.803284 ] } },
{ "type": "Feature", "properties": { "decimalLatitude": 23.432539, "decimalLongitude": 121.313432, "eventDate": "2021-05-21T08:09:00Z", "countryCode": "TW" }, "geometry": { "type": "Point", "coordinates": [ 121.313432, 23.432539 ] } },
{ "type": "Feature", "properties": { "decimalLatitude": 23.433173, "decimalLongitude": 121.312088, "eventDate": "2021-05-20T00:00:00Z", "countryCode": "TW" }, "geometry": { "type": "Point", "coordinates": [ 121.312088, 23.433173 ] } },
{ "type": "Feature", "properties": { "decimalLatitude": 24.709089, "decimalLongitude": 121.377034, "eventDate": "2021-07-20T10:28:00Z", "countryCode": "TW" }, "geometry": { "type": "Point", "coordinates": [ 121.377034, 24.709089 ] } },
{ "type": "Feature", "properties": { "decimalLatitude": 24.582304, "decimalLongitude": 121.493069, "eventDate": "2021-07-28T12:07:00Z", "countryCode": "TW" }, "geometry": { "type": "Point", "coordinates": [ 121.493069, 24.582304 ] } },
{ "type": "Feature", "properties": { "decimalLatitude": 24.654466, "decimalLongitude": 121.408057, "eventDate": "2021-07-16T00:00:00Z", "countryCode": "TW" }, "geometry": { "type": "Point", "coordinates": [ 121.408057, 24.654466 ] } },
{ "type": "Feature", "properties": { "decimalLatitude": 24.189923, "decimalLongitude": 121.485854, "eventDate": "2021-08-30T00:00:00Z", "countryCode": "TW" }, "geometry": { "type": "Point", "coordinates": [ 121.485854, 24.189923 ] } },
{ "type": "Feature", "properties": { "decimalLatitude": 23.966727, "decimalLongitude": 121.548683, "eventDate": "2021-10-04T00:00:00Z", "countryCode": "TW" }, "geometry": { "type": "Point", "coordinates": [ 121.548683, 23.966727 ] } },
{ "type": "Feature", "properties": { "decimalLatitude": 22.872685, "decimalLongitude": 121.179573, "eventDate": "2021-10-05T00:00:00Z", "countryCode": "TW" }, "geometry": { "type": "Point", "coordinates": [ 121.179573, 22.872685 ] } },
{ "type": "Feature", "properties": { "decimalLatitude": 22.805444, "decimalLongitude": 121.031444, "eventDate": "2021-10-05T00:00:00Z", "countryCode": "TW" }, "geometry": { "type": "Point", "coordinates": [ 121.031444, 22.805444 ] } },
{ "type": "Feature", "properties": { "decimalLatitude": 24.092858, "decimalLongitude": 121.027966, "eventDate": "2021-10-31T00:00:00Z", "countryCode": "TW" }, "geometry": { "type": "Point", "coordinates": [ 121.027966, 24.092858 ] } },
{ "type": "Feature", "properties": { "decimalLatitude": 23.919143, "decimalLongitude": 121.520715, "eventDate": "2022-06-13T07:41:27Z", "countryCode": "TW" }, "geometry": { "type": "Point", "coordinates": [ 121.520715, 23.919143 ] } },
{ "type": "Feature", "properties": { "decimalLatitude": 24.092858, "decimalLongitude": 121.027966, "eventDate": "2022-06-19T00:00:00Z", "countryCode": "TW" }, "geometry": { "type": "Point", "coordinates": [ 121.027966, 24.092858 ] } },
{ "type": "Feature", "properties": { "decimalLatitude": 24.204216, "decimalLongitude": 121.4555, "eventDate": "2022-06-19T00:00:00Z", "countryCode": "TW" }, "geometry": { "type": "Point", "coordinates": [ 121.4555, 24.204216 ] } },
{ "type": "Feature", "properties": { "decimalLatitude": 24.627578, "decimalLongitude": 121.145595, "eventDate": "2022-06-23T00:00:00Z", "countryCode": "TW" }, "geometry": { "type": "Point", "coordinates": [ 121.145595, 24.627578 ] } },
{ "type": "Feature", "properties": { "decimalLatitude": 24.531546, "decimalLongitude": 121.094699, "eventDate": "2022-06-29T00:00:00Z", "countryCode": "TW" }, "geometry": { "type": "Point", "coordinates": [ 121.094699, 24.531546 ] } },
{ "type": "Feature", "properties": { "decimalLatitude": 24.627996, "decimalLongitude": 121.090132, "eventDate": "2022-06-28T00:00:00Z", "countryCode": "TW" }, "geometry": { "type": "Point", "coordinates": [ 121.090132, 24.627996 ] } },
{ "type": "Feature", "properties": { "decimalLatitude": 24.158284, "decimalLongitude": 121.623202, "eventDate": "2022-07-28T10:35:36Z", "countryCode": "TW" }, "geometry": { "type": "Point", "coordinates": [ 121.623202, 24.158284 ] } },
{ "type": "Feature", "properties": { "decimalLatitude": 24.531546, "decimalLongitude": 121.094699, "eventDate": "2022-07-22T00:00:00Z", "countryCode": "TW" }, "geometry": { "type": "Point", "coordinates": [ 121.094699, 24.531546 ] } },
{ "type": "Feature", "properties": { "decimalLatitude": 24.836051, "decimalLongitude": 121.554522, "eventDate": "2022-07-07T00:00:00Z", "countryCode": "TW" }, "geometry": { "type": "Point", "coordinates": [ 121.554522, 24.836051 ] } },
{ "type": "Feature", "properties": { "decimalLatitude": 24.836051, "decimalLongitude": 121.554522, "eventDate": "2022-08-10T00:00:00Z", "countryCode": "TW" }, "geometry": { "type": "Point", "coordinates": [ 121.554522, 24.836051 ] } },
{ "type": "Feature", "properties": { "decimalLatitude": 24.161501, "decimalLongitude": 121.619188, "eventDate": "2022-08-24T11:14:00Z", "countryCode": "TW" }, "geometry": { "type": "Point", "coordinates": [ 121.619188, 24.161501 ] } },
{ "type": "Feature", "properties": { "decimalLatitude": 22.675438, "decimalLongitude": 121.020584, "eventDate": "2022-08-24T11:17:00Z", "countryCode": "TW" }, "geometry": { "type": "Point", "coordinates": [ 121.020584, 22.675438 ] } },
{ "type": "Feature", "properties": { "decimalLatitude": 24.738129, "decimalLongitude": 121.662532, "eventDate": "2022-08-23T09:16:00Z", "countryCode": "TW" }, "geometry": { "type": "Point", "coordinates": [ 121.662532, 24.738129 ] } },
{ "type": "Feature", "properties": { "decimalLatitude": 22.407636, "decimalLongitude": 120.756545, "eventDate": "2022-10-29T00:00:00Z", "countryCode": "TW" }, "geometry": { "type": "Point", "coordinates": [ 120.756545, 22.407636 ] } },
{ "type": "Feature", "properties": { "decimalLatitude": 24.641259, "decimalLongitude": 121.093022, "eventDate": "2022-10-12T00:00:00Z", "countryCode": "TW" }, "geometry": { "type": "Point", "coordinates": [ 121.093022, 24.641259 ] } },
{ "type": "Feature", "properties": { "decimalLatitude": 24.033795, "decimalLongitude": 121.173664, "eventDate": "2022-10-26T13:24:49Z", "countryCode": "TW" }, "geometry": { "type": "Point", "coordinates": [ 121.173664, 24.033795 ] } },
{ "type": "Feature", "properties": { "decimalLatitude": 24.179175, "decimalLongitude": 121.511647, "eventDate": "2023-05-27T10:19:16Z", "countryCode": "TW" }, "geometry": { "type": "Point", "coordinates": [ 121.511647, 24.179175 ] } },
{ "type": "Feature", "properties": { "decimalLatitude": 24.676112, "decimalLongitude": 121.363857, "eventDate": "2023-06-26T00:00:00Z", "countryCode": "TW" }, "geometry": { "type": "Point", "coordinates": [ 121.363857, 24.676112 ] } },
{ "type": "Feature", "properties": { "decimalLatitude": 24.676112, "decimalLongitude": 121.363857, "eventDate": "2023-06-26T00:00:00Z", "countryCode": "TW" }, "geometry": { "type": "Point", "coordinates": [ 121.363857, 24.676112 ] } },
{ "type": "Feature", "properties": { "decimalLatitude": 23.929825, "decimalLongitude": 121.51422, "eventDate": "2023-06-24T00:00:00Z", "countryCode": "TW" }, "geometry": { "type": "Point", "coordinates": [ 121.51422, 23.929825 ] } },
{ "type": "Feature", "properties": { "decimalLatitude": 24.832704, "decimalLongitude": 121.323025, "eventDate": "2023-06-08T13:43:00Z", "countryCode": "TW" }, "geometry": { "type": "Point", "coordinates": [ 121.323025, 24.832704 ] } },
{ "type": "Feature", "properties": { "decimalLatitude": 24.193257, "decimalLongitude": 121.404537, "eventDate": "2023-07-31T20:33:10Z", "countryCode": "TW" }, "geometry": { "type": "Point", "coordinates": [ 121.404537, 24.193257 ] } },
{ "type": "Feature", "properties": { "decimalLatitude": 24.662944, "decimalLongitude": 121.300861, "eventDate": "2023-07-11T00:00:00Z", "countryCode": "TW" }, "geometry": { "type": "Point", "coordinates": [ 121.300861, 24.662944 ] } },
{ "type": "Feature", "properties": { "decimalLatitude": 24.802113, "decimalLongitude": 121.506462, "eventDate": "2023-10-26T11:43:26Z", "countryCode": "TW" }, "geometry": { "type": "Point", "coordinates": [ 121.506462, 24.802113 ] } },
{ "type": "Feature", "properties": { "decimalLatitude": 24.780734, "decimalLongitude": 121.501308, "eventDate": "2023-10-26T00:00:00Z", "countryCode": "TW" }, "geometry": { "type": "Point", "coordinates": [ 121.501308, 24.780734 ] } },
{ "type": "Feature", "properties": { "decimalLatitude": 24.832899, "decimalLongitude": 121.525561, "eventDate": "2024-05-16T13:52:00Z", "countryCode": "TW" }, "geometry": { "type": "Point", "coordinates": [ 121.525561, 24.832899 ] } },
{ "type": "Feature", "properties": { "decimalLatitude": 24.158066, "decimalLongitude": 121.620995, "eventDate": "2024-05-17T08:43:00Z", "countryCode": "TW" }, "geometry": { "type": "Point", "coordinates": [ 121.620995, 24.158066 ] } },
{ "type": "Feature", "properties": { "decimalLatitude": 24.158311, "decimalLongitude": 121.62121, "eventDate": "2024-05-17T08:42:00Z", "countryCode": "TW" }, "geometry": { "type": "Point", "coordinates": [ 121.62121, 24.158311 ] } },
{ "type": "Feature", "properties": { "decimalLatitude": 24.749756, "decimalLongitude": 121.269964, "eventDate": "2024-06-11T10:58:00Z", "countryCode": "TW" }, "geometry": { "type": "Point", "coordinates": [ 121.269964, 24.749756 ] } },
{ "type": "Feature", "properties": { "decimalLatitude": 23.953337, "decimalLongitude": 121.175445, "eventDate": "2024-06-17T12:59:18Z", "countryCode": "TW" }, "geometry": { "type": "Point", "coordinates": [ 121.175445, 23.953337 ] } },
{ "type": "Feature", "properties": { "decimalLatitude": 24.750839, "decimalLongitude": 121.279598, "eventDate": "2024-06-29T05:41:00Z", "countryCode": "TW" }, "geometry": { "type": "Point", "coordinates": [ 121.279598, 24.750839 ] } },
{ "type": "Feature", "properties": { "decimalLatitude": 24.650486, "decimalLongitude": 121.472842, "eventDate": "2024-06-16T00:00:00Z", "countryCode": "TW" }, "geometry": { "type": "Point", "coordinates": [ 121.472842, 24.650486 ] } },
{ "type": "Feature", "properties": { "decimalLatitude": 24.69571, "decimalLongitude": 121.410006, "eventDate": "2024-06-16T00:00:00Z", "countryCode": "TW" }, "geometry": { "type": "Point", "coordinates": [ 121.410006, 24.69571 ] } },
{ "type": "Feature", "properties": { "decimalLatitude": 24.535877, "decimalLongitude": 120.844571, "eventDate": "2024-06-01T11:11:00Z", "countryCode": "TW" }, "geometry": { "type": "Point", "coordinates": [ 120.844571, 24.535877 ] } },
{ "type": "Feature", "properties": { "decimalLatitude": 24.680089, "decimalLongitude": 121.39613, "eventDate": "2024-07-06T00:00:00Z", "countryCode": "TW" }, "geometry": { "type": "Point", "coordinates": [ 121.39613, 24.680089 ] } },
{ "type": "Feature", "properties": { "decimalLatitude": 24.68783, "decimalLongitude": 121.378387, "eventDate": "2024-07-06T00:00:00Z", "countryCode": "TW" }, "geometry": { "type": "Point", "coordinates": [ 121.378387, 24.68783 ] } },
{ "type": "Feature", "properties": { "decimalLatitude": 24.84585, "decimalLongitude": 121.389913, "eventDate": "2024-07-14T12:25:08Z", "countryCode": "TW" }, "geometry": { "type": "Point", "coordinates": [ 121.389913, 24.84585 ] } },
{ "type": "Feature", "properties": { "decimalLatitude": 23.83113, "decimalLongitude": 121.411562, "eventDate": "2024-08-24T12:27:46Z", "countryCode": "TW" }, "geometry": { "type": "Point", "coordinates": [ 121.411562, 23.83113 ] } },
{ "type": "Feature", "properties": { "decimalLatitude": 24.658561, "decimalLongitude": 121.408525, "eventDate": "2024-08-12T10:43:00Z", "countryCode": "TW" }, "geometry": { "type": "Point", "coordinates": [ 121.408525, 24.658561 ] } },
{ "type": "Feature", "properties": { "decimalLatitude": 23.954272, "decimalLongitude": 121.169875, "eventDate": "2024-09-08T12:57:36Z", "countryCode": "TW" }, "geometry": { "type": "Point", "coordinates": [ 121.169875, 23.954272 ] } },
{ "type": "Feature", "properties": { "decimalLatitude": 23.343387, "decimalLongitude": 121.213058, "eventDate": "2024-09-21T11:06:35Z", "countryCode": "TW" }, "geometry": { "type": "Point", "coordinates": [ 121.213058, 23.343387 ] } },
{ "type": "Feature", "properties": { "decimalLatitude": 24.15807, "decimalLongitude": 121.623163, "eventDate": "2024-10-07T12:41:11Z", "countryCode": "TW" }, "geometry": { "type": "Point", "coordinates": [ 121.623163, 24.15807 ] } },
{ "type": "Feature", "properties": { "decimalLatitude": 24.818726, "decimalLongitude": 121.409348, "eventDate": "2024-10-13T11:38:00Z", "countryCode": "TW" }, "geometry": { "type": "Point", "coordinates": [ 121.409348, 24.818726 ] } },
{ "type": "Feature", "properties": { "decimalLatitude": 24.628598, "decimalLongitude": 121.08957, "eventDate": "2024-10-19T10:35:46Z", "countryCode": "TW" }, "geometry": { "type": "Point", "coordinates": [ 121.08957, 24.628598 ] } },
{ "type": "Feature", "properties": { "decimalLatitude": 24.832574, "decimalLongitude": 121.407482, "eventDate": "2024-10-13T00:00:00Z", "countryCode": "TW" }, "geometry": { "type": "Point", "coordinates": [ 121.407482, 24.832574 ] } },
{ "type": "Feature", "properties": { "decimalLatitude": 24.854042, "decimalLongitude": 121.548507, "eventDate": "2024-10-19T00:00:00Z", "countryCode": "TW" }, "geometry": { "type": "Point", "coordinates": [ 121.548507, 24.854042 ] } },
{ "type": "Feature", "properties": { "decimalLatitude": 24.092858, "decimalLongitude": 121.027966, "eventDate": "2024-10-19T00:00:00Z", "countryCode": "TW" }, "geometry": { "type": "Point", "coordinates": [ 121.027966, 24.092858 ] } },
{ "type": "Feature", "properties": { "decimalLatitude": 24.180557, "decimalLongitude": 121.002496, "eventDate": "2024-10-22T12:03:53Z", "countryCode": "TW" }, "geometry": { "type": "Point", "coordinates": [ 121.002496, 24.180557 ] } },
{ "type": "Feature", "properties": { "decimalLatitude": 24.649932, "decimalLongitude": 121.206107, "eventDate": "2024-11-07T00:00:00Z", "countryCode": "TW" }, "geometry": { "type": "Point", "coordinates": [ 121.206107, 24.649932 ] } },
{ "type": "Feature", "properties": { "decimalLatitude": 23.10015, "decimalLongitude": 120.73407, "eventDate": "2025-05-28T10:27:18Z", "countryCode": "TW" }, "geometry": { "type": "Point", "coordinates": [ 120.73407, 23.10015 ] } },
{ "type": "Feature", "properties": { "decimalLatitude": 24.643997, "decimalLongitude": 121.418141, "eventDate": "2025-05-30T16:38:00Z", "countryCode": "TW" }, "geometry": { "type": "Point", "coordinates": [ 121.418141, 24.643997 ] } },
{ "type": "Feature", "properties": { "decimalLatitude": 24.654466, "decimalLongitude": 121.408057, "eventDate": "2025-06-18T00:00:00Z", "countryCode": "TW" }, "geometry": { "type": "Point", "coordinates": [ 121.408057, 24.654466 ] } },
{ "type": "Feature", "properties": { "decimalLatitude": 24.678742, "decimalLongitude": 121.388037, "eventDate": "2025-06-23T15:23:03Z", "countryCode": "TW" }, "geometry": { "type": "Point", "coordinates": [ 121.388037, 24.678742 ] } },
{ "type": "Feature", "properties": { "decimalLatitude": 24.110447, "decimalLongitude": 121.405709, "eventDate": "2025-06-29T10:17:19Z", "countryCode": "TW" }, "geometry": { "type": "Point", "coordinates": [ 121.405709, 24.110447 ] } },
{ "type": "Feature", "properties": { "decimalLatitude": 24.171227, "decimalLongitude": 121.594861, "eventDate": "2025-06-29T11:24:00Z", "countryCode": "TW" }, "geometry": { "type": "Point", "coordinates": [ 121.594861, 24.171227 ] } },
{ "type": "Feature", "properties": { "decimalLatitude": 24.679682, "decimalLongitude": 121.383393, "eventDate": "2025-06-28T00:00:00Z", "countryCode": "TW" }, "geometry": { "type": "Point", "coordinates": [ 121.383393, 24.679682 ] } },
{ "type": "Feature", "properties": { "decimalLatitude": 24.679388, "decimalLongitude": 121.38329, "eventDate": "2025-06-23T00:00:00Z", "countryCode": "TW" }, "geometry": { "type": "Point", "coordinates": [ 121.38329, 24.679388 ] } },
{ "type": "Feature", "properties": { "decimalLatitude": 24.654466, "decimalLongitude": 121.408057, "eventDate": "2025-06-26T00:00:00Z", "countryCode": "TW" }, "geometry": { "type": "Point", "coordinates": [ 121.408057, 24.654466 ] } },
{ "type": "Feature", "properties": { "decimalLatitude": 24.193925, "decimalLongitude": 121.490667, "eventDate": "2025-07-02T16:46:00Z", "countryCode": "TW" }, "geometry": { "type": "Point", "coordinates": [ 121.490667, 24.193925 ] } },
{ "type": "Feature", "properties": { "decimalLatitude": 24.8253, "decimalLongitude": 121.409603, "eventDate": "2025-07-13T10:15:00Z", "countryCode": "TW" }, "geometry": { "type": "Point", "coordinates": [ 121.409603, 24.8253 ] } },
{ "type": "Feature", "properties": { "decimalLatitude": 24.193925, "decimalLongitude": 121.490667, "eventDate": "2025-07-02T19:51:00Z", "countryCode": "TW" }, "geometry": { "type": "Point", "coordinates": [ 121.490667, 24.193925 ] } },
{ "type": "Feature", "properties": { "decimalLatitude": 24.193925, "decimalLongitude": 121.490667, "eventDate": "2025-07-02T16:46:00Z", "countryCode": "TW" }, "geometry": { "type": "Point", "coordinates": [ 121.490667, 24.193925 ] } },
{ "type": "Feature", "properties": { "decimalLatitude": 23.263287, "decimalLongitude": 120.826037, "eventDate": "2025-07-03T04:09:44Z", "countryCode": "TW" }, "geometry": { "type": "Point", "coordinates": [ 120.826037, 23.263287 ] } },
{ "type": "Feature", "properties": { "decimalLatitude": 24.193925, "decimalLongitude": 121.490667, "eventDate": "2025-07-02T19:51:00Z", "countryCode": "TW" }, "geometry": { "type": "Point", "coordinates": [ 121.490667, 24.193925 ] } },
{ "type": "Feature", "properties": { "decimalLatitude": 23.977033, "decimalLongitude": 121.129198, "eventDate": "2025-07-24T13:05:00Z", "countryCode": "TW" }, "geometry": { "type": "Point", "coordinates": [ 121.129198, 23.977033 ] } },
{ "type": "Feature", "properties": { "decimalLatitude": 24.078387, "decimalLongitude": 121.029284, "eventDate": "2025-08-09T00:00:00Z", "countryCode": "TW" }, "geometry": { "type": "Point", "coordinates": [ 121.029284, 24.078387 ] } },
{ "type": "Feature", "properties": { "decimalLatitude": 24.074173, "decimalLongitude": 121.072585, "eventDate": "2025-08-09T00:00:00Z", "countryCode": "TW" }, "geometry": { "type": "Point", "coordinates": [ 121.072585, 24.074173 ] } },
{ "type": "Feature", "properties": { "decimalLatitude": 24.825423, "decimalLongitude": 121.448794, "eventDate": "2025-08-20T11:42:58Z", "countryCode": "TW" }, "geometry": { "type": "Point", "coordinates": [ 121.448794, 24.825423 ] } },
{ "type": "Feature", "properties": { "decimalLatitude": 24.62975, "decimalLongitude": 121.44903, "eventDate": "2025-08-23T11:24:00Z", "countryCode": "TW" }, "geometry": { "type": "Point", "coordinates": [ 121.44903, 24.62975 ] } },
{ "type": "Feature", "properties": { "decimalLatitude": 30.09066, "decimalLongitude": 118.994309, "eventDate": "2025-08-26T10:32:00Z", "countryCode": "CN" }, "geometry": { "type": "Point", "coordinates": [ 118.994309, 30.09066 ] } },
{ "type": "Feature", "properties": { "decimalLatitude": 24.158058, "decimalLongitude": 121.623153, "eventDate": "2025-09-12T13:10:58Z", "countryCode": "TW" }, "geometry": { "type": "Point", "coordinates": [ 121.623153, 24.158058 ] } },
{ "type": "Feature", "properties": { "decimalLatitude": 24.654523, "decimalLongitude": 121.407554, "eventDate": "2025-09-20T11:37:00Z", "countryCode": "TW" }, "geometry": { "type": "Point", "coordinates": [ 121.407554, 24.654523 ] } },
{ "type": "Feature", "properties": { "decimalLatitude": 24.831064, "decimalLongitude": 121.443427, "eventDate": "2025-10-18T10:25:30Z", "countryCode": "TW" }, "geometry": { "type": "Point", "coordinates": [ 121.443427, 24.831064 ] } },
{ "type": "Feature", "properties": { "decimalLatitude": 24.831082, "decimalLongitude": 121.444936, "eventDate": "2025-10-18T10:34:00Z", "countryCode": "TW" }, "geometry": { "type": "Point", "coordinates": [ 121.444936, 24.831082 ] } },
{ "type": "Feature", "properties": { "decimalLatitude": 24.19882, "decimalLongitude": 121.471383, "eventDate": "2025-10-05T10:32:02Z", "countryCode": "TW" }, "geometry": { "type": "Point", "coordinates": [ 121.471383, 24.19882 ] } },
{ "type": "Feature", "properties": { "decimalLatitude": 24.197383, "decimalLongitude": 121.483192, "eventDate": "2025-10-05T10:15:53Z", "countryCode": "TW" }, "geometry": { "type": "Point", "coordinates": [ 121.483192, 24.197383 ] } },
{ "type": "Feature", "properties": { "decimalLatitude": 24.203788, "decimalLongitude": 121.44922, "eventDate": "2025-10-05T10:43:41Z", "countryCode": "TW" }, "geometry": { "type": "Point", "coordinates": [ 121.44922, 24.203788 ] } },
{ "type": "Feature", "properties": { "decimalLatitude": 24.204362, "decimalLongitude": 121.459525, "eventDate": "2025-10-05T10:38:46Z", "countryCode": "TW" }, "geometry": { "type": "Point", "coordinates": [ 121.459525, 24.204362 ] } },
{ "type": "Feature", "properties": { "decimalLatitude": 23.993781, "decimalLongitude": 120.995071, "eventDate": "2025-10-02T00:00:00Z", "countryCode": "TW" }, "geometry": { "type": "Point", "coordinates": [ 120.995071, 23.993781 ] } }
]
}
