{
"type": "FeatureCollection",
"name": "euthalia-patala-gbif",
"crs": { "type": "name", "properties": { "name": "urn:ogc:def:crs:OGC:1.3:CRS84" } },
"features": [
{ "type": "Feature", "properties": { "decimalLatitude": 18.521464, "decimalLongitude": 98.45357, "eventDate": "2015-03-24T11:59:00Z", "countryCode": "TH" }, "geometry": { "type": "Point", "coordinates": [ 98.45357, 18.521464 ] } },
{ "type": "Feature", "properties": { "decimalLatitude": 30.544157, "decimalLongitude": 78.182176, "eventDate": "2016-06-04T08:55:00Z", "countryCode": "IN" }, "geometry": { "type": "Point", "coordinates": [ 78.182176, 30.544157 ] } },
{ "type": "Feature", "properties": { "decimalLatitude": 30.544157, "decimalLongitude": 78.182176, "eventDate": "2016-06-04T10:00:00Z", "countryCode": "IN" }, "geometry": { "type": "Point", "coordinates": [ 78.182176, 30.544157 ] } },
{ "type": "Feature", "properties": { "decimalLatitude": 30.544157, "decimalLongitude": 78.182176, "eventDate": "2016-06-02T11:55:00Z", "countryCode": "IN" }, "geometry": { "type": "Point", "coordinates": [ 78.182176, 30.544157 ] } },
{ "type": "Feature", "properties": { "decimalLatitude": 30.544157, "decimalLongitude": 78.182176, "eventDate": "2016-06-02T12:25:00Z", "countryCode": "IN" }, "geometry": { "type": "Point", "coordinates": [ 78.182176, 30.544157 ] } },
{ "type": "Feature", "properties": { "decimalLatitude": 18.535626, "decimalLongitude": 98.522124, "eventDate": "2017-02-24T00:00:00Z", "countryCode": "TH" }, "geometry": { "type": "Point", "coordinates": [ 98.522124, 18.535626 ] } },
{ "type": "Feature", "properties": { "decimalLatitude": 18.826816, "decimalLongitude": 98.918025, "eventDate": "2017-03-18T10:19:00Z", "countryCode": "TH" }, "geometry": { "type": "Point", "coordinates": [ 98.918025, 18.826816 ] } },
{ "type": "Feature", "properties": { "decimalLatitude": 18.524572, "decimalLongitude": 98.455231, "eventDate": "2017-03-03T14:02:00Z", "countryCode": "TH" }, "geometry": { "type": "Point", "coordinates": [ 98.455231, 18.524572 ] } },
{ "type": "Feature", "properties": { "decimalLatitude": 29.402859, "decimalLongitude": 79.441429, "eventDate": "2017-06-14T00:00:00Z", "countryCode": "IN" }, "geometry": { "type": "Point", "coordinates": [ 79.441429, 29.402859 ] } },
{ "type": "Feature", "properties": { "decimalLatitude": 30.049683, "decimalLongitude": 79.905273, "eventDate": "2017-06-08T00:00:00Z", "countryCode": "IN" }, "geometry": { "type": "Point", "coordinates": [ 79.905273, 30.049683 ] } },
{ "type": "Feature", "properties": { "decimalLatitude": 18.523638, "decimalLongitude": 98.455285, "eventDate": "2018-03-20T12:22:00Z", "countryCode": "TH" }, "geometry": { "type": "Point", "coordinates": [ 98.455285, 18.523638 ] } },
{ "type": "Feature", "properties": { "decimalLatitude": 18.803049, "decimalLongitude": 98.909197, "eventDate": "2018-03-18T13:57:00Z", "countryCode": "TH" }, "geometry": { "type": "Point", "coordinates": [ 98.909197, 18.803049 ] } },
{ "type": "Feature", "properties": { "decimalLatitude": 27.597219, "decimalLongitude": 85.382111, "eventDate": "2018-06-28T15:31:00Z", "countryCode": "NP" }, "geometry": { "type": "Point", "coordinates": [ 85.382111, 27.597219 ] } },
{ "type": "Feature", "properties": { "decimalLatitude": 18.803049, "decimalLongitude": 98.909197, "eventDate": "2020-03-08T12:59:00Z", "countryCode": "TH" }, "geometry": { "type": "Point", "coordinates": [ 98.909197, 18.803049 ] } },
{ "type": "Feature", "properties": { "decimalLatitude": 30.032465, "decimalLongitude": 80.23264, "eventDate": "2020-07-05T13:04:00Z", "countryCode": "IN" }, "geometry": { "type": "Point", "coordinates": [ 80.23264, 30.032465 ] } },
{ "type": "Feature", "properties": { "decimalLatitude": 30.07796, "decimalLongitude": 80.231331, "eventDate": "2020-07-24T12:01:00Z", "countryCode": "IN" }, "geometry": { "type": "Point", "coordinates": [ 80.231331, 30.07796 ] } },
{ "type": "Feature", "properties": { "decimalLatitude": 27.578697, "decimalLongitude": 85.381511, "eventDate": "2020-07-26T12:30:00Z", "countryCode": "NP" }, "geometry": { "type": "Point", "coordinates": [ 85.381511, 27.578697 ] } },
{ "type": "Feature", "properties": { "decimalLatitude": 27.594615, "decimalLongitude": 85.388709, "eventDate": "2020-07-11T15:58:00Z", "countryCode": "NP" }, "geometry": { "type": "Point", "coordinates": [ 85.388709, 27.594615 ] } },
{ "type": "Feature", "properties": { "decimalLatitude": 17.305595, "decimalLongitude": 101.517139, "eventDate": "2021-03-10T15:47:00Z", "countryCode": "TH" }, "geometry": { "type": "Point", "coordinates": [ 101.517139, 17.305595 ] } },
{ "type": "Feature", "properties": { "decimalLatitude": 30.07692, "decimalLongitude": 80.233144, "eventDate": "2021-07-06T12:21:00Z", "countryCode": "IN" }, "geometry": { "type": "Point", "coordinates": [ 80.233144, 30.07692 ] } },
{ "type": "Feature", "properties": { "decimalLatitude": 30.088344, "decimalLongitude": 80.236568, "eventDate": "2021-07-10T13:33:22Z", "countryCode": "IN" }, "geometry": { "type": "Point", "coordinates": [ 80.236568, 30.088344 ] } },
{ "type": "Feature", "properties": { "decimalLatitude": 18.559546, "decimalLongitude": 98.551541, "eventDate": "2022-04-01T14:22:00Z", "countryCode": "TH" }, "geometry": { "type": "Point", "coordinates": [ 98.551541, 18.559546 ] } },
{ "type": "Feature", "properties": { "decimalLatitude": 18.535626, "decimalLongitude": 98.522124, "eventDate": "2022-04-01T09:55:00Z", "countryCode": "TH" }, "geometry": { "type": "Point", "coordinates": [ 98.522124, 18.535626 ] } },
{ "type": "Feature", "properties": { "decimalLatitude": 18.406982, "decimalLongitude": 98.495634, "eventDate": "2022-04-01T15:14:00Z", "countryCode": "TH" }, "geometry": { "type": "Point", "coordinates": [ 98.495634, 18.406982 ] } },
{ "type": "Feature", "properties": { "decimalLatitude": 19.206882, "decimalLongitude": 100.03502, "eventDate": "2022-04-01T15:41:00Z", "countryCode": "TH" }, "geometry": { "type": "Point", "coordinates": [ 100.03502, 19.206882 ] } },
{ "type": "Feature", "properties": { "decimalLatitude": 19.206882, "decimalLongitude": 100.03502, "eventDate": "2022-04-01T15:11:00Z", "countryCode": "TH" }, "geometry": { "type": "Point", "coordinates": [ 100.03502, 19.206882 ] } },
{ "type": "Feature", "properties": { "decimalLatitude": 29.387552, "decimalLongitude": 79.448352, "eventDate": "2022-05-31T09:30:18Z", "countryCode": "IN" }, "geometry": { "type": "Point", "coordinates": [ 79.448352, 29.387552 ] } },
{ "type": "Feature", "properties": { "decimalLatitude": 30.07708, "decimalLongitude": 80.236526, "eventDate": "2022-06-17T09:00:07Z", "countryCode": "IN" }, "geometry": { "type": "Point", "coordinates": [ 80.236526, 30.07708 ] } },
{ "type": "Feature", "properties": { "decimalLatitude": 31.033492, "decimalLongitude": 77.110231, "eventDate": "2022-06-23T11:35:00Z", "countryCode": "IN" }, "geometry": { "type": "Point", "coordinates": [ 77.110231, 31.033492 ] } },
{ "type": "Feature", "properties": { "decimalLatitude": 27.543082, "decimalLongitude": 85.545769, "eventDate": "2022-06-13T09:14:11Z", "countryCode": "NP" }, "geometry": { "type": "Point", "coordinates": [ 85.545769, 27.543082 ] } },
{ "type": "Feature", "properties": { "decimalLatitude": 30.076483, "decimalLongitude": 80.233612, "eventDate": "2022-06-22T12:55:04Z", "countryCode": "IN" }, "geometry": { "type": "Point", "coordinates": [ 80.233612, 30.076483 ] } },
{ "type": "Feature", "properties": { "decimalLatitude": 30.076546, "decimalLongitude": 80.233681, "eventDate": "2022-06-22T13:23:56Z", "countryCode": "IN" }, "geometry": { "type": "Point", "coordinates": [ 80.233681, 30.076546 ] } },
{ "type": "Feature", "properties": { "decimalLatitude": 29.838056, "decimalLongitude": 79.6075, "eventDate": "2022-06-14T08:45:00Z", "countryCode": "IN" }, "geometry": { "type": "Point", "coordinates": [ 79.6075, 29.838056 ] } },
{ "type": "Feature", "properties": { "decimalLatitude": 29.392414, "decimalLongitude": 79.453377, "eventDate": "2022-06-04T09:41:00Z", "countryCode": "IN" }, "geometry": { "type": "Point", "coordinates": [ 79.453377, 29.392414 ] } },
{ "type": "Feature", "properties": { "decimalLatitude": 29.392413, "decimalLongitude": 79.453377, "eventDate": "2022-06-16T11:38:06Z", "countryCode": "IN" }, "geometry": { "type": "Point", "coordinates": [ 79.453377, 29.392413 ] } },
{ "type": "Feature", "properties": { "decimalLatitude": 30.079599, "decimalLongitude": 80.237976, "eventDate": "2022-07-14T07:55:36Z", "countryCode": "IN" }, "geometry": { "type": "Point", "coordinates": [ 80.237976, 30.079599 ] } },
{ "type": "Feature", "properties": { "decimalLatitude": 30.079725, "decimalLongitude": 80.237991, "eventDate": "2022-07-14T07:57:28Z", "countryCode": "IN" }, "geometry": { "type": "Point", "coordinates": [ 80.237991, 30.079725 ] } },
{ "type": "Feature", "properties": { "decimalLatitude": 30.07959, "decimalLongitude": 80.237968, "eventDate": "2022-07-14T07:55:54Z", "countryCode": "IN" }, "geometry": { "type": "Point", "coordinates": [ 80.237968, 30.07959 ] } },
{ "type": "Feature", "properties": { "decimalLatitude": 30.081602, "decimalLongitude": 80.238777, "eventDate": "2022-08-16T11:02:26Z", "countryCode": "IN" }, "geometry": { "type": "Point", "coordinates": [ 80.238777, 30.081602 ] } },
{ "type": "Feature", "properties": { "decimalLatitude": 18.523889, "decimalLongitude": 98.455556, "eventDate": "2023-03-26T13:40:00Z", "countryCode": "TH" }, "geometry": { "type": "Point", "coordinates": [ 98.455556, 18.523889 ] } },
{ "type": "Feature", "properties": { "decimalLatitude": 18.5237, "decimalLongitude": 98.4558, "eventDate": "2023-03-17T15:05:00Z", "countryCode": "TH" }, "geometry": { "type": "Point", "coordinates": [ 98.4558, 18.5237 ] } },
{ "type": "Feature", "properties": { "decimalLatitude": 30.0807, "decimalLongitude": 80.238541, "eventDate": "2023-07-27T08:08:43Z", "countryCode": "IN" }, "geometry": { "type": "Point", "coordinates": [ 80.238541, 30.0807 ] } },
{ "type": "Feature", "properties": { "decimalLatitude": 30.081371, "decimalLongitude": 80.238686, "eventDate": "2023-07-27T16:47:57Z", "countryCode": "IN" }, "geometry": { "type": "Point", "coordinates": [ 80.238686, 30.081371 ] } },
{ "type": "Feature", "properties": { "decimalLatitude": 32.082294, "decimalLongitude": 77.152534, "eventDate": "2023-07-31T13:16:00Z", "countryCode": "IN" }, "geometry": { "type": "Point", "coordinates": [ 77.152534, 32.082294 ] } },
{ "type": "Feature", "properties": { "decimalLatitude": 29.423017, "decimalLongitude": 79.426223, "eventDate": "2023-08-03T08:52:00Z", "countryCode": "IN" }, "geometry": { "type": "Point", "coordinates": [ 79.426223, 29.423017 ] } },
{ "type": "Feature", "properties": { "decimalLatitude": 18.535626, "decimalLongitude": 98.522124, "eventDate": "2024-03-24T12:56:00Z", "countryCode": "TH" }, "geometry": { "type": "Point", "coordinates": [ 98.522124, 18.535626 ] } },
{ "type": "Feature", "properties": { "decimalLatitude": 18.513526, "decimalLongitude": 98.526783, "eventDate": "2024-04-16T13:58:00Z", "countryCode": "TH" }, "geometry": { "type": "Point", "coordinates": [ 98.526783, 18.513526 ] } },
{ "type": "Feature", "properties": { "decimalLatitude": 30.543495, "decimalLongitude": 78.186786, "eventDate": "2024-06-08T11:57:29Z", "countryCode": "IN" }, "geometry": { "type": "Point", "coordinates": [ 78.186786, 30.543495 ] } },
{ "type": "Feature", "properties": { "decimalLatitude": 30.54116, "decimalLongitude": 78.175939, "eventDate": "2024-06-10T15:38:00Z", "countryCode": "IN" }, "geometry": { "type": "Point", "coordinates": [ 78.175939, 30.54116 ] } },
{ "type": "Feature", "properties": { "decimalLatitude": 28.329355, "decimalLongitude": 83.796866, "eventDate": "2024-06-11T15:34:00Z", "countryCode": "NP" }, "geometry": { "type": "Point", "coordinates": [ 83.796866, 28.329355 ] } },
{ "type": "Feature", "properties": { "decimalLatitude": 31.038488, "decimalLongitude": 77.157268, "eventDate": "2024-06-23T09:07:00Z", "countryCode": "IN" }, "geometry": { "type": "Point", "coordinates": [ 77.157268, 31.038488 ] } },
{ "type": "Feature", "properties": { "decimalLatitude": 31.048011, "decimalLongitude": 77.105512, "eventDate": "2024-06-24T13:56:00Z", "countryCode": "IN" }, "geometry": { "type": "Point", "coordinates": [ 77.105512, 31.048011 ] } },
{ "type": "Feature", "properties": { "decimalLatitude": 30.465218, "decimalLongitude": 78.012733, "eventDate": "2024-06-09T09:42:00Z", "countryCode": "IN" }, "geometry": { "type": "Point", "coordinates": [ 78.012733, 30.465218 ] } },
{ "type": "Feature", "properties": { "decimalLatitude": 30.468779, "decimalLongitude": 78.032362, "eventDate": "2024-06-10T08:40:00Z", "countryCode": "IN" }, "geometry": { "type": "Point", "coordinates": [ 78.032362, 30.468779 ] } },
{ "type": "Feature", "properties": { "decimalLatitude": 30.543661, "decimalLongitude": 78.184935, "eventDate": "2024-06-12T09:51:00Z", "countryCode": "IN" }, "geometry": { "type": "Point", "coordinates": [ 78.184935, 30.543661 ] } },
{ "type": "Feature", "properties": { "decimalLatitude": 30.382578, "decimalLongitude": 78.473774, "eventDate": "2024-06-15T10:41:00Z", "countryCode": "IN" }, "geometry": { "type": "Point", "coordinates": [ 78.473774, 30.382578 ] } },
{ "type": "Feature", "properties": { "decimalLatitude": 30.468779, "decimalLongitude": 78.032362, "eventDate": "2024-06-10T08:37:00Z", "countryCode": "IN" }, "geometry": { "type": "Point", "coordinates": [ 78.032362, 30.468779 ] } },
{ "type": "Feature", "properties": { "decimalLatitude": 30.543661, "decimalLongitude": 78.184935, "eventDate": "2024-06-13T08:37:00Z", "countryCode": "IN" }, "geometry": { "type": "Point", "coordinates": [ 78.184935, 30.543661 ] } },
{ "type": "Feature", "properties": { "decimalLatitude": 30.468779, "decimalLongitude": 78.032362, "eventDate": "2024-06-09T09:58:00Z", "countryCode": "IN" }, "geometry": { "type": "Point", "coordinates": [ 78.032362, 30.468779 ] } },
{ "type": "Feature", "properties": { "decimalLatitude": 30.543661, "decimalLongitude": 78.184935, "eventDate": "2024-06-14T11:51:00Z", "countryCode": "IN" }, "geometry": { "type": "Point", "coordinates": [ 78.184935, 30.543661 ] } },
{ "type": "Feature", "properties": { "decimalLatitude": 30.468779, "decimalLongitude": 78.032362, "eventDate": "2024-06-09T09:48:00Z", "countryCode": "IN" }, "geometry": { "type": "Point", "coordinates": [ 78.032362, 30.468779 ] } },
{ "type": "Feature", "properties": { "decimalLatitude": 30.468779, "decimalLongitude": 78.032362, "eventDate": "2024-06-09T11:55:00Z", "countryCode": "IN" }, "geometry": { "type": "Point", "coordinates": [ 78.032362, 30.468779 ] } },
{ "type": "Feature", "properties": { "decimalLatitude": 30.468779, "decimalLongitude": 78.032362, "eventDate": "2024-06-09T11:54:00Z", "countryCode": "IN" }, "geometry": { "type": "Point", "coordinates": [ 78.032362, 30.468779 ] } },
{ "type": "Feature", "properties": { "decimalLatitude": 32.19269, "decimalLongitude": 76.450621, "eventDate": "2024-06-08T16:03:24Z", "countryCode": "IN" }, "geometry": { "type": "Point", "coordinates": [ 76.450621, 32.19269 ] } },
{ "type": "Feature", "properties": { "decimalLatitude": 32.129, "decimalLongitude": 76.564, "eventDate": "2024-07-14T11:00:00Z", "countryCode": "IN" }, "geometry": { "type": "Point", "coordinates": [ 76.564, 32.129 ] } },
{ "type": "Feature", "properties": { "decimalLatitude": 30.079375, "decimalLongitude": 80.235268, "eventDate": "2024-08-01T13:53:38Z", "countryCode": "IN" }, "geometry": { "type": "Point", "coordinates": [ 80.235268, 30.079375 ] } },
{ "type": "Feature", "properties": { "decimalLatitude": 27.656578, "decimalLongitude": 85.416047, "eventDate": "2024-10-16T13:03:50Z", "countryCode": "NP" }, "geometry": { "type": "Point", "coordinates": [ 85.416047, 27.656578 ] } },
{ "type": "Feature", "properties": { "decimalLatitude": 30.088344, "decimalLongitude": 80.236568, "eventDate": "2025-07-06T14:39:20Z", "countryCode": "IN" }, "geometry": { "type": "Point", "coordinates": [ 80.236568, 30.088344 ] } },
{ "type": "Feature", "properties": { "decimalLatitude": 30.078136, "decimalLongitude": 80.235442, "eventDate": "2025-07-03T14:13:57Z", "countryCode": "IN" }, "geometry": { "type": "Point", "coordinates": [ 80.235442, 30.078136 ] } },
{ "type": "Feature", "properties": { "decimalLatitude": 31.0983, "decimalLongitude": 77.136294, "eventDate": "2025-07-19T09:52:47Z", "countryCode": "IN" }, "geometry": { "type": "Point", "coordinates": [ 77.136294, 31.0983 ] } },
{ "type": "Feature", "properties": { "decimalLatitude": 29.681676, "decimalLongitude": 79.402912, "eventDate": "2025-08-17T11:51:00Z", "countryCode": "IN" }, "geometry": { "type": "Point", "coordinates": [ 79.402912, 29.681676 ] } },
{ "type": "Feature", "properties": { "decimalLatitude": 32.249455, "decimalLongitude": 76.330647, "eventDate": "2025-08-09T11:18:43Z", "countryCode": "IN" }, "geometry": { "type": "Point", "coordinates": [ 76.330647, 32.249455 ] } }
]
}
