{
"type": "FeatureCollection",
"name": "greta-oto-gbif",
"crs": { "type": "name", "properties": { "name": "urn:ogc:def:crs:OGC:1.3:CRS84" } },
"features": [
{ "type": "Feature", "properties": { "decimalLatitude": 10.7632, "decimalLongitude": -85.3338, "eventDate": "2016-12-08T00:00:00Z" }, "geometry": { "type": "Point", "coordinates": [ -85.3338, 10.7632 ] } },
{ "type": "Feature", "properties": { "decimalLatitude": 10.817721, "decimalLongitude": -85.390465, "eventDate": "2017-01-30T00:00:00Z" }, "geometry": { "type": "Point", "coordinates": [ -85.390465, 10.817721 ] } },
{ "type": "Feature", "properties": { "decimalLatitude": 10.7713, "decimalLongitude": -85.3608, "eventDate": "2017-04-24T00:00:00Z" }, "geometry": { "type": "Point", "coordinates": [ -85.3608, 10.7713 ] } },
{ "type": "Feature", "properties": { "decimalLatitude": 10.7632, "decimalLongitude": -85.3338, "eventDate": "2017-06-22T00:00:00Z" }, "geometry": { "type": "Point", "coordinates": [ -85.3338, 10.7632 ] } },
{ "type": "Feature", "properties": { "decimalLatitude": 10.7632, "decimalLongitude": -85.3338, "eventDate": "2017-06-15T00:00:00Z" }, "geometry": { "type": "Point", "coordinates": [ -85.3338, 10.7632 ] } },
{ "type": "Feature", "properties": { "decimalLatitude": 10.7632, "decimalLongitude": -85.3338, "eventDate": "2017-07-06T00:00:00Z" }, "geometry": { "type": "Point", "coordinates": [ -85.3338, 10.7632 ] } },
{ "type": "Feature", "properties": { "decimalLatitude": 10.7681, "decimalLongitude": -85.3593, "eventDate": "2017-07-17T00:00:00Z" }, "geometry": { "type": "Point", "coordinates": [ -85.3593, 10.7681 ] } },
{ "type": "Feature", "properties": { "decimalLatitude": 9.973, "decimalLongitude": -84.094, "eventDate": "2019-06-18T00:00:00Z" }, "geometry": { "type": "Point", "coordinates": [ -84.094, 9.973 ] } },
{ "type": "Feature", "properties": { "decimalLatitude": 9.973, "decimalLongitude": -84.094, "eventDate": "2019-06-18T00:00:00Z" }, "geometry": { "type": "Point", "coordinates": [ -84.094, 9.973 ] } },
{ "type": "Feature", "properties": { "decimalLatitude": 9.973, "decimalLongitude": -84.094, "eventDate": "2019-06-11T00:00:00Z" }, "geometry": { "type": "Point", "coordinates": [ -84.094, 9.973 ] } },
{ "type": "Feature", "properties": { "decimalLatitude": 9.974, "decimalLongitude": -84.093, "eventDate": "2019-06-04T00:00:00Z" }, "geometry": { "type": "Point", "coordinates": [ -84.093, 9.974 ] } },
{ "type": "Feature", "properties": { "decimalLatitude": 9.973, "decimalLongitude": -84.094, "eventDate": "2019-06-11T00:00:00Z" }, "geometry": { "type": "Point", "coordinates": [ -84.094, 9.973 ] } },
{ "type": "Feature", "properties": { "decimalLatitude": 9.974, "decimalLongitude": -84.093, "eventDate": "2019-06-04T00:00:00Z" }, "geometry": { "type": "Point", "coordinates": [ -84.093, 9.974 ] } },
{ "type": "Feature", "properties": { "decimalLatitude": 9.973, "decimalLongitude": -84.094, "eventDate": "2019-06-11T00:00:00Z" }, "geometry": { "type": "Point", "coordinates": [ -84.094, 9.973 ] } },
{ "type": "Feature", "properties": { "decimalLatitude": 9.973, "decimalLongitude": -84.094, "eventDate": "2019-06-25T00:00:00Z" }, "geometry": { "type": "Point", "coordinates": [ -84.094, 9.973 ] } },
{ "type": "Feature", "properties": { "decimalLatitude": 9.974, "decimalLongitude": -84.093, "eventDate": "2019-07-30T00:00:00Z" }, "geometry": { "type": "Point", "coordinates": [ -84.093, 9.974 ] } },
{ "type": "Feature", "properties": { "decimalLatitude": 9.973, "decimalLongitude": -84.094, "eventDate": "2019-07-09T00:00:00Z" }, "geometry": { "type": "Point", "coordinates": [ -84.094, 9.973 ] } },
{ "type": "Feature", "properties": { "decimalLatitude": 9.973, "decimalLongitude": -84.094, "eventDate": "2019-07-09T00:00:00Z" }, "geometry": { "type": "Point", "coordinates": [ -84.094, 9.973 ] } },
{ "type": "Feature", "properties": { "decimalLatitude": 9.974, "decimalLongitude": -84.093, "eventDate": "2019-08-27T00:00:00Z" }, "geometry": { "type": "Point", "coordinates": [ -84.093, 9.974 ] } },
{ "type": "Feature", "properties": { "decimalLatitude": 9.973, "decimalLongitude": -84.094, "eventDate": "2019-08-13T00:00:00Z" }, "geometry": { "type": "Point", "coordinates": [ -84.094, 9.973 ] } },
{ "type": "Feature", "properties": { "decimalLatitude": 9.974, "decimalLongitude": -84.093, "eventDate": "2019-09-03T00:00:00Z" }, "geometry": { "type": "Point", "coordinates": [ -84.093, 9.974 ] } },
{ "type": "Feature", "properties": { "decimalLatitude": 9.973, "decimalLongitude": -84.094, "eventDate": "2019-09-24T00:00:00Z" }, "geometry": { "type": "Point", "coordinates": [ -84.094, 9.973 ] } },
{ "type": "Feature", "properties": { "decimalLatitude": 9.973, "decimalLongitude": -84.094, "eventDate": "2019-09-24T00:00:00Z" }, "geometry": { "type": "Point", "coordinates": [ -84.094, 9.973 ] } },
{ "type": "Feature", "properties": { "decimalLatitude": 9.973, "decimalLongitude": -84.094, "eventDate": "2019-10-22T00:00:00Z" }, "geometry": { "type": "Point", "coordinates": [ -84.094, 9.973 ] } },
{ "type": "Feature", "properties": { "decimalLatitude": 10.7631, "decimalLongitude": -85.3344, "eventDate": "2019-11-28T00:00:00Z" }, "geometry": { "type": "Point", "coordinates": [ -85.3344, 10.7631 ] } },
{ "type": "Feature", "properties": { "decimalLatitude": 9.973, "decimalLongitude": -84.094, "eventDate": "2019-11-26T00:00:00Z" }, "geometry": { "type": "Point", "coordinates": [ -84.094, 9.973 ] } },
{ "type": "Feature", "properties": { "decimalLatitude": 9.973, "decimalLongitude": -84.094, "eventDate": "2020-01-14T00:00:00Z" }, "geometry": { "type": "Point", "coordinates": [ -84.094, 9.973 ] } },
{ "type": "Feature", "properties": { "decimalLatitude": 9.973, "decimalLongitude": -84.094, "eventDate": "2020-01-07T00:00:00Z" }, "geometry": { "type": "Point", "coordinates": [ -84.094, 9.973 ] } },
{ "type": "Feature", "properties": { "decimalLatitude": 10.7631, "decimalLongitude": -85.3344, "eventDate": "2020-05-21T00:00:00Z" }, "geometry": { "type": "Point", "coordinates": [ -85.3344, 10.7631 ] } },
{ "type": "Feature", "properties": { "decimalLatitude": 9.974, "decimalLongitude": -84.093, "eventDate": "2020-05-19T00:00:00Z" }, "geometry": { "type": "Point", "coordinates": [ -84.093, 9.974 ] } },
{ "type": "Feature", "properties": { "decimalLatitude": 9.973, "decimalLongitude": -84.094, "eventDate": "2020-05-05T00:00:00Z" }, "geometry": { "type": "Point", "coordinates": [ -84.094, 9.973 ] } },
{ "type": "Feature", "properties": { "decimalLatitude": 9.974, "decimalLongitude": -84.093, "eventDate": "2020-05-19T00:00:00Z" }, "geometry": { "type": "Point", "coordinates": [ -84.093, 9.974 ] } },
{ "type": "Feature", "properties": { "decimalLatitude": 9.973, "decimalLongitude": -84.094, "eventDate": "2020-05-05T00:00:00Z" }, "geometry": { "type": "Point", "coordinates": [ -84.094, 9.973 ] } },
{ "type": "Feature", "properties": { "decimalLatitude": 9.974, "decimalLongitude": -84.093, "eventDate": "2020-05-19T00:00:00Z" }, "geometry": { "type": "Point", "coordinates": [ -84.093, 9.974 ] } },
{ "type": "Feature", "properties": { "decimalLatitude": 10.763, "decimalLongitude": -85.334, "eventDate": "2020-07-02T00:00:00Z" }, "geometry": { "type": "Point", "coordinates": [ -85.334, 10.763 ] } },
{ "type": "Feature", "properties": { "decimalLatitude": 10.763, "decimalLongitude": -85.334, "eventDate": "2020-08-27T00:00:00Z" }, "geometry": { "type": "Point", "coordinates": [ -85.334, 10.763 ] } },
{ "type": "Feature", "properties": { "decimalLatitude": 10.92446, "decimalLongitude": -85.46953, "eventDate": "2020-08-10T00:00:00Z" }, "geometry": { "type": "Point", "coordinates": [ -85.46953, 10.92446 ] } },
{ "type": "Feature", "properties": { "decimalLatitude": 10.90037, "decimalLongitude": -85.37254, "eventDate": "2022-01-17T00:00:00Z" }, "geometry": { "type": "Point", "coordinates": [ -85.37254, 10.90037 ] } },
{ "type": "Feature", "properties": { "decimalLatitude": 10.90037, "decimalLongitude": -85.37254, "eventDate": "2022-02-14T00:00:00Z" }, "geometry": { "type": "Point", "coordinates": [ -85.37254, 10.90037 ] } },
{ "type": "Feature", "properties": { "decimalLatitude": 10.90037, "decimalLongitude": -85.37254, "eventDate": "2022-02-28T00:00:00Z" }, "geometry": { "type": "Point", "coordinates": [ -85.37254, 10.90037 ] } },
{ "type": "Feature", "properties": { "decimalLatitude": 10.90037, "decimalLongitude": -85.37254, "eventDate": "2022-02-07T00:00:00Z" }, "geometry": { "type": "Point", "coordinates": [ -85.37254, 10.90037 ] } },
{ "type": "Feature", "properties": { "decimalLatitude": 10.90037, "decimalLongitude": -85.37254, "eventDate": "2022-04-25T00:00:00Z" }, "geometry": { "type": "Point", "coordinates": [ -85.37254, 10.90037 ] } },
{ "type": "Feature", "properties": { "decimalLatitude": 10.76737, "decimalLongitude": -85.43313, "eventDate": "2022-06-25T00:00:00Z" }, "geometry": { "type": "Point", "coordinates": [ -85.43313, 10.76737 ] } },
{ "type": "Feature", "properties": { "decimalLatitude": 10.90037, "decimalLongitude": -85.37254, "eventDate": "2022-06-13T00:00:00Z" }, "geometry": { "type": "Point", "coordinates": [ -85.37254, 10.90037 ] } },
{ "type": "Feature", "properties": { "decimalLatitude": 10.90037, "decimalLongitude": -85.37254, "eventDate": "2022-07-25T00:00:00Z" }, "geometry": { "type": "Point", "coordinates": [ -85.37254, 10.90037 ] } },
{ "type": "Feature", "properties": { "decimalLatitude": 10.90037, "decimalLongitude": -85.37254, "eventDate": "2022-08-22T00:00:00Z" }, "geometry": { "type": "Point", "coordinates": [ -85.37254, 10.90037 ] } },
{ "type": "Feature", "properties": { "decimalLatitude": 10.90037, "decimalLongitude": -85.37254, "eventDate": "2022-09-26T00:00:00Z" }, "geometry": { "type": "Point", "coordinates": [ -85.37254, 10.90037 ] } },
{ "type": "Feature", "properties": { "decimalLatitude": 10.90037, "decimalLongitude": -85.37254, "eventDate": "2022-10-17T00:00:00Z" }, "geometry": { "type": "Point", "coordinates": [ -85.37254, 10.90037 ] } },
{ "type": "Feature", "properties": { "decimalLatitude": 10.90037, "decimalLongitude": -85.37254, "eventDate": "2022-10-24T00:00:00Z" }, "geometry": { "type": "Point", "coordinates": [ -85.37254, 10.90037 ] } },
{ "type": "Feature", "properties": { "decimalLatitude": 10.90037, "decimalLongitude": -85.37254, "eventDate": "2022-10-03T00:00:00Z" }, "geometry": { "type": "Point", "coordinates": [ -85.37254, 10.90037 ] } },
{ "type": "Feature", "properties": { "decimalLatitude": 10.90037, "decimalLongitude": -85.37254, "eventDate": "2022-12-19T00:00:00Z" }, "geometry": { "type": "Point", "coordinates": [ -85.37254, 10.90037 ] } },
{ "type": "Feature", "properties": { "decimalLatitude": 55.68508, "decimalLongitude": 12.573784, "eventDate": "2023-03-12T00:00:00Z" }, "geometry": { "type": "Point", "coordinates": [ 12.573784, 55.68508 ] } },
{ "type": "Feature", "properties": { "decimalLatitude": 10.90037, "decimalLongitude": -85.37254, "eventDate": "2023-04-17T00:00:00Z" }, "geometry": { "type": "Point", "coordinates": [ -85.37254, 10.90037 ] } },
{ "type": "Feature", "properties": { "decimalLatitude": 10.90037, "decimalLongitude": -85.37254, "eventDate": "2023-06-05T00:00:00Z" }, "geometry": { "type": "Point", "coordinates": [ -85.37254, 10.90037 ] } },
{ "type": "Feature", "properties": { "decimalLatitude": 10.893086, "decimalLongitude": -85.3794, "eventDate": "2023-12-19T00:00:00Z" }, "geometry": { "type": "Point", "coordinates": [ -85.3794, 10.893086 ] } },
{ "type": "Feature", "properties": { "decimalLatitude": 10.90037, "decimalLongitude": -85.37254, "eventDate": "2024-05-06T00:00:00Z" }, "geometry": { "type": "Point", "coordinates": [ -85.37254, 10.90037 ] } }
]
}
