{
"type": "FeatureCollection",
"name": "hesperia-dacotae",
"crs": { "type": "name", "properties": { "name": "urn:ogc:def:crs:OGC:1.3:CRS84" } },
"features": [
{ "type": "Feature", "properties": { "decimalLatitude": 46.892342, "decimalLongitude": -96.490642, "eventDate": "2015-07-01T00:00:00Z" }, "geometry": { "type": "Point", "coordinates": [ -96.490642, 46.892342 ] } },
{ "type": "Feature", "properties": { "decimalLatitude": 49.504061, "decimalLongitude": -100.997075, "eventDate": "2020-07-15T11:03:00Z" }, "geometry": { "type": "Point", "coordinates": [ -100.997075, 49.504061 ] } },
{ "type": "Feature", "properties": { "decimalLatitude": 47.069147, "decimalLongitude": -96.571679, "eventDate": "2022-07-03T00:00:00Z" }, "geometry": { "type": "Point", "coordinates": [ -96.571679, 47.069147 ] } },
{ "type": "Feature", "properties": { "decimalLatitude": 48.013838, "decimalLongitude": -100.421183, "eventDate": "2022-07-02T11:56:00Z" }, "geometry": { "type": "Point", "coordinates": [ -100.421183, 48.013838 ] } },
{ "type": "Feature", "properties": { "decimalLatitude": 50.675905, "decimalLongitude": -97.922741, "eventDate": "2022-07-18T17:08:17Z" }, "geometry": { "type": "Point", "coordinates": [ -97.922741, 50.675905 ] } },
{ "type": "Feature", "properties": { "decimalLatitude": 49.690003, "decimalLongitude": -100.513038, "eventDate": "2022-07-12T11:16:00Z" }, "geometry": { "type": "Point", "coordinates": [ -100.513038, 49.690003 ] } },
{ "type": "Feature", "properties": { "decimalLatitude": 49.632105, "decimalLongitude": -100.54496, "eventDate": "2022-07-12T10:58:00Z" }, "geometry": { "type": "Point", "coordinates": [ -100.54496, 49.632105 ] } },
{ "type": "Feature", "properties": { "decimalLatitude": 49.729372, "decimalLongitude": -100.432863, "eventDate": "2022-07-12T11:29:00Z" }, "geometry": { "type": "Point", "coordinates": [ -100.432863, 49.729372 ] } },
{ "type": "Feature", "properties": { "decimalLatitude": 49.797704, "decimalLongitude": -100.593021, "eventDate": "2022-07-12T10:10:00Z" }, "geometry": { "type": "Point", "coordinates": [ -100.593021, 49.797704 ] } },
{ "type": "Feature", "properties": { "decimalLatitude": 49.689362, "decimalLongitude": -100.55934, "eventDate": "2022-07-12T11:22:00Z" }, "geometry": { "type": "Point", "coordinates": [ -100.55934, 49.689362 ] } },
{ "type": "Feature", "properties": { "decimalLatitude": 49.785531, "decimalLongitude": -100.413493, "eventDate": "2022-07-12T10:38:00Z" }, "geometry": { "type": "Point", "coordinates": [ -100.413493, 49.785531 ] } },
{ "type": "Feature", "properties": { "decimalLatitude": 49.627847, "decimalLongitude": -100.435738, "eventDate": "2022-07-12T11:56:00Z" }, "geometry": { "type": "Point", "coordinates": [ -100.435738, 49.627847 ] } },
{ "type": "Feature", "properties": { "decimalLatitude": 48.183769, "decimalLongitude": -100.382044, "eventDate": "2024-07-02T14:06:00Z" }, "geometry": { "type": "Point", "coordinates": [ -100.382044, 48.183769 ] } },
{ "type": "Feature", "properties": { "decimalLatitude": 48.240841, "decimalLongitude": -100.77169, "eventDate": "2024-07-10T11:13:57Z" }, "geometry": { "type": "Point", "coordinates": [ -100.77169, 48.240841 ] } },
{ "type": "Feature", "properties": { "decimalLatitude": 48.102575, "decimalLongitude": -100.220686, "eventDate": "2024-07-02T14:36:00Z" }, "geometry": { "type": "Point", "coordinates": [ -100.220686, 48.102575 ] } },
{ "type": "Feature", "properties": { "decimalLatitude": 48.342733, "decimalLongitude": -100.627233, "eventDate": "2024-07-10T11:39:00Z" }, "geometry": { "type": "Point", "coordinates": [ -100.627233, 48.342733 ] } },
{ "type": "Feature", "properties": { "decimalLatitude": 50.652097, "decimalLongitude": -97.90679, "eventDate": "2024-07-19T12:48:00Z" }, "geometry": { "type": "Point", "coordinates": [ -97.90679, 50.652097 ] } },
{ "type": "Feature", "properties": { "decimalLatitude": 50.799048, "decimalLongitude": -97.859105, "eventDate": "2024-07-16T12:25:00Z" }, "geometry": { "type": "Point", "coordinates": [ -97.859105, 50.799048 ] } },
{ "type": "Feature", "properties": { "decimalLatitude": 50.610878, "decimalLongitude": -97.860268, "eventDate": "2024-07-16T11:53:00Z" }, "geometry": { "type": "Point", "coordinates": [ -97.860268, 50.610878 ] } },
{ "type": "Feature", "properties": { "decimalLatitude": 50.248398, "decimalLongitude": -97.973212, "eventDate": "2024-07-15T15:10:00Z" }, "geometry": { "type": "Point", "coordinates": [ -97.973212, 50.248398 ] } },
{ "type": "Feature", "properties": { "decimalLatitude": 50.320104, "decimalLongitude": -97.932226, "eventDate": "2024-07-08T14:53:00Z" }, "geometry": { "type": "Point", "coordinates": [ -97.932226, 50.320104 ] } },
{ "type": "Feature", "properties": { "decimalLatitude": 50.393094, "decimalLongitude": -97.866914, "eventDate": "2024-07-08T13:50:00Z" }, "geometry": { "type": "Point", "coordinates": [ -97.866914, 50.393094 ] } },
{ "type": "Feature", "properties": { "decimalLatitude": 50.366544, "decimalLongitude": -97.981858, "eventDate": "2024-07-15T11:32:00Z" }, "geometry": { "type": "Point", "coordinates": [ -97.981858, 50.366544 ] } },
{ "type": "Feature", "properties": { "decimalLatitude": 50.30558, "decimalLongitude": -97.987802, "eventDate": "2024-07-08T14:10:00Z" }, "geometry": { "type": "Point", "coordinates": [ -97.987802, 50.30558 ] } },
{ "type": "Feature", "properties": { "decimalLatitude": 48.125517, "decimalLongitude": -100.265511, "eventDate": "2025-06-30T14:10:00Z" }, "geometry": { "type": "Point", "coordinates": [ -100.265511, 48.125517 ] } },
{ "type": "Feature", "properties": { "decimalLatitude": 48.015892, "decimalLongitude": -100.294222, "eventDate": "2025-06-30T14:16:00Z" }, "geometry": { "type": "Point", "coordinates": [ -100.294222, 48.015892 ] } },
{ "type": "Feature", "properties": { "decimalLatitude": 48.197517, "decimalLongitude": -100.374726, "eventDate": "2025-06-30T13:51:00Z" }, "geometry": { "type": "Point", "coordinates": [ -100.374726, 48.197517 ] } },
{ "type": "Feature", "properties": { "decimalLatitude": 48.184998, "decimalLongitude": -100.653521, "eventDate": "2025-06-30T16:09:00Z" }, "geometry": { "type": "Point", "coordinates": [ -100.653521, 48.184998 ] } },
{ "type": "Feature", "properties": { "decimalLatitude": 48.11009, "decimalLongitude": -100.308095, "eventDate": "2025-06-30T14:15:00Z" }, "geometry": { "type": "Point", "coordinates": [ -100.308095, 48.11009 ] } },
{ "type": "Feature", "properties": { "decimalLatitude": 48.004227, "decimalLongitude": -100.341853, "eventDate": "2025-06-30T14:20:00Z" }, "geometry": { "type": "Point", "coordinates": [ -100.341853, 48.004227 ] } },
{ "type": "Feature", "properties": { "decimalLatitude": 48.019931, "decimalLongitude": -100.699587, "eventDate": "2025-06-30T16:51:00Z" }, "geometry": { "type": "Point", "coordinates": [ -100.699587, 48.019931 ] } },
{ "type": "Feature", "properties": { "decimalLatitude": 48.298187, "decimalLongitude": -100.614683, "eventDate": "2025-06-30T18:01:00Z" }, "geometry": { "type": "Point", "coordinates": [ -100.614683, 48.298187 ] } },
{ "type": "Feature", "properties": { "decimalLatitude": 48.389621, "decimalLongitude": -100.603654, "eventDate": "2025-07-06T14:56:44Z" }, "geometry": { "type": "Point", "coordinates": [ -100.603654, 48.389621 ] } },
{ "type": "Feature", "properties": { "decimalLatitude": 50.558905, "decimalLongitude": -97.978564, "eventDate": "2025-07-17T11:06:00Z" }, "geometry": { "type": "Point", "coordinates": [ -97.978564, 50.558905 ] } }
]
}
