{
"type": "FeatureCollection",
"name": "hesperia-ottoe",
"crs": { "type": "name", "properties": { "name": "urn:ogc:def:crs:OGC:1.3:CRS84" } },
"features": [
{ "type": "Feature", "properties": { "decimalLatitude": 40.177978, "decimalLongitude": -105.209419, "eventDate": "2015-07-13T13:06:00Z" }, "geometry": { "type": "Point", "coordinates": [ -105.209419, 40.177978 ] } },
{ "type": "Feature", "properties": { "decimalLatitude": 41.47224, "decimalLongitude": -87.37434, "eventDate": "2016-01-01T00:00:00Z" }, "geometry": { "type": "Point", "coordinates": [ -87.37434, 41.47224 ] } },
{ "type": "Feature", "properties": { "decimalLatitude": 47.627683, "decimalLongitude": -103.304117, "eventDate": "2018-08-19T12:32:00Z" }, "geometry": { "type": "Point", "coordinates": [ -103.304117, 47.627683 ] } },
{ "type": "Feature", "properties": { "decimalLatitude": 38.469719, "decimalLongitude": -98.65036, "eventDate": "2018-08-06T00:00:00Z" }, "geometry": { "type": "Point", "coordinates": [ -98.65036, 38.469719 ] } },
{ "type": "Feature", "properties": { "decimalLatitude": 39.904547, "decimalLongitude": -105.378312, "eventDate": "2021-07-28T00:00:00Z" }, "geometry": { "type": "Point", "coordinates": [ -105.378312, 39.904547 ] } },
{ "type": "Feature", "properties": { "decimalLatitude": 35.978886, "decimalLongitude": -100.142555, "eventDate": "2022-06-18T09:53:00Z" }, "geometry": { "type": "Point", "coordinates": [ -100.142555, 35.978886 ] } },
{ "type": "Feature", "properties": { "decimalLatitude": 35.827025, "decimalLongitude": -100.086038, "eventDate": "2022-06-18T09:43:00Z" }, "geometry": { "type": "Point", "coordinates": [ -100.086038, 35.827025 ] } },
{ "type": "Feature", "properties": { "decimalLatitude": 35.82432, "decimalLongitude": -100.079996, "eventDate": "2022-06-19T10:18:00Z" }, "geometry": { "type": "Point", "coordinates": [ -100.079996, 35.82432 ] } },
{ "type": "Feature", "properties": { "decimalLatitude": 35.877893, "decimalLongitude": -100.145268, "eventDate": "2022-06-18T10:51:00Z" }, "geometry": { "type": "Point", "coordinates": [ -100.145268, 35.877893 ] } },
{ "type": "Feature", "properties": { "decimalLatitude": 35.810714, "decimalLongitude": -100.021296, "eventDate": "2022-06-18T09:18:00Z" }, "geometry": { "type": "Point", "coordinates": [ -100.021296, 35.810714 ] } },
{ "type": "Feature", "properties": { "decimalLatitude": 35.967486, "decimalLongitude": -100.070006, "eventDate": "2022-06-18T09:26:00Z" }, "geometry": { "type": "Point", "coordinates": [ -100.070006, 35.967486 ] } },
{ "type": "Feature", "properties": { "decimalLatitude": 35.835158, "decimalLongitude": -100.147264, "eventDate": "2022-06-18T09:51:00Z" }, "geometry": { "type": "Point", "coordinates": [ -100.147264, 35.835158 ] } },
{ "type": "Feature", "properties": { "decimalLatitude": 35.921814, "decimalLongitude": -100.078117, "eventDate": "2022-06-18T10:59:00Z" }, "geometry": { "type": "Point", "coordinates": [ -100.078117, 35.921814 ] } },
{ "type": "Feature", "properties": { "decimalLatitude": 35.896305, "decimalLongitude": -100.108959, "eventDate": "2022-06-18T10:07:00Z" }, "geometry": { "type": "Point", "coordinates": [ -100.108959, 35.896305 ] } },
{ "type": "Feature", "properties": { "decimalLatitude": 35.837289, "decimalLongitude": -100.003957, "eventDate": "2022-06-18T11:46:00Z" }, "geometry": { "type": "Point", "coordinates": [ -100.003957, 35.837289 ] } },
{ "type": "Feature", "properties": { "decimalLatitude": 39.517647, "decimalLongitude": -105.018564, "eventDate": "2022-07-22T08:41:00Z" }, "geometry": { "type": "Point", "coordinates": [ -105.018564, 39.517647 ] } },
{ "type": "Feature", "properties": { "decimalLatitude": 36.020475, "decimalLongitude": -100.059699, "eventDate": "2022-07-03T10:23:42Z" }, "geometry": { "type": "Point", "coordinates": [ -100.059699, 36.020475 ] } },
{ "type": "Feature", "properties": { "decimalLatitude": 36.075653, "decimalLongitude": -100.043642, "eventDate": "2023-06-03T00:00:00Z" }, "geometry": { "type": "Point", "coordinates": [ -100.043642, 36.075653 ] } },
{ "type": "Feature", "properties": { "decimalLatitude": 42.126037, "decimalLongitude": -102.553635, "eventDate": "2023-07-11T14:25:15Z" }, "geometry": { "type": "Point", "coordinates": [ -102.553635, 42.126037 ] } },
{ "type": "Feature", "properties": { "decimalLatitude": 40.357125, "decimalLongitude": -105.218746, "eventDate": "2024-06-30T14:12:49Z" }, "geometry": { "type": "Point", "coordinates": [ -105.218746, 40.357125 ] } },
{ "type": "Feature", "properties": { "decimalLatitude": 46.557593, "decimalLongitude": -101.501684, "eventDate": "2024-07-03T13:10:51Z" }, "geometry": { "type": "Point", "coordinates": [ -101.501684, 46.557593 ] } },
{ "type": "Feature", "properties": { "decimalLatitude": 46.462846, "decimalLongitude": -103.78839, "eventDate": "2024-07-05T12:03:18Z" }, "geometry": { "type": "Point", "coordinates": [ -103.78839, 46.462846 ] } },
{ "type": "Feature", "properties": { "decimalLatitude": 43.972576, "decimalLongitude": -90.693404, "eventDate": "2024-07-15T14:12:00Z" }, "geometry": { "type": "Point", "coordinates": [ -90.693404, 43.972576 ] } },
{ "type": "Feature", "properties": { "decimalLatitude": 39.548883, "decimalLongitude": -105.168224, "eventDate": "2024-07-14T13:40:00Z" }, "geometry": { "type": "Point", "coordinates": [ -105.168224, 39.548883 ] } },
{ "type": "Feature", "properties": { "decimalLatitude": 47.609944, "decimalLongitude": -102.942477, "eventDate": "2024-07-02T11:08:00Z" }, "geometry": { "type": "Point", "coordinates": [ -102.942477, 47.609944 ] } },
{ "type": "Feature", "properties": { "decimalLatitude": 39.877609, "decimalLongitude": -105.379005, "eventDate": "2024-07-11T09:55:45Z" }, "geometry": { "type": "Point", "coordinates": [ -105.379005, 39.877609 ] } },
{ "type": "Feature", "properties": { "decimalLatitude": 40.182844, "decimalLongitude": -105.306985, "eventDate": "2025-06-30T12:42:48Z" }, "geometry": { "type": "Point", "coordinates": [ -105.306985, 40.182844 ] } },
{ "type": "Feature", "properties": { "decimalLatitude": 43.871446, "decimalLongitude": -90.722948, "eventDate": "2025-07-14T10:30:00Z" }, "geometry": { "type": "Point", "coordinates": [ -90.722948, 43.871446 ] } },
{ "type": "Feature", "properties": { "decimalLatitude": 43.946107, "decimalLongitude": -90.679763, "eventDate": "2025-07-14T10:28:00Z" }, "geometry": { "type": "Point", "coordinates": [ -90.679763, 43.946107 ] } },
{ "type": "Feature", "properties": { "decimalLatitude": 43.904486, "decimalLongitude": -90.710835, "eventDate": "2025-07-14T10:04:00Z" }, "geometry": { "type": "Point", "coordinates": [ -90.710835, 43.904486 ] } },
{ "type": "Feature", "properties": { "decimalLatitude": 39.893033, "decimalLongitude": -105.125041, "eventDate": "2025-07-26T09:35:00Z" }, "geometry": { "type": "Point", "coordinates": [ -105.125041, 39.893033 ] } },
{ "type": "Feature", "properties": { "decimalLatitude": 40.395161, "decimalLongitude": -105.260088, "eventDate": "2025-07-04T19:22:00Z" }, "geometry": { "type": "Point", "coordinates": [ -105.260088, 40.395161 ] } },
{ "type": "Feature", "properties": { "decimalLatitude": 44.440865, "decimalLongitude": -104.096567, "eventDate": "2025-07-17T17:07:00Z" }, "geometry": { "type": "Point", "coordinates": [ -104.096567, 44.440865 ] } },
{ "type": "Feature", "properties": { "decimalLatitude": 44.453537, "decimalLongitude": -104.071516, "eventDate": "2025-07-17T17:22:00Z" }, "geometry": { "type": "Point", "coordinates": [ -104.071516, 44.453537 ] } }
]
}
