{
"type": "FeatureCollection",
"name": "hypaurotis-crysalus",
"crs": { "type": "name", "properties": { "name": "urn:ogc:def:crs:OGC:1.3:CRS84" } },
"features": [
{ "type": "Feature", "properties": { "decimalLatitude": 22.04185, "decimalLongitude": -100.5968, "eventDate": "2015-05-29T12:00:00Z" }, "geometry": { "type": "Point", "coordinates": [ -100.5968, 22.04185 ] } },
{ "type": "Feature", "properties": { "decimalLatitude": 41.209926, "decimalLongitude": -111.832634, "eventDate": "2015-08-08T17:48:50Z" }, "geometry": { "type": "Point", "coordinates": [ -111.832634, 41.209926 ] } },
{ "type": "Feature", "properties": { "decimalLatitude": 39.456553, "decimalLongitude": -105.124897, "eventDate": "2015-08-18T10:40:00Z" }, "geometry": { "type": "Point", "coordinates": [ -105.124897, 39.456553 ] } },
{ "type": "Feature", "properties": { "decimalLatitude": 40.69922, "decimalLongitude": -111.719151, "eventDate": "2015-09-11T11:19:00Z" }, "geometry": { "type": "Point", "coordinates": [ -111.719151, 40.69922 ] } },
{ "type": "Feature", "properties": { "decimalLatitude": 38.598909, "decimalLongitude": -109.293192, "eventDate": "2016-06-29T18:45:01Z" }, "geometry": { "type": "Point", "coordinates": [ -109.293192, 38.598909 ] } },
{ "type": "Feature", "properties": { "decimalLatitude": 38.756784, "decimalLongitude": -104.924427, "eventDate": "2016-06-24T20:22:00Z" }, "geometry": { "type": "Point", "coordinates": [ -104.924427, 38.756784 ] } },
{ "type": "Feature", "properties": { "decimalLatitude": 38.402411, "decimalLongitude": -109.334815, "eventDate": "2016-07-12T17:57:34Z" }, "geometry": { "type": "Point", "coordinates": [ -109.334815, 38.402411 ] } },
{ "type": "Feature", "properties": { "decimalLatitude": 38.704922, "decimalLongitude": -104.83717, "eventDate": "2016-07-11T18:42:13Z" }, "geometry": { "type": "Point", "coordinates": [ -104.83717, 38.704922 ] } },
{ "type": "Feature", "properties": { "decimalLatitude": 38.704922, "decimalLongitude": -104.83717, "eventDate": "2016-07-11T16:42:13Z" }, "geometry": { "type": "Point", "coordinates": [ -104.83717, 38.704922 ] } },
{ "type": "Feature", "properties": { "decimalLatitude": 40.142628, "decimalLongitude": -107.790796, "eventDate": "2016-07-29T00:00:00Z" }, "geometry": { "type": "Point", "coordinates": [ -107.790796, 40.142628 ] } },
{ "type": "Feature", "properties": { "decimalLatitude": 40.721307, "decimalLongitude": -111.658041, "eventDate": "2016-07-21T00:00:00Z" }, "geometry": { "type": "Point", "coordinates": [ -111.658041, 40.721307 ] } },
{ "type": "Feature", "properties": { "decimalLatitude": 37.38714, "decimalLongitude": -113.034296, "eventDate": "2016-08-20T12:00:00Z" }, "geometry": { "type": "Point", "coordinates": [ -113.034296, 37.38714 ] } },
{ "type": "Feature", "properties": { "decimalLatitude": 38.733589, "decimalLongitude": -104.837585, "eventDate": "2016-08-10T00:00:00Z" }, "geometry": { "type": "Point", "coordinates": [ -104.837585, 38.733589 ] } },
{ "type": "Feature", "properties": { "decimalLatitude": 37.999677, "decimalLongitude": -108.035951, "eventDate": "2016-08-26T14:25:00Z" }, "geometry": { "type": "Point", "coordinates": [ -108.035951, 37.999677 ] } },
{ "type": "Feature", "properties": { "decimalLatitude": 40.481051, "decimalLongitude": -106.773685, "eventDate": "2016-08-18T20:58:10Z" }, "geometry": { "type": "Point", "coordinates": [ -106.773685, 40.481051 ] } },
{ "type": "Feature", "properties": { "decimalLatitude": 38.545971, "decimalLongitude": -109.302609, "eventDate": "2016-08-09T14:00:35Z" }, "geometry": { "type": "Point", "coordinates": [ -109.302609, 38.545971 ] } },
{ "type": "Feature", "properties": { "decimalLatitude": 39.576572, "decimalLongitude": -105.25125, "eventDate": "2016-01-01T00:00:00Z" }, "geometry": { "type": "Point", "coordinates": [ -105.25125, 39.576572 ] } },
{ "type": "Feature", "properties": { "decimalLatitude": 39.576572, "decimalLongitude": -105.25125, "eventDate": "2016-01-01T00:00:00Z" }, "geometry": { "type": "Point", "coordinates": [ -105.25125, 39.576572 ] } },
{ "type": "Feature", "properties": { "decimalLatitude": 31.712142, "decimalLongitude": -110.87564, "eventDate": "2017-06-21T08:26:00Z" }, "geometry": { "type": "Point", "coordinates": [ -110.87564, 31.712142 ] } },
{ "type": "Feature", "properties": { "decimalLatitude": 38.642216, "decimalLongitude": -104.90555, "eventDate": "2017-07-28T11:03:00Z" }, "geometry": { "type": "Point", "coordinates": [ -104.90555, 38.642216 ] } },
{ "type": "Feature", "properties": { "decimalLatitude": 38.488047, "decimalLongitude": -109.280692, "eventDate": "2017-08-27T09:19:51Z" }, "geometry": { "type": "Point", "coordinates": [ -109.280692, 38.488047 ] } },
{ "type": "Feature", "properties": { "decimalLatitude": 32.401428, "decimalLongitude": -110.691806, "eventDate": "2018-06-17T15:56:00Z" }, "geometry": { "type": "Point", "coordinates": [ -110.691806, 32.401428 ] } },
{ "type": "Feature", "properties": { "decimalLatitude": 36.90226, "decimalLongitude": -103.865311, "eventDate": "2018-06-20T14:43:00Z" }, "geometry": { "type": "Point", "coordinates": [ -103.865311, 36.90226 ] } },
{ "type": "Feature", "properties": { "decimalLatitude": 38.729155, "decimalLongitude": -104.83288, "eventDate": "2018-07-21T00:00:00Z" }, "geometry": { "type": "Point", "coordinates": [ -104.83288, 38.729155 ] } },
{ "type": "Feature", "properties": { "decimalLatitude": 39.571939, "decimalLongitude": -107.252663, "eventDate": "2018-07-02T12:59:00Z" }, "geometry": { "type": "Point", "coordinates": [ -107.252663, 39.571939 ] } },
{ "type": "Feature", "properties": { "decimalLatitude": 31.708546, "decimalLongitude": -110.876093, "eventDate": "2018-09-01T14:01:00Z" }, "geometry": { "type": "Point", "coordinates": [ -110.876093, 31.708546 ] } },
{ "type": "Feature", "properties": { "decimalLatitude": 32.411966, "decimalLongitude": -110.705731, "eventDate": "2019-06-29T06:32:00Z" }, "geometry": { "type": "Point", "coordinates": [ -110.705731, 32.411966 ] } },
{ "type": "Feature", "properties": { "decimalLatitude": 39.316463, "decimalLongitude": -107.948051, "eventDate": "2019-07-30T13:09:31Z" }, "geometry": { "type": "Point", "coordinates": [ -107.948051, 39.316463 ] } },
{ "type": "Feature", "properties": { "decimalLatitude": 39.191551, "decimalLongitude": -107.836952, "eventDate": "2019-07-30T09:46:51Z" }, "geometry": { "type": "Point", "coordinates": [ -107.836952, 39.191551 ] } },
{ "type": "Feature", "properties": { "decimalLatitude": 37.092542, "decimalLongitude": -104.482741, "eventDate": "2019-07-24T17:44:00Z" }, "geometry": { "type": "Point", "coordinates": [ -104.482741, 37.092542 ] } },
{ "type": "Feature", "properties": { "decimalLatitude": 37.092185, "decimalLongitude": -104.48527, "eventDate": "2019-07-23T16:30:00Z" }, "geometry": { "type": "Point", "coordinates": [ -104.48527, 37.092185 ] } },
{ "type": "Feature", "properties": { "decimalLatitude": 40.570776, "decimalLongitude": -106.880889, "eventDate": "2019-07-27T16:51:48Z" }, "geometry": { "type": "Point", "coordinates": [ -106.880889, 40.570776 ] } },
{ "type": "Feature", "properties": { "decimalLatitude": 31.675752, "decimalLongitude": -110.881082, "eventDate": "2019-08-29T15:12:00Z" }, "geometry": { "type": "Point", "coordinates": [ -110.881082, 31.675752 ] } },
{ "type": "Feature", "properties": { "decimalLatitude": 40.817771, "decimalLongitude": -111.821371, "eventDate": "2019-08-24T11:37:00Z" }, "geometry": { "type": "Point", "coordinates": [ -111.821371, 40.817771 ] } },
{ "type": "Feature", "properties": { "decimalLatitude": 39.264863, "decimalLongitude": -105.042686, "eventDate": "2019-08-15T00:00:00Z" }, "geometry": { "type": "Point", "coordinates": [ -105.042686, 39.264863 ] } },
{ "type": "Feature", "properties": { "decimalLatitude": 40.566618, "decimalLongitude": -106.876729, "eventDate": "2019-08-23T19:19:01Z" }, "geometry": { "type": "Point", "coordinates": [ -106.876729, 40.566618 ] } },
{ "type": "Feature", "properties": { "decimalLatitude": 32.66738, "decimalLongitude": -109.873276, "eventDate": "2020-06-25T11:41:58Z" }, "geometry": { "type": "Point", "coordinates": [ -109.873276, 32.66738 ] } },
{ "type": "Feature", "properties": { "decimalLatitude": 32.621794, "decimalLongitude": -109.823944, "eventDate": "2020-06-30T00:00:00Z" }, "geometry": { "type": "Point", "coordinates": [ -109.823944, 32.621794 ] } },
{ "type": "Feature", "properties": { "decimalLatitude": 32.621794, "decimalLongitude": -109.823944, "eventDate": "2020-06-30T10:35:00Z" }, "geometry": { "type": "Point", "coordinates": [ -109.823944, 32.621794 ] } },
{ "type": "Feature", "properties": { "decimalLatitude": 32.621794, "decimalLongitude": -109.823944, "eventDate": "2020-06-30T10:40:00Z" }, "geometry": { "type": "Point", "coordinates": [ -109.823944, 32.621794 ] } },
{ "type": "Feature", "properties": { "decimalLatitude": 32.621794, "decimalLongitude": -109.823944, "eventDate": "2020-06-30T10:15:00Z" }, "geometry": { "type": "Point", "coordinates": [ -109.823944, 32.621794 ] } },
{ "type": "Feature", "properties": { "decimalLatitude": 31.429344, "decimalLongitude": -110.316494, "eventDate": "2020-07-07T09:48:00Z" }, "geometry": { "type": "Point", "coordinates": [ -110.316494, 31.429344 ] } },
{ "type": "Feature", "properties": { "decimalLatitude": 31.692091, "decimalLongitude": -110.869917, "eventDate": "2020-07-03T10:10:15Z" }, "geometry": { "type": "Point", "coordinates": [ -110.869917, 31.692091 ] } },
{ "type": "Feature", "properties": { "decimalLatitude": 31.692088, "decimalLongitude": -110.870265, "eventDate": "2020-07-03T09:46:00Z" }, "geometry": { "type": "Point", "coordinates": [ -110.870265, 31.692088 ] } },
{ "type": "Feature", "properties": { "decimalLatitude": 31.693979, "decimalLongitude": -110.87675, "eventDate": "2020-07-03T11:20:00Z" }, "geometry": { "type": "Point", "coordinates": [ -110.87675, 31.693979 ] } },
{ "type": "Feature", "properties": { "decimalLatitude": 31.692032, "decimalLongitude": -110.870181, "eventDate": "2020-07-03T10:20:00Z" }, "geometry": { "type": "Point", "coordinates": [ -110.870181, 31.692032 ] } },
{ "type": "Feature", "properties": { "decimalLatitude": 40.481779, "decimalLongitude": -106.841949, "eventDate": "2020-07-22T13:38:03Z" }, "geometry": { "type": "Point", "coordinates": [ -106.841949, 40.481779 ] } },
{ "type": "Feature", "properties": { "decimalLatitude": 40.057566, "decimalLongitude": -111.589481, "eventDate": "2020-07-09T12:27:16Z" }, "geometry": { "type": "Point", "coordinates": [ -111.589481, 40.057566 ] } },
{ "type": "Feature", "properties": { "decimalLatitude": 38.440844, "decimalLongitude": -109.189909, "eventDate": "2020-07-14T22:58:22Z" }, "geometry": { "type": "Point", "coordinates": [ -109.189909, 38.440844 ] } },
{ "type": "Feature", "properties": { "decimalLatitude": 39.131338, "decimalLongitude": -104.830737, "eventDate": "2020-07-28T11:19:00Z" }, "geometry": { "type": "Point", "coordinates": [ -104.830737, 39.131338 ] } },
{ "type": "Feature", "properties": { "decimalLatitude": 40.829392, "decimalLongitude": -111.657178, "eventDate": "2020-07-27T10:07:30Z" }, "geometry": { "type": "Point", "coordinates": [ -111.657178, 40.829392 ] } },
{ "type": "Feature", "properties": { "decimalLatitude": 39.131338, "decimalLongitude": -104.830737, "eventDate": "2020-07-28T11:21:00Z" }, "geometry": { "type": "Point", "coordinates": [ -104.830737, 39.131338 ] } },
{ "type": "Feature", "properties": { "decimalLatitude": 40.26489, "decimalLongitude": -111.61141, "eventDate": "2020-07-26T00:00:00Z" }, "geometry": { "type": "Point", "coordinates": [ -111.61141, 40.26489 ] } },
{ "type": "Feature", "properties": { "decimalLatitude": 40.710564, "decimalLongitude": -111.678436, "eventDate": "2020-07-31T09:30:49Z" }, "geometry": { "type": "Point", "coordinates": [ -111.678436, 40.710564 ] } },
{ "type": "Feature", "properties": { "decimalLatitude": 32.62253, "decimalLongitude": -109.8227, "eventDate": "2020-07-03T08:44:57Z" }, "geometry": { "type": "Point", "coordinates": [ -109.8227, 32.62253 ] } },
{ "type": "Feature", "properties": { "decimalLatitude": 32.621794, "decimalLongitude": -109.823944, "eventDate": "2020-07-03T00:00:00Z" }, "geometry": { "type": "Point", "coordinates": [ -109.823944, 32.621794 ] } },
{ "type": "Feature", "properties": { "decimalLatitude": 32.660278, "decimalLongitude": -109.866038, "eventDate": "2020-07-05T08:43:00Z" }, "geometry": { "type": "Point", "coordinates": [ -109.866038, 32.660278 ] } },
{ "type": "Feature", "properties": { "decimalLatitude": 35.011977, "decimalLongitude": -111.738543, "eventDate": "2020-07-18T17:20:00Z" }, "geometry": { "type": "Point", "coordinates": [ -111.738543, 35.011977 ] } },
{ "type": "Feature", "properties": { "decimalLatitude": 39.415667, "decimalLongitude": -105.080465, "eventDate": "2020-08-16T09:45:00Z" }, "geometry": { "type": "Point", "coordinates": [ -105.080465, 39.415667 ] } },
{ "type": "Feature", "properties": { "decimalLatitude": 37.386946, "decimalLongitude": -113.033569, "eventDate": "2020-08-07T19:12:00Z" }, "geometry": { "type": "Point", "coordinates": [ -113.033569, 37.386946 ] } },
{ "type": "Feature", "properties": { "decimalLatitude": 32.203533, "decimalLongitude": -110.53275, "eventDate": "2020-08-09T08:24:00Z" }, "geometry": { "type": "Point", "coordinates": [ -110.53275, 32.203533 ] } },
{ "type": "Feature", "properties": { "decimalLatitude": 41.231167, "decimalLongitude": -111.836197, "eventDate": "2020-08-23T11:41:47Z" }, "geometry": { "type": "Point", "coordinates": [ -111.836197, 41.231167 ] } },
{ "type": "Feature", "properties": { "decimalLatitude": 36.392019, "decimalLongitude": -105.541558, "eventDate": "2020-08-06T13:13:00Z" }, "geometry": { "type": "Point", "coordinates": [ -105.541558, 36.392019 ] } },
{ "type": "Feature", "properties": { "decimalLatitude": 36.211527, "decimalLongitude": -112.049896, "eventDate": "2020-08-04T09:23:00Z" }, "geometry": { "type": "Point", "coordinates": [ -112.049896, 36.211527 ] } },
{ "type": "Feature", "properties": { "decimalLatitude": 37.336703, "decimalLongitude": -113.429051, "eventDate": "2021-04-24T00:00:00Z" }, "geometry": { "type": "Point", "coordinates": [ -113.429051, 37.336703 ] } },
{ "type": "Feature", "properties": { "decimalLatitude": 37.36456, "decimalLongitude": -113.590659, "eventDate": "2021-04-24T00:00:00Z" }, "geometry": { "type": "Point", "coordinates": [ -113.590659, 37.36456 ] } },
{ "type": "Feature", "properties": { "decimalLatitude": 37.317631, "decimalLongitude": -113.400508, "eventDate": "2021-05-01T00:00:00Z" }, "geometry": { "type": "Point", "coordinates": [ -113.400508, 37.317631 ] } },
{ "type": "Feature", "properties": { "decimalLatitude": 38.591273, "decimalLongitude": -109.264742, "eventDate": "2021-07-03T11:54:00Z" }, "geometry": { "type": "Point", "coordinates": [ -109.264742, 38.591273 ] } },
{ "type": "Feature", "properties": { "decimalLatitude": 32.406135, "decimalLongitude": -110.700838, "eventDate": "2021-07-15T15:50:00Z" }, "geometry": { "type": "Point", "coordinates": [ -110.700838, 32.406135 ] } },
{ "type": "Feature", "properties": { "decimalLatitude": 39.573829, "decimalLongitude": -107.292509, "eventDate": "2021-07-19T12:57:00Z" }, "geometry": { "type": "Point", "coordinates": [ -107.292509, 39.573829 ] } },
{ "type": "Feature", "properties": { "decimalLatitude": 38.729155, "decimalLongitude": -104.83288, "eventDate": "2021-07-18T09:41:00Z" }, "geometry": { "type": "Point", "coordinates": [ -104.83288, 38.729155 ] } },
{ "type": "Feature", "properties": { "decimalLatitude": 38.563425, "decimalLongitude": -107.689072, "eventDate": "2021-07-13T11:11:37Z" }, "geometry": { "type": "Point", "coordinates": [ -107.689072, 38.563425 ] } },
{ "type": "Feature", "properties": { "decimalLatitude": 32.959007, "decimalLongitude": -105.743525, "eventDate": "2021-07-28T16:32:41Z" }, "geometry": { "type": "Point", "coordinates": [ -105.743525, 32.959007 ] } },
{ "type": "Feature", "properties": { "decimalLatitude": 32.804393, "decimalLongitude": -105.659571, "eventDate": "2021-07-27T08:50:56Z" }, "geometry": { "type": "Point", "coordinates": [ -105.659571, 32.804393 ] } },
{ "type": "Feature", "properties": { "decimalLatitude": 17.335781, "decimalLongitude": -96.847984, "eventDate": "2021-07-28T00:00:00Z" }, "geometry": { "type": "Point", "coordinates": [ -96.847984, 17.335781 ] } },
{ "type": "Feature", "properties": { "decimalLatitude": 38.556183, "decimalLongitude": -107.690164, "eventDate": "2021-07-25T11:36:00Z" }, "geometry": { "type": "Point", "coordinates": [ -107.690164, 38.556183 ] } },
{ "type": "Feature", "properties": { "decimalLatitude": 35.830492, "decimalLongitude": -105.664631, "eventDate": "2021-08-04T11:24:00Z" }, "geometry": { "type": "Point", "coordinates": [ -105.664631, 35.830492 ] } },
{ "type": "Feature", "properties": { "decimalLatitude": 39.431575, "decimalLongitude": -105.070044, "eventDate": "2021-08-21T10:52:09Z" }, "geometry": { "type": "Point", "coordinates": [ -105.070044, 39.431575 ] } },
{ "type": "Feature", "properties": { "decimalLatitude": 39.42984, "decimalLongitude": -105.068871, "eventDate": "2021-08-04T10:34:39Z" }, "geometry": { "type": "Point", "coordinates": [ -105.068871, 39.42984 ] } },
{ "type": "Feature", "properties": { "decimalLatitude": 39.241073, "decimalLongitude": -106.903798, "eventDate": "2021-08-23T12:37:00Z" }, "geometry": { "type": "Point", "coordinates": [ -106.903798, 39.241073 ] } },
{ "type": "Feature", "properties": { "decimalLatitude": 37.144592, "decimalLongitude": -106.884833, "eventDate": "2021-09-10T16:10:22Z" }, "geometry": { "type": "Point", "coordinates": [ -106.884833, 37.144592 ] } },
{ "type": "Feature", "properties": { "decimalLatitude": 31.918488, "decimalLongitude": -109.279057, "eventDate": "2021-09-08T09:56:58Z" }, "geometry": { "type": "Point", "coordinates": [ -109.279057, 31.918488 ] } },
{ "type": "Feature", "properties": { "decimalLatitude": 31.474865, "decimalLongitude": -110.372506, "eventDate": "2021-10-15T12:27:00Z" }, "geometry": { "type": "Point", "coordinates": [ -110.372506, 31.474865 ] } },
{ "type": "Feature", "properties": { "decimalLatitude": 31.712148, "decimalLongitude": -110.875728, "eventDate": "2021-11-12T05:22:00Z" }, "geometry": { "type": "Point", "coordinates": [ -110.875728, 31.712148 ] } },
{ "type": "Feature", "properties": { "decimalLatitude": 31.7123, "decimalLongitude": -110.875093, "eventDate": "2021-11-11T13:16:00Z" }, "geometry": { "type": "Point", "coordinates": [ -110.875093, 31.7123 ] } },
{ "type": "Feature", "properties": { "decimalLatitude": 31.712362, "decimalLongitude": -110.875404, "eventDate": "2021-11-11T13:16:00Z" }, "geometry": { "type": "Point", "coordinates": [ -110.875404, 31.712362 ] } },
{ "type": "Feature", "properties": { "decimalLatitude": 36.907787, "decimalLongitude": -104.066437, "eventDate": "2022-07-10T11:11:00Z" }, "geometry": { "type": "Point", "coordinates": [ -104.066437, 36.907787 ] } },
{ "type": "Feature", "properties": { "decimalLatitude": 40.443049, "decimalLongitude": -111.714966, "eventDate": "2022-07-10T00:00:00Z" }, "geometry": { "type": "Point", "coordinates": [ -111.714966, 40.443049 ] } },
{ "type": "Feature", "properties": { "decimalLatitude": 35.181369, "decimalLongitude": -106.376321, "eventDate": "2022-07-07T13:47:00Z" }, "geometry": { "type": "Point", "coordinates": [ -106.376321, 35.181369 ] } },
{ "type": "Feature", "properties": { "decimalLatitude": 35.193586, "decimalLongitude": -106.401753, "eventDate": "2022-07-10T10:43:29Z" }, "geometry": { "type": "Point", "coordinates": [ -106.401753, 35.193586 ] } },
{ "type": "Feature", "properties": { "decimalLatitude": 40.694703, "decimalLongitude": -111.710592, "eventDate": "2022-07-28T11:19:54Z" }, "geometry": { "type": "Point", "coordinates": [ -111.710592, 40.694703 ] } },
{ "type": "Feature", "properties": { "decimalLatitude": 31.711074, "decimalLongitude": -110.874887, "eventDate": "2022-07-31T12:29:00Z" }, "geometry": { "type": "Point", "coordinates": [ -110.874887, 31.711074 ] } },
{ "type": "Feature", "properties": { "decimalLatitude": 32.412254, "decimalLongitude": -110.707296, "eventDate": "2022-07-29T11:31:00Z" }, "geometry": { "type": "Point", "coordinates": [ -110.707296, 32.412254 ] } },
{ "type": "Feature", "properties": { "decimalLatitude": 31.674984, "decimalLongitude": -110.887935, "eventDate": "2022-07-31T11:49:00Z" }, "geometry": { "type": "Point", "coordinates": [ -110.887935, 31.674984 ] } },
{ "type": "Feature", "properties": { "decimalLatitude": 31.677408, "decimalLongitude": -110.883876, "eventDate": "2022-07-31T11:28:00Z" }, "geometry": { "type": "Point", "coordinates": [ -110.883876, 31.677408 ] } },
{ "type": "Feature", "properties": { "decimalLatitude": 35.213866, "decimalLongitude": -106.407685, "eventDate": "2022-07-11T09:20:00Z" }, "geometry": { "type": "Point", "coordinates": [ -106.407685, 35.213866 ] } },
{ "type": "Feature", "properties": { "decimalLatitude": 35.130861, "decimalLongitude": -106.455563, "eventDate": "2022-08-05T13:27:00Z" }, "geometry": { "type": "Point", "coordinates": [ -106.455563, 35.130861 ] } },
{ "type": "Feature", "properties": { "decimalLatitude": 35.735338, "decimalLongitude": -105.862666, "eventDate": "2022-08-09T08:04:00Z" }, "geometry": { "type": "Point", "coordinates": [ -105.862666, 35.735338 ] } },
{ "type": "Feature", "properties": { "decimalLatitude": 39.214365, "decimalLongitude": -107.179219, "eventDate": "2022-08-14T13:02:46Z" }, "geometry": { "type": "Point", "coordinates": [ -107.179219, 39.214365 ] } },
{ "type": "Feature", "properties": { "decimalLatitude": 40.566717, "decimalLongitude": -111.792461, "eventDate": "2022-08-21T09:38:57Z" }, "geometry": { "type": "Point", "coordinates": [ -111.792461, 40.566717 ] } },
{ "type": "Feature", "properties": { "decimalLatitude": 40.169647, "decimalLongitude": -111.474342, "eventDate": "2022-08-31T18:20:27Z" }, "geometry": { "type": "Point", "coordinates": [ -111.474342, 40.169647 ] } },
{ "type": "Feature", "properties": { "decimalLatitude": 37.508173, "decimalLongitude": -113.15986, "eventDate": "2022-09-10T12:57:57Z" }, "geometry": { "type": "Point", "coordinates": [ -113.15986, 37.508173 ] } },
{ "type": "Feature", "properties": { "decimalLatitude": 39.44145, "decimalLongitude": -105.071167, "eventDate": "2022-09-02T00:00:00Z" }, "geometry": { "type": "Point", "coordinates": [ -105.071167, 39.44145 ] } },
{ "type": "Feature", "properties": { "decimalLatitude": 31.675472, "decimalLongitude": -110.881081, "eventDate": "2022-10-01T17:56:00Z" }, "geometry": { "type": "Point", "coordinates": [ -110.881081, 31.675472 ] } },
{ "type": "Feature", "properties": { "decimalLatitude": 31.447043, "decimalLongitude": -110.309, "eventDate": "2022-10-28T00:00:00Z" }, "geometry": { "type": "Point", "coordinates": [ -110.309, 31.447043 ] } },
{ "type": "Feature", "properties": { "decimalLatitude": 32.41167, "decimalLongitude": -110.70532, "eventDate": "2023-06-30T10:02:00Z" }, "geometry": { "type": "Point", "coordinates": [ -110.70532, 32.41167 ] } },
{ "type": "Feature", "properties": { "decimalLatitude": 32.41167, "decimalLongitude": -110.70532, "eventDate": "2023-06-30T09:59:00Z" }, "geometry": { "type": "Point", "coordinates": [ -110.70532, 32.41167 ] } },
{ "type": "Feature", "properties": { "decimalLatitude": 31.371714, "decimalLongitude": -110.287183, "eventDate": "2023-06-24T12:34:00Z" }, "geometry": { "type": "Point", "coordinates": [ -110.287183, 31.371714 ] } },
{ "type": "Feature", "properties": { "decimalLatitude": 31.379196, "decimalLongitude": -110.29117, "eventDate": "2023-06-24T13:10:00Z" }, "geometry": { "type": "Point", "coordinates": [ -110.29117, 31.379196 ] } },
{ "type": "Feature", "properties": { "decimalLatitude": 31.38574, "decimalLongitude": -110.294837, "eventDate": "2023-06-24T14:03:00Z" }, "geometry": { "type": "Point", "coordinates": [ -110.294837, 31.38574 ] } },
{ "type": "Feature", "properties": { "decimalLatitude": 31.366314, "decimalLongitude": -110.285149, "eventDate": "2023-06-24T18:40:00Z" }, "geometry": { "type": "Point", "coordinates": [ -110.285149, 31.366314 ] } },
{ "type": "Feature", "properties": { "decimalLatitude": 32.663182, "decimalLongitude": -109.868163, "eventDate": "2023-07-03T10:58:00Z" }, "geometry": { "type": "Point", "coordinates": [ -109.868163, 32.663182 ] } },
{ "type": "Feature", "properties": { "decimalLatitude": 32.413159, "decimalLongitude": -110.708158, "eventDate": "2023-07-09T10:10:00Z" }, "geometry": { "type": "Point", "coordinates": [ -110.708158, 32.413159 ] } },
{ "type": "Feature", "properties": { "decimalLatitude": 32.413172, "decimalLongitude": -110.709308, "eventDate": "2023-07-09T08:56:00Z" }, "geometry": { "type": "Point", "coordinates": [ -110.709308, 32.413172 ] } },
{ "type": "Feature", "properties": { "decimalLatitude": 32.413172, "decimalLongitude": -110.709308, "eventDate": "2023-07-05T09:09:00Z" }, "geometry": { "type": "Point", "coordinates": [ -110.709308, 32.413172 ] } },
{ "type": "Feature", "properties": { "decimalLatitude": 32.622496, "decimalLongitude": -109.823632, "eventDate": "2023-07-09T04:22:00Z" }, "geometry": { "type": "Point", "coordinates": [ -109.823632, 32.622496 ] } },
{ "type": "Feature", "properties": { "decimalLatitude": 32.413159, "decimalLongitude": -110.708158, "eventDate": "2023-07-09T10:02:00Z" }, "geometry": { "type": "Point", "coordinates": [ -110.708158, 32.413159 ] } },
{ "type": "Feature", "properties": { "decimalLatitude": 32.622105, "decimalLongitude": -109.823564, "eventDate": "2023-07-08T09:22:00Z" }, "geometry": { "type": "Point", "coordinates": [ -109.823564, 32.622105 ] } },
{ "type": "Feature", "properties": { "decimalLatitude": 32.413172, "decimalLongitude": -110.709308, "eventDate": "2023-07-09T08:55:00Z" }, "geometry": { "type": "Point", "coordinates": [ -110.709308, 32.413172 ] } },
{ "type": "Feature", "properties": { "decimalLatitude": 32.622689, "decimalLongitude": -109.824573, "eventDate": "2023-07-08T09:24:00Z" }, "geometry": { "type": "Point", "coordinates": [ -109.824573, 32.622689 ] } },
{ "type": "Feature", "properties": { "decimalLatitude": 32.623402, "decimalLongitude": -109.822855, "eventDate": "2023-07-08T09:28:00Z" }, "geometry": { "type": "Point", "coordinates": [ -109.822855, 32.623402 ] } },
{ "type": "Feature", "properties": { "decimalLatitude": 32.623402, "decimalLongitude": -109.822855, "eventDate": "2023-07-08T08:28:00Z" }, "geometry": { "type": "Point", "coordinates": [ -109.822855, 32.623402 ] } },
{ "type": "Feature", "properties": { "decimalLatitude": 32.623402, "decimalLongitude": -109.822855, "eventDate": "2023-07-08T08:36:00Z" }, "geometry": { "type": "Point", "coordinates": [ -109.822855, 32.623402 ] } },
{ "type": "Feature", "properties": { "decimalLatitude": 32.413172, "decimalLongitude": -110.709308, "eventDate": "2023-07-05T09:07:00Z" }, "geometry": { "type": "Point", "coordinates": [ -110.709308, 32.413172 ] } },
{ "type": "Feature", "properties": { "decimalLatitude": 32.623402, "decimalLongitude": -109.822855, "eventDate": "2023-07-08T08:37:00Z" }, "geometry": { "type": "Point", "coordinates": [ -109.822855, 32.623402 ] } },
{ "type": "Feature", "properties": { "decimalLatitude": 32.411959, "decimalLongitude": -110.705883, "eventDate": "2023-07-14T15:04:00Z" }, "geometry": { "type": "Point", "coordinates": [ -110.705883, 32.411959 ] } },
{ "type": "Feature", "properties": { "decimalLatitude": 32.621667, "decimalLongitude": -109.824802, "eventDate": "2023-07-14T08:08:00Z" }, "geometry": { "type": "Point", "coordinates": [ -109.824802, 32.621667 ] } },
{ "type": "Feature", "properties": { "decimalLatitude": 32.41204, "decimalLongitude": -110.705805, "eventDate": "2023-07-14T15:01:00Z" }, "geometry": { "type": "Point", "coordinates": [ -110.705805, 32.41204 ] } },
{ "type": "Feature", "properties": { "decimalLatitude": 32.622596, "decimalLongitude": -109.820325, "eventDate": "2023-07-15T10:34:00Z" }, "geometry": { "type": "Point", "coordinates": [ -109.820325, 32.622596 ] } },
{ "type": "Feature", "properties": { "decimalLatitude": 32.622681, "decimalLongitude": -109.82122, "eventDate": "2023-07-15T10:08:00Z" }, "geometry": { "type": "Point", "coordinates": [ -109.82122, 32.622681 ] } },
{ "type": "Feature", "properties": { "decimalLatitude": 38.557365, "decimalLongitude": -107.66776, "eventDate": "2023-07-18T09:30:18Z" }, "geometry": { "type": "Point", "coordinates": [ -107.66776, 38.557365 ] } },
{ "type": "Feature", "properties": { "decimalLatitude": 35.174782, "decimalLongitude": -106.3806, "eventDate": "2023-07-12T09:15:00Z" }, "geometry": { "type": "Point", "coordinates": [ -106.3806, 35.174782 ] } },
{ "type": "Feature", "properties": { "decimalLatitude": 35.133132, "decimalLongitude": -106.470731, "eventDate": "2023-07-25T09:45:24Z" }, "geometry": { "type": "Point", "coordinates": [ -106.470731, 35.133132 ] } },
{ "type": "Feature", "properties": { "decimalLatitude": 39.529675, "decimalLongitude": -107.248962, "eventDate": "2023-07-25T13:11:52Z" }, "geometry": { "type": "Point", "coordinates": [ -107.248962, 39.529675 ] } },
{ "type": "Feature", "properties": { "decimalLatitude": 31.675701, "decimalLongitude": -110.881061, "eventDate": "2023-07-29T10:48:00Z" }, "geometry": { "type": "Point", "coordinates": [ -110.881061, 31.675701 ] } },
{ "type": "Feature", "properties": { "decimalLatitude": 37.881613, "decimalLongitude": -109.442061, "eventDate": "2023-07-24T00:00:00Z" }, "geometry": { "type": "Point", "coordinates": [ -109.442061, 37.881613 ] } },
{ "type": "Feature", "properties": { "decimalLatitude": 38.95244, "decimalLongitude": -104.610566, "eventDate": "2023-07-27T13:53:00Z" }, "geometry": { "type": "Point", "coordinates": [ -104.610566, 38.95244 ] } },
{ "type": "Feature", "properties": { "decimalLatitude": 35.985181, "decimalLongitude": -105.793862, "eventDate": "2023-07-29T13:47:00Z" }, "geometry": { "type": "Point", "coordinates": [ -105.793862, 35.985181 ] } },
{ "type": "Feature", "properties": { "decimalLatitude": 39.528606, "decimalLongitude": -107.25626, "eventDate": "2023-07-25T12:05:00Z" }, "geometry": { "type": "Point", "coordinates": [ -107.25626, 39.528606 ] } },
{ "type": "Feature", "properties": { "decimalLatitude": 39.528606, "decimalLongitude": -107.25626, "eventDate": "2023-07-25T11:59:00Z" }, "geometry": { "type": "Point", "coordinates": [ -107.25626, 39.528606 ] } },
{ "type": "Feature", "properties": { "decimalLatitude": 32.623016, "decimalLongitude": -109.82324, "eventDate": "2023-07-28T12:27:00Z" }, "geometry": { "type": "Point", "coordinates": [ -109.82324, 32.623016 ] } },
{ "type": "Feature", "properties": { "decimalLatitude": 37.356924, "decimalLongitude": -107.657293, "eventDate": "2023-07-26T09:26:00Z" }, "geometry": { "type": "Point", "coordinates": [ -107.657293, 37.356924 ] } },
{ "type": "Feature", "properties": { "decimalLatitude": 39.528606, "decimalLongitude": -107.25626, "eventDate": "2023-07-25T13:13:00Z" }, "geometry": { "type": "Point", "coordinates": [ -107.25626, 39.528606 ] } },
{ "type": "Feature", "properties": { "decimalLatitude": 35.187094, "decimalLongitude": -111.642727, "eventDate": "2023-07-19T09:13:02Z" }, "geometry": { "type": "Point", "coordinates": [ -111.642727, 35.187094 ] } },
{ "type": "Feature", "properties": { "decimalLatitude": 40.627566, "decimalLongitude": -111.728039, "eventDate": "2023-07-24T16:36:23Z" }, "geometry": { "type": "Point", "coordinates": [ -111.728039, 40.627566 ] } },
{ "type": "Feature", "properties": { "decimalLatitude": 40.956213, "decimalLongitude": -111.609933, "eventDate": "2023-07-28T09:32:21Z" }, "geometry": { "type": "Point", "coordinates": [ -111.609933, 40.956213 ] } },
{ "type": "Feature", "properties": { "decimalLatitude": 39.609432, "decimalLongitude": -105.210823, "eventDate": "2023-07-29T10:47:00Z" }, "geometry": { "type": "Point", "coordinates": [ -105.210823, 39.609432 ] } },
{ "type": "Feature", "properties": { "decimalLatitude": 39.609432, "decimalLongitude": -105.210823, "eventDate": "2023-07-29T10:42:00Z" }, "geometry": { "type": "Point", "coordinates": [ -105.210823, 39.609432 ] } },
{ "type": "Feature", "properties": { "decimalLatitude": 38.55936, "decimalLongitude": -107.687274, "eventDate": "2023-07-24T18:35:00Z" }, "geometry": { "type": "Point", "coordinates": [ -107.687274, 38.55936 ] } },
{ "type": "Feature", "properties": { "decimalLatitude": 32.413172, "decimalLongitude": -110.708851, "eventDate": "2023-07-27T11:56:00Z" }, "geometry": { "type": "Point", "coordinates": [ -110.708851, 32.413172 ] } },
{ "type": "Feature", "properties": { "decimalLatitude": 32.413172, "decimalLongitude": -110.708851, "eventDate": "2023-07-27T12:06:00Z" }, "geometry": { "type": "Point", "coordinates": [ -110.708851, 32.413172 ] } },
{ "type": "Feature", "properties": { "decimalLatitude": 32.413172, "decimalLongitude": -110.709308, "eventDate": "2023-07-14T09:19:00Z" }, "geometry": { "type": "Point", "coordinates": [ -110.709308, 32.413172 ] } },
{ "type": "Feature", "properties": { "decimalLatitude": 32.413172, "decimalLongitude": -110.709308, "eventDate": "2023-07-12T08:32:00Z" }, "geometry": { "type": "Point", "coordinates": [ -110.709308, 32.413172 ] } },
{ "type": "Feature", "properties": { "decimalLatitude": 31.437557, "decimalLongitude": -110.318934, "eventDate": "2023-07-01T12:06:00Z" }, "geometry": { "type": "Point", "coordinates": [ -110.318934, 31.437557 ] } },
{ "type": "Feature", "properties": { "decimalLatitude": 32.6228, "decimalLongitude": -109.820955, "eventDate": "2023-07-03T07:19:00Z" }, "geometry": { "type": "Point", "coordinates": [ -109.820955, 32.6228 ] } },
{ "type": "Feature", "properties": { "decimalLatitude": 32.622675, "decimalLongitude": -109.824238, "eventDate": "2023-07-03T08:13:00Z" }, "geometry": { "type": "Point", "coordinates": [ -109.824238, 32.622675 ] } },
{ "type": "Feature", "properties": { "decimalLatitude": 32.707103, "decimalLongitude": -109.963683, "eventDate": "2023-07-11T07:28:00Z" }, "geometry": { "type": "Point", "coordinates": [ -109.963683, 32.707103 ] } },
{ "type": "Feature", "properties": { "decimalLatitude": 32.62211, "decimalLongitude": -109.82227, "eventDate": "2023-07-08T08:38:00Z" }, "geometry": { "type": "Point", "coordinates": [ -109.82227, 32.62211 ] } },
{ "type": "Feature", "properties": { "decimalLatitude": 32.623563, "decimalLongitude": -109.823634, "eventDate": "2023-07-03T13:23:00Z" }, "geometry": { "type": "Point", "coordinates": [ -109.823634, 32.623563 ] } },
{ "type": "Feature", "properties": { "decimalLatitude": 32.623249, "decimalLongitude": -109.823413, "eventDate": "2023-07-08T14:42:00Z" }, "geometry": { "type": "Point", "coordinates": [ -109.823413, 32.623249 ] } },
{ "type": "Feature", "properties": { "decimalLatitude": 40.674444, "decimalLongitude": -111.486389, "eventDate": "2023-07-30T11:04:00Z" }, "geometry": { "type": "Point", "coordinates": [ -111.486389, 40.674444 ] } },
{ "type": "Feature", "properties": { "decimalLatitude": 39.470332, "decimalLongitude": -107.047723, "eventDate": "2023-07-30T13:01:00Z" }, "geometry": { "type": "Point", "coordinates": [ -107.047723, 39.470332 ] } },
{ "type": "Feature", "properties": { "decimalLatitude": 37.489133, "decimalLongitude": -107.539395, "eventDate": "2023-08-02T12:14:59Z" }, "geometry": { "type": "Point", "coordinates": [ -107.539395, 37.489133 ] } },
{ "type": "Feature", "properties": { "decimalLatitude": 37.480084, "decimalLongitude": -107.541789, "eventDate": "2023-08-02T10:22:08Z" }, "geometry": { "type": "Point", "coordinates": [ -107.541789, 37.480084 ] } },
{ "type": "Feature", "properties": { "decimalLatitude": 39.2109, "decimalLongitude": -105.06457, "eventDate": "2023-08-08T16:51:00Z" }, "geometry": { "type": "Point", "coordinates": [ -105.06457, 39.2109 ] } },
{ "type": "Feature", "properties": { "decimalLatitude": 40.825552, "decimalLongitude": -111.790029, "eventDate": "2023-08-12T12:12:10Z" }, "geometry": { "type": "Point", "coordinates": [ -111.790029, 40.825552 ] } },
{ "type": "Feature", "properties": { "decimalLatitude": 41.203857, "decimalLongitude": -111.928604, "eventDate": "2023-08-12T10:34:13Z" }, "geometry": { "type": "Point", "coordinates": [ -111.928604, 41.203857 ] } },
{ "type": "Feature", "properties": { "decimalLatitude": 40.822567, "decimalLongitude": -111.78872, "eventDate": "2023-08-12T12:14:51Z" }, "geometry": { "type": "Point", "coordinates": [ -111.78872, 40.822567 ] } },
{ "type": "Feature", "properties": { "decimalLatitude": 40.750266, "decimalLongitude": -111.715073, "eventDate": "2023-08-20T10:52:43Z" }, "geometry": { "type": "Point", "coordinates": [ -111.715073, 40.750266 ] } },
{ "type": "Feature", "properties": { "decimalLatitude": 35.198235, "decimalLongitude": -111.651302, "eventDate": "2023-08-20T16:13:51Z" }, "geometry": { "type": "Point", "coordinates": [ -111.651302, 35.198235 ] } },
{ "type": "Feature", "properties": { "decimalLatitude": 31.698387, "decimalLongitude": -110.874373, "eventDate": "2023-08-06T09:06:00Z" }, "geometry": { "type": "Point", "coordinates": [ -110.874373, 31.698387 ] } },
{ "type": "Feature", "properties": { "decimalLatitude": 31.697784, "decimalLongitude": -110.873831, "eventDate": "2023-08-06T11:46:00Z" }, "geometry": { "type": "Point", "coordinates": [ -110.873831, 31.697784 ] } },
{ "type": "Feature", "properties": { "decimalLatitude": 31.7131, "decimalLongitude": -110.87399, "eventDate": "2023-09-27T11:01:00Z" }, "geometry": { "type": "Point", "coordinates": [ -110.87399, 31.7131 ] } },
{ "type": "Feature", "properties": { "decimalLatitude": 35.245676, "decimalLongitude": -111.595885, "eventDate": "2024-06-29T09:34:24Z" }, "geometry": { "type": "Point", "coordinates": [ -111.595885, 35.245676 ] } },
{ "type": "Feature", "properties": { "decimalLatitude": 32.621794, "decimalLongitude": -109.823944, "eventDate": "2024-07-05T08:19:00Z" }, "geometry": { "type": "Point", "coordinates": [ -109.823944, 32.621794 ] } },
{ "type": "Feature", "properties": { "decimalLatitude": 32.413173, "decimalLongitude": -110.708507, "eventDate": "2024-07-15T13:27:00Z" }, "geometry": { "type": "Point", "coordinates": [ -110.708507, 32.413173 ] } },
{ "type": "Feature", "properties": { "decimalLatitude": 32.621794, "decimalLongitude": -109.823944, "eventDate": "2024-07-13T10:31:00Z" }, "geometry": { "type": "Point", "coordinates": [ -109.823944, 32.621794 ] } },
{ "type": "Feature", "properties": { "decimalLatitude": 32.621794, "decimalLongitude": -109.823944, "eventDate": "2024-07-05T08:25:00Z" }, "geometry": { "type": "Point", "coordinates": [ -109.823944, 32.621794 ] } },
{ "type": "Feature", "properties": { "decimalLatitude": 32.621794, "decimalLongitude": -109.823944, "eventDate": "2024-07-13T09:01:00Z" }, "geometry": { "type": "Point", "coordinates": [ -109.823944, 32.621794 ] } },
{ "type": "Feature", "properties": { "decimalLatitude": 40.613727, "decimalLongitude": -111.779624, "eventDate": "2024-07-10T10:06:58Z" }, "geometry": { "type": "Point", "coordinates": [ -111.779624, 40.613727 ] } },
{ "type": "Feature", "properties": { "decimalLatitude": 32.621794, "decimalLongitude": -109.823944, "eventDate": "2024-07-13T10:45:00Z" }, "geometry": { "type": "Point", "coordinates": [ -109.823944, 32.621794 ] } },
{ "type": "Feature", "properties": { "decimalLatitude": 32.41167, "decimalLongitude": -110.70532, "eventDate": "2024-07-11T10:04:00Z" }, "geometry": { "type": "Point", "coordinates": [ -110.70532, 32.41167 ] } },
{ "type": "Feature", "properties": { "decimalLatitude": 39.629688, "decimalLongitude": -105.227101, "eventDate": "2024-07-10T12:14:00Z" }, "geometry": { "type": "Point", "coordinates": [ -105.227101, 39.629688 ] } },
{ "type": "Feature", "properties": { "decimalLatitude": 32.919461, "decimalLongitude": -107.766208, "eventDate": "2024-07-06T16:45:00Z" }, "geometry": { "type": "Point", "coordinates": [ -107.766208, 32.919461 ] } },
{ "type": "Feature", "properties": { "decimalLatitude": 32.638604, "decimalLongitude": -109.848945, "eventDate": "2024-07-05T12:01:00Z" }, "geometry": { "type": "Point", "coordinates": [ -109.848945, 32.638604 ] } },
{ "type": "Feature", "properties": { "decimalLatitude": 38.732234, "decimalLongitude": -104.857649, "eventDate": "2024-07-05T12:38:00Z" }, "geometry": { "type": "Point", "coordinates": [ -104.857649, 38.732234 ] } },
{ "type": "Feature", "properties": { "decimalLatitude": 41.306901, "decimalLongitude": -111.584735, "eventDate": "2024-07-11T10:58:55Z" }, "geometry": { "type": "Point", "coordinates": [ -111.584735, 41.306901 ] } },
{ "type": "Feature", "properties": { "decimalLatitude": 32.90193, "decimalLongitude": -108.165658, "eventDate": "2024-07-08T18:44:00Z" }, "geometry": { "type": "Point", "coordinates": [ -108.165658, 32.90193 ] } },
{ "type": "Feature", "properties": { "decimalLatitude": 32.621794, "decimalLongitude": -109.823944, "eventDate": "2024-07-13T10:54:00Z" }, "geometry": { "type": "Point", "coordinates": [ -109.823944, 32.621794 ] } },
{ "type": "Feature", "properties": { "decimalLatitude": 37.698553, "decimalLongitude": -109.938236, "eventDate": "2024-07-13T13:49:03Z" }, "geometry": { "type": "Point", "coordinates": [ -109.938236, 37.698553 ] } },
{ "type": "Feature", "properties": { "decimalLatitude": 39.610565, "decimalLongitude": -105.218238, "eventDate": "2024-07-17T09:57:00Z" }, "geometry": { "type": "Point", "coordinates": [ -105.218238, 39.610565 ] } },
{ "type": "Feature", "properties": { "decimalLatitude": 39.610657, "decimalLongitude": -105.217364, "eventDate": "2024-07-17T10:53:00Z" }, "geometry": { "type": "Point", "coordinates": [ -105.217364, 39.610657 ] } },
{ "type": "Feature", "properties": { "decimalLatitude": 32.621794, "decimalLongitude": -109.823944, "eventDate": "2024-07-05T12:53:00Z" }, "geometry": { "type": "Point", "coordinates": [ -109.823944, 32.621794 ] } },
{ "type": "Feature", "properties": { "decimalLatitude": 33.990544, "decimalLongitude": -107.175816, "eventDate": "2024-07-12T12:19:00Z" }, "geometry": { "type": "Point", "coordinates": [ -107.175816, 33.990544 ] } },
{ "type": "Feature", "properties": { "decimalLatitude": 39.611414, "decimalLongitude": -105.220018, "eventDate": "2024-07-19T00:00:00Z" }, "geometry": { "type": "Point", "coordinates": [ -105.220018, 39.611414 ] } },
{ "type": "Feature", "properties": { "decimalLatitude": 39.611414, "decimalLongitude": -105.220018, "eventDate": "2024-07-19T00:00:00Z" }, "geometry": { "type": "Point", "coordinates": [ -105.220018, 39.611414 ] } },
{ "type": "Feature", "properties": { "decimalLatitude": 35.192856, "decimalLongitude": -106.403568, "eventDate": "2024-07-18T11:00:00Z" }, "geometry": { "type": "Point", "coordinates": [ -106.403568, 35.192856 ] } },
{ "type": "Feature", "properties": { "decimalLatitude": 39.10527, "decimalLongitude": -104.927933, "eventDate": "2024-07-19T14:37:44Z" }, "geometry": { "type": "Point", "coordinates": [ -104.927933, 39.10527 ] } },
{ "type": "Feature", "properties": { "decimalLatitude": 39.426704, "decimalLongitude": -105.068388, "eventDate": "2024-07-19T10:24:00Z" }, "geometry": { "type": "Point", "coordinates": [ -105.068388, 39.426704 ] } },
{ "type": "Feature", "properties": { "decimalLatitude": 35.1872, "decimalLongitude": -106.377395, "eventDate": "2024-07-04T17:42:58Z" }, "geometry": { "type": "Point", "coordinates": [ -106.377395, 35.1872 ] } },
{ "type": "Feature", "properties": { "decimalLatitude": 40.67228, "decimalLongitude": -111.766173, "eventDate": "2024-07-21T10:51:54Z" }, "geometry": { "type": "Point", "coordinates": [ -111.766173, 40.67228 ] } },
{ "type": "Feature", "properties": { "decimalLatitude": 39.435393, "decimalLongitude": -105.074309, "eventDate": "2024-07-21T08:49:00Z" }, "geometry": { "type": "Point", "coordinates": [ -105.074309, 39.435393 ] } },
{ "type": "Feature", "properties": { "decimalLatitude": 39.611685, "decimalLongitude": -105.218652, "eventDate": "2024-07-18T10:53:00Z" }, "geometry": { "type": "Point", "coordinates": [ -105.218652, 39.611685 ] } },
{ "type": "Feature", "properties": { "decimalLatitude": 40.45793, "decimalLongitude": -111.550605, "eventDate": "2024-07-23T09:52:57Z" }, "geometry": { "type": "Point", "coordinates": [ -111.550605, 40.45793 ] } },
{ "type": "Feature", "properties": { "decimalLatitude": 39.426809, "decimalLongitude": -105.068135, "eventDate": "2024-07-19T10:31:00Z" }, "geometry": { "type": "Point", "coordinates": [ -105.068135, 39.426809 ] } },
{ "type": "Feature", "properties": { "decimalLatitude": 40.82885, "decimalLongitude": -111.60786, "eventDate": "2024-07-21T10:21:00Z" }, "geometry": { "type": "Point", "coordinates": [ -111.60786, 40.82885 ] } },
{ "type": "Feature", "properties": { "decimalLatitude": 40.40186, "decimalLongitude": -111.602842, "eventDate": "2024-07-22T14:55:00Z" }, "geometry": { "type": "Point", "coordinates": [ -111.602842, 40.40186 ] } },
{ "type": "Feature", "properties": { "decimalLatitude": 39.115155, "decimalLongitude": -104.934628, "eventDate": "2024-07-27T11:35:00Z" }, "geometry": { "type": "Point", "coordinates": [ -104.934628, 39.115155 ] } },
{ "type": "Feature", "properties": { "decimalLatitude": 37.36823, "decimalLongitude": -113.512935, "eventDate": "2024-07-28T10:58:00Z" }, "geometry": { "type": "Point", "coordinates": [ -113.512935, 37.36823 ] } },
{ "type": "Feature", "properties": { "decimalLatitude": 40.958085, "decimalLongitude": -112.214557, "eventDate": "2024-07-22T17:48:00Z" }, "geometry": { "type": "Point", "coordinates": [ -112.214557, 40.958085 ] } },
{ "type": "Feature", "properties": { "decimalLatitude": 36.173219, "decimalLongitude": -105.230517, "eventDate": "2024-07-23T12:02:00Z" }, "geometry": { "type": "Point", "coordinates": [ -105.230517, 36.173219 ] } },
{ "type": "Feature", "properties": { "decimalLatitude": 40.40186, "decimalLongitude": -111.602842, "eventDate": "2024-07-22T14:55:00Z" }, "geometry": { "type": "Point", "coordinates": [ -111.602842, 40.40186 ] } },
{ "type": "Feature", "properties": { "decimalLatitude": 40.401, "decimalLongitude": -111.603006, "eventDate": "2024-07-29T11:26:40Z" }, "geometry": { "type": "Point", "coordinates": [ -111.603006, 40.401 ] } },
{ "type": "Feature", "properties": { "decimalLatitude": 40.26469, "decimalLongitude": -111.61243, "eventDate": "2024-07-21T00:00:00Z" }, "geometry": { "type": "Point", "coordinates": [ -111.61243, 40.26469 ] } },
{ "type": "Feature", "properties": { "decimalLatitude": 40.641922, "decimalLongitude": -111.68508, "eventDate": "2024-07-30T17:39:01Z" }, "geometry": { "type": "Point", "coordinates": [ -111.68508, 40.641922 ] } },
{ "type": "Feature", "properties": { "decimalLatitude": 35.853857, "decimalLongitude": -106.63114, "eventDate": "2024-07-30T15:32:00Z" }, "geometry": { "type": "Point", "coordinates": [ -106.63114, 35.853857 ] } },
{ "type": "Feature", "properties": { "decimalLatitude": 40.38672, "decimalLongitude": -111.603966, "eventDate": "2024-07-22T16:12:00Z" }, "geometry": { "type": "Point", "coordinates": [ -111.603966, 40.38672 ] } },
{ "type": "Feature", "properties": { "decimalLatitude": 32.41167, "decimalLongitude": -110.70532, "eventDate": "2024-07-30T08:59:00Z" }, "geometry": { "type": "Point", "coordinates": [ -110.70532, 32.41167 ] } },
{ "type": "Feature", "properties": { "decimalLatitude": 32.412801, "decimalLongitude": -110.708587, "eventDate": "2024-07-30T09:24:00Z" }, "geometry": { "type": "Point", "coordinates": [ -110.708587, 32.412801 ] } },
{ "type": "Feature", "properties": { "decimalLatitude": 40.397582, "decimalLongitude": -111.602468, "eventDate": "2024-07-22T00:33:00Z" }, "geometry": { "type": "Point", "coordinates": [ -111.602468, 40.397582 ] } },
{ "type": "Feature", "properties": { "decimalLatitude": 39.429625, "decimalLongitude": -105.069128, "eventDate": "2024-07-14T07:55:00Z" }, "geometry": { "type": "Point", "coordinates": [ -105.069128, 39.429625 ] } },
{ "type": "Feature", "properties": { "decimalLatitude": 39.429536, "decimalLongitude": -105.068497, "eventDate": "2024-07-21T09:54:00Z" }, "geometry": { "type": "Point", "coordinates": [ -105.068497, 39.429536 ] } },
{ "type": "Feature", "properties": { "decimalLatitude": 39.429413, "decimalLongitude": -105.068241, "eventDate": "2024-07-21T10:04:00Z" }, "geometry": { "type": "Point", "coordinates": [ -105.068241, 39.429413 ] } },
{ "type": "Feature", "properties": { "decimalLatitude": 39.429537, "decimalLongitude": -105.068494, "eventDate": "2024-07-21T00:12:00Z" }, "geometry": { "type": "Point", "coordinates": [ -105.068494, 39.429537 ] } },
{ "type": "Feature", "properties": { "decimalLatitude": 32.62259, "decimalLongitude": -109.824652, "eventDate": "2024-07-27T15:47:07Z" }, "geometry": { "type": "Point", "coordinates": [ -109.824652, 32.62259 ] } },
{ "type": "Feature", "properties": { "decimalLatitude": 35.9863955, "decimalLongitude": -106.8420856, "eventDate": "2024-08-06T00:00:00Z" }, "geometry": { "type": "Point", "coordinates": [ -106.8420856, 35.9863955 ] } },
{ "type": "Feature", "properties": { "decimalLatitude": 40.672972, "decimalLongitude": -111.770837, "eventDate": "2024-08-04T17:11:57Z" }, "geometry": { "type": "Point", "coordinates": [ -111.770837, 40.672972 ] } },
{ "type": "Feature", "properties": { "decimalLatitude": 40.69001, "decimalLongitude": -111.777134, "eventDate": "2024-08-01T00:00:00Z" }, "geometry": { "type": "Point", "coordinates": [ -111.777134, 40.69001 ] } },
{ "type": "Feature", "properties": { "decimalLatitude": 39.591458, "decimalLongitude": -107.287583, "eventDate": "2024-08-07T09:58:38Z" }, "geometry": { "type": "Point", "coordinates": [ -107.287583, 39.591458 ] } },
{ "type": "Feature", "properties": { "decimalLatitude": 35.986403, "decimalLongitude": -106.843233, "eventDate": "2024-08-06T10:19:50Z" }, "geometry": { "type": "Point", "coordinates": [ -106.843233, 35.986403 ] } },
{ "type": "Feature", "properties": { "decimalLatitude": 39.429625, "decimalLongitude": -105.069128, "eventDate": "2024-08-02T10:03:00Z" }, "geometry": { "type": "Point", "coordinates": [ -105.069128, 39.429625 ] } },
{ "type": "Feature", "properties": { "decimalLatitude": 39.411927, "decimalLongitude": -105.182163, "eventDate": "2024-08-11T15:13:12Z" }, "geometry": { "type": "Point", "coordinates": [ -105.182163, 39.411927 ] } },
{ "type": "Feature", "properties": { "decimalLatitude": 39.429625, "decimalLongitude": -105.069128, "eventDate": "2024-08-02T11:04:00Z" }, "geometry": { "type": "Point", "coordinates": [ -105.069128, 39.429625 ] } },
{ "type": "Feature", "properties": { "decimalLatitude": 32.412412, "decimalLongitude": -110.708456, "eventDate": "2024-08-09T11:00:00Z" }, "geometry": { "type": "Point", "coordinates": [ -110.708456, 32.412412 ] } },
{ "type": "Feature", "properties": { "decimalLatitude": 39.429714, "decimalLongitude": -105.068878, "eventDate": "2024-08-08T11:32:33Z" }, "geometry": { "type": "Point", "coordinates": [ -105.068878, 39.429714 ] } },
{ "type": "Feature", "properties": { "decimalLatitude": 40.816142, "decimalLongitude": -111.455514, "eventDate": "2024-08-03T14:35:39Z" }, "geometry": { "type": "Point", "coordinates": [ -111.455514, 40.816142 ] } },
{ "type": "Feature", "properties": { "decimalLatitude": 39.092069, "decimalLongitude": -104.893397, "eventDate": "2024-08-04T18:54:45Z" }, "geometry": { "type": "Point", "coordinates": [ -104.893397, 39.092069 ] } },
{ "type": "Feature", "properties": { "decimalLatitude": 39.429625, "decimalLongitude": -105.069128, "eventDate": "2024-08-02T11:04:00Z" }, "geometry": { "type": "Point", "coordinates": [ -105.069128, 39.429625 ] } },
{ "type": "Feature", "properties": { "decimalLatitude": 39.429579, "decimalLongitude": -105.068496, "eventDate": "2024-08-17T15:26:00Z" }, "geometry": { "type": "Point", "coordinates": [ -105.068496, 39.429579 ] } },
{ "type": "Feature", "properties": { "decimalLatitude": 39.43383, "decimalLongitude": -105.071944, "eventDate": "2024-08-17T14:53:00Z" }, "geometry": { "type": "Point", "coordinates": [ -105.071944, 39.43383 ] } },
{ "type": "Feature", "properties": { "decimalLatitude": 41.179367, "decimalLongitude": -111.919403, "eventDate": "2024-08-13T12:26:01Z" }, "geometry": { "type": "Point", "coordinates": [ -111.919403, 41.179367 ] } },
{ "type": "Feature", "properties": { "decimalLatitude": 39.586258, "decimalLongitude": -107.288703, "eventDate": "2024-08-26T10:44:42Z" }, "geometry": { "type": "Point", "coordinates": [ -107.288703, 39.586258 ] } },
{ "type": "Feature", "properties": { "decimalLatitude": 40.387025, "decimalLongitude": -111.594703, "eventDate": "2024-08-22T11:59:14Z" }, "geometry": { "type": "Point", "coordinates": [ -111.594703, 40.387025 ] } },
{ "type": "Feature", "properties": { "decimalLatitude": 40.617451, "decimalLongitude": -111.213789, "eventDate": "2024-08-02T11:28:00Z" }, "geometry": { "type": "Point", "coordinates": [ -111.213789, 40.617451 ] } },
{ "type": "Feature", "properties": { "decimalLatitude": 40.701242, "decimalLongitude": -111.704575, "eventDate": "2024-08-03T13:58:04Z" }, "geometry": { "type": "Point", "coordinates": [ -111.704575, 40.701242 ] } },
{ "type": "Feature", "properties": { "decimalLatitude": 40.561459, "decimalLongitude": -111.77726, "eventDate": "2024-09-07T00:00:00Z" }, "geometry": { "type": "Point", "coordinates": [ -111.77726, 40.561459 ] } },
{ "type": "Feature", "properties": { "decimalLatitude": 40.696188, "decimalLongitude": -111.745613, "eventDate": "2024-09-02T09:45:12Z" }, "geometry": { "type": "Point", "coordinates": [ -111.745613, 40.696188 ] } },
{ "type": "Feature", "properties": { "decimalLatitude": 40.695155, "decimalLongitude": -111.769651, "eventDate": "2024-09-02T10:54:00Z" }, "geometry": { "type": "Point", "coordinates": [ -111.769651, 40.695155 ] } },
{ "type": "Feature", "properties": { "decimalLatitude": 34.551042, "decimalLongitude": -111.438325, "eventDate": "2024-10-15T13:50:13Z" }, "geometry": { "type": "Point", "coordinates": [ -111.438325, 34.551042 ] } },
{ "type": "Feature", "properties": { "decimalLatitude": 36.216037, "decimalLongitude": -112.063084, "eventDate": "2025-06-15T13:41:00Z" }, "geometry": { "type": "Point", "coordinates": [ -112.063084, 36.216037 ] } },
{ "type": "Feature", "properties": { "decimalLatitude": 40.465668, "decimalLongitude": -112.327464, "eventDate": "2025-07-05T18:08:03Z" }, "geometry": { "type": "Point", "coordinates": [ -112.327464, 40.465668 ] } },
{ "type": "Feature", "properties": { "decimalLatitude": 40.468803, "decimalLongitude": -112.09735, "eventDate": "2025-07-06T12:07:00Z" }, "geometry": { "type": "Point", "coordinates": [ -112.09735, 40.468803 ] } },
{ "type": "Feature", "properties": { "decimalLatitude": 40.470797, "decimalLongitude": -112.107553, "eventDate": "2025-07-06T11:46:02Z" }, "geometry": { "type": "Point", "coordinates": [ -112.107553, 40.470797 ] } },
{ "type": "Feature", "properties": { "decimalLatitude": 39.429544, "decimalLongitude": -105.069006, "eventDate": "2025-07-04T12:44:00Z" }, "geometry": { "type": "Point", "coordinates": [ -105.069006, 39.429544 ] } },
{ "type": "Feature", "properties": { "decimalLatitude": 40.467338, "decimalLongitude": -112.094886, "eventDate": "2025-07-06T11:08:00Z" }, "geometry": { "type": "Point", "coordinates": [ -112.094886, 40.467338 ] } },
{ "type": "Feature", "properties": { "decimalLatitude": 40.46972, "decimalLongitude": -112.099411, "eventDate": "2025-07-06T11:24:28Z" }, "geometry": { "type": "Point", "coordinates": [ -112.099411, 40.46972 ] } },
{ "type": "Feature", "properties": { "decimalLatitude": 40.699576, "decimalLongitude": -111.726065, "eventDate": "2025-07-06T11:11:00Z" }, "geometry": { "type": "Point", "coordinates": [ -111.726065, 40.699576 ] } },
{ "type": "Feature", "properties": { "decimalLatitude": 40.467338, "decimalLongitude": -112.094886, "eventDate": "2025-07-06T11:08:00Z" }, "geometry": { "type": "Point", "coordinates": [ -112.094886, 40.467338 ] } },
{ "type": "Feature", "properties": { "decimalLatitude": 40.467533, "decimalLongitude": -112.094925, "eventDate": "2025-07-06T11:08:43Z" }, "geometry": { "type": "Point", "coordinates": [ -112.094925, 40.467533 ] } },
{ "type": "Feature", "properties": { "decimalLatitude": 38.018192, "decimalLongitude": -107.677634, "eventDate": "2025-07-12T15:33:00Z" }, "geometry": { "type": "Point", "coordinates": [ -107.677634, 38.018192 ] } },
{ "type": "Feature", "properties": { "decimalLatitude": 35.215941, "decimalLongitude": -106.415719, "eventDate": "2025-07-19T08:57:00Z" }, "geometry": { "type": "Point", "coordinates": [ -106.415719, 35.215941 ] } },
{ "type": "Feature", "properties": { "decimalLatitude": 34.705861, "decimalLongitude": -112.139184, "eventDate": "2025-07-12T11:30:48Z" }, "geometry": { "type": "Point", "coordinates": [ -112.139184, 34.705861 ] } },
{ "type": "Feature", "properties": { "decimalLatitude": 38.219262, "decimalLongitude": -105.134155, "eventDate": "2025-07-20T13:35:18Z" }, "geometry": { "type": "Point", "coordinates": [ -105.134155, 38.219262 ] } },
{ "type": "Feature", "properties": { "decimalLatitude": 40.848305, "decimalLongitude": -111.821538, "eventDate": "2025-07-27T11:30:42Z" }, "geometry": { "type": "Point", "coordinates": [ -111.821538, 40.848305 ] } },
{ "type": "Feature", "properties": { "decimalLatitude": 35.194002, "decimalLongitude": -106.402027, "eventDate": "2025-07-25T11:03:00Z" }, "geometry": { "type": "Point", "coordinates": [ -106.402027, 35.194002 ] } },
{ "type": "Feature", "properties": { "decimalLatitude": 40.637703, "decimalLongitude": -111.719545, "eventDate": "2025-07-24T10:24:02Z" }, "geometry": { "type": "Point", "coordinates": [ -111.719545, 40.637703 ] } },
{ "type": "Feature", "properties": { "decimalLatitude": 38.111901, "decimalLongitude": -108.019081, "eventDate": "2025-07-22T10:34:19Z" }, "geometry": { "type": "Point", "coordinates": [ -108.019081, 38.111901 ] } },
{ "type": "Feature", "properties": { "decimalLatitude": 40.730663, "decimalLongitude": -111.599048, "eventDate": "2025-07-25T08:51:11Z" }, "geometry": { "type": "Point", "coordinates": [ -111.599048, 40.730663 ] } },
{ "type": "Feature", "properties": { "decimalLatitude": 38.421689, "decimalLongitude": -105.730636, "eventDate": "2025-07-17T16:31:42Z" }, "geometry": { "type": "Point", "coordinates": [ -105.730636, 38.421689 ] } },
{ "type": "Feature", "properties": { "decimalLatitude": 40.264668, "decimalLongitude": -111.623359, "eventDate": "2025-07-29T13:17:00Z" }, "geometry": { "type": "Point", "coordinates": [ -111.623359, 40.264668 ] } },
{ "type": "Feature", "properties": { "decimalLatitude": 37.4775, "decimalLongitude": -107.546667, "eventDate": "2025-07-26T09:17:00Z" }, "geometry": { "type": "Point", "coordinates": [ -107.546667, 37.4775 ] } },
{ "type": "Feature", "properties": { "decimalLatitude": 40.264668, "decimalLongitude": -111.623359, "eventDate": "2025-07-29T11:16:00Z" }, "geometry": { "type": "Point", "coordinates": [ -111.623359, 40.264668 ] } },
{ "type": "Feature", "properties": { "decimalLatitude": 37.4775, "decimalLongitude": -107.546667, "eventDate": "2025-07-26T09:31:00Z" }, "geometry": { "type": "Point", "coordinates": [ -107.546667, 37.4775 ] } },
{ "type": "Feature", "properties": { "decimalLatitude": 39.437485, "decimalLongitude": -106.813094, "eventDate": "2025-07-28T00:00:00Z" }, "geometry": { "type": "Point", "coordinates": [ -106.813094, 39.437485 ] } },
{ "type": "Feature", "properties": { "decimalLatitude": 40.264668, "decimalLongitude": -111.623359, "eventDate": "2025-07-29T10:53:00Z" }, "geometry": { "type": "Point", "coordinates": [ -111.623359, 40.264668 ] } },
{ "type": "Feature", "properties": { "decimalLatitude": 41.221347, "decimalLongitude": -111.915887, "eventDate": "2025-07-31T10:17:28Z" }, "geometry": { "type": "Point", "coordinates": [ -111.915887, 41.221347 ] } },
{ "type": "Feature", "properties": { "decimalLatitude": 38.729155, "decimalLongitude": -104.83288, "eventDate": "2025-07-20T12:08:00Z" }, "geometry": { "type": "Point", "coordinates": [ -104.83288, 38.729155 ] } },
{ "type": "Feature", "properties": { "decimalLatitude": 39.790547, "decimalLongitude": -111.727233, "eventDate": "2025-07-17T09:12:53Z" }, "geometry": { "type": "Point", "coordinates": [ -111.727233, 39.790547 ] } },
{ "type": "Feature", "properties": { "decimalLatitude": 39.478008, "decimalLongitude": -107.188003, "eventDate": "2025-07-26T11:16:00Z" }, "geometry": { "type": "Point", "coordinates": [ -107.188003, 39.478008 ] } },
{ "type": "Feature", "properties": { "decimalLatitude": 39.4767, "decimalLongitude": -107.187653, "eventDate": "2025-07-26T11:22:00Z" }, "geometry": { "type": "Point", "coordinates": [ -107.187653, 39.4767 ] } },
{ "type": "Feature", "properties": { "decimalLatitude": 39.868722, "decimalLongitude": -107.752578, "eventDate": "2025-07-24T18:21:00Z" }, "geometry": { "type": "Point", "coordinates": [ -107.752578, 39.868722 ] } },
{ "type": "Feature", "properties": { "decimalLatitude": 37.33967, "decimalLongitude": -107.922723, "eventDate": "2025-07-22T09:57:00Z" }, "geometry": { "type": "Point", "coordinates": [ -107.922723, 37.33967 ] } },
{ "type": "Feature", "properties": { "decimalLatitude": 40.717175, "decimalLongitude": -111.648673, "eventDate": "2025-07-28T10:24:00Z" }, "geometry": { "type": "Point", "coordinates": [ -111.648673, 40.717175 ] } },
{ "type": "Feature", "properties": { "decimalLatitude": 40.719305, "decimalLongitude": -111.65452, "eventDate": "2025-07-28T10:58:00Z" }, "geometry": { "type": "Point", "coordinates": [ -111.65452, 40.719305 ] } },
{ "type": "Feature", "properties": { "decimalLatitude": 40.719305, "decimalLongitude": -111.653922, "eventDate": "2025-07-27T09:29:00Z" }, "geometry": { "type": "Point", "coordinates": [ -111.653922, 40.719305 ] } },
{ "type": "Feature", "properties": { "decimalLatitude": 40.721265, "decimalLongitude": -111.658093, "eventDate": "2025-07-28T11:16:00Z" }, "geometry": { "type": "Point", "coordinates": [ -111.658093, 40.721265 ] } },
{ "type": "Feature", "properties": { "decimalLatitude": 40.721263, "decimalLongitude": -111.658102, "eventDate": "2025-07-28T11:18:00Z" }, "geometry": { "type": "Point", "coordinates": [ -111.658102, 40.721263 ] } },
{ "type": "Feature", "properties": { "decimalLatitude": 40.71939, "decimalLongitude": -111.654278, "eventDate": "2025-07-28T10:40:00Z" }, "geometry": { "type": "Point", "coordinates": [ -111.654278, 40.71939 ] } },
{ "type": "Feature", "properties": { "decimalLatitude": 40.719305, "decimalLongitude": -111.653922, "eventDate": "2025-07-27T09:09:00Z" }, "geometry": { "type": "Point", "coordinates": [ -111.653922, 40.719305 ] } },
{ "type": "Feature", "properties": { "decimalLatitude": 35.90756, "decimalLongitude": -106.61695, "eventDate": "2025-07-22T00:00:00Z" }, "geometry": { "type": "Point", "coordinates": [ -106.61695, 35.90756 ] } },
{ "type": "Feature", "properties": { "decimalLatitude": 40.697815, "decimalLongitude": -111.774189, "eventDate": "2025-08-04T10:48:00Z" }, "geometry": { "type": "Point", "coordinates": [ -111.774189, 40.697815 ] } },
{ "type": "Feature", "properties": { "decimalLatitude": 40.695229, "decimalLongitude": -111.769582, "eventDate": "2025-08-04T11:21:00Z" }, "geometry": { "type": "Point", "coordinates": [ -111.769582, 40.695229 ] } },
{ "type": "Feature", "properties": { "decimalLatitude": 40.696811, "decimalLongitude": -111.768719, "eventDate": "2025-08-04T11:06:00Z" }, "geometry": { "type": "Point", "coordinates": [ -111.768719, 40.696811 ] } },
{ "type": "Feature", "properties": { "decimalLatitude": 40.136781, "decimalLongitude": -111.517417, "eventDate": "2025-08-01T09:15:04Z" }, "geometry": { "type": "Point", "coordinates": [ -111.517417, 40.136781 ] } },
{ "type": "Feature", "properties": { "decimalLatitude": 40.69496, "decimalLongitude": -111.771942, "eventDate": "2025-08-04T09:09:00Z" }, "geometry": { "type": "Point", "coordinates": [ -111.771942, 40.69496 ] } },
{ "type": "Feature", "properties": { "decimalLatitude": 36.98582, "decimalLongitude": -106.607509, "eventDate": "2025-08-04T12:28:00Z" }, "geometry": { "type": "Point", "coordinates": [ -106.607509, 36.98582 ] } },
{ "type": "Feature", "properties": { "decimalLatitude": 40.226094, "decimalLongitude": -111.620437, "eventDate": "2025-08-02T10:04:00Z" }, "geometry": { "type": "Point", "coordinates": [ -111.620437, 40.226094 ] } },
{ "type": "Feature", "properties": { "decimalLatitude": 40.698268, "decimalLongitude": -111.770951, "eventDate": "2025-08-04T09:28:00Z" }, "geometry": { "type": "Point", "coordinates": [ -111.770951, 40.698268 ] } },
{ "type": "Feature", "properties": { "decimalLatitude": 40.691336, "decimalLongitude": -111.770487, "eventDate": "2025-08-04T11:09:00Z" }, "geometry": { "type": "Point", "coordinates": [ -111.770487, 40.691336 ] } },
{ "type": "Feature", "properties": { "decimalLatitude": 40.792663, "decimalLongitude": -111.87764, "eventDate": "2025-08-02T07:50:53Z" }, "geometry": { "type": "Point", "coordinates": [ -111.87764, 40.792663 ] } },
{ "type": "Feature", "properties": { "decimalLatitude": 32.41282, "decimalLongitude": -110.708805, "eventDate": "2025-08-05T09:10:00Z" }, "geometry": { "type": "Point", "coordinates": [ -110.708805, 32.41282 ] } },
{ "type": "Feature", "properties": { "decimalLatitude": 40.389997, "decimalLongitude": -112.232494, "eventDate": "2025-08-13T10:10:49Z" }, "geometry": { "type": "Point", "coordinates": [ -112.232494, 40.389997 ] } },
{ "type": "Feature", "properties": { "decimalLatitude": 35.725725, "decimalLongitude": -105.837193, "eventDate": "2025-08-17T10:16:00Z" }, "geometry": { "type": "Point", "coordinates": [ -105.837193, 35.725725 ] } },
{ "type": "Feature", "properties": { "decimalLatitude": 35.169453, "decimalLongitude": -106.381813, "eventDate": "2025-08-08T15:41:27Z" }, "geometry": { "type": "Point", "coordinates": [ -106.381813, 35.169453 ] } },
{ "type": "Feature", "properties": { "decimalLatitude": 41.000611, "decimalLongitude": -111.843231, "eventDate": "2025-08-09T17:55:53Z" }, "geometry": { "type": "Point", "coordinates": [ -111.843231, 41.000611 ] } },
{ "type": "Feature", "properties": { "decimalLatitude": 36.626641, "decimalLongitude": -106.484871, "eventDate": "2025-08-13T18:35:55Z" }, "geometry": { "type": "Point", "coordinates": [ -106.484871, 36.626641 ] } },
{ "type": "Feature", "properties": { "decimalLatitude": 40.694513, "decimalLongitude": -111.770979, "eventDate": "2025-08-11T09:25:00Z" }, "geometry": { "type": "Point", "coordinates": [ -111.770979, 40.694513 ] } },
{ "type": "Feature", "properties": { "decimalLatitude": 40.203232, "decimalLongitude": -111.417912, "eventDate": "2025-08-08T12:01:29Z" }, "geometry": { "type": "Point", "coordinates": [ -111.417912, 40.203232 ] } },
{ "type": "Feature", "properties": { "decimalLatitude": 40.717475, "decimalLongitude": -111.65932, "eventDate": "2025-08-08T08:31:00Z" }, "geometry": { "type": "Point", "coordinates": [ -111.65932, 40.717475 ] } },
{ "type": "Feature", "properties": { "decimalLatitude": 35.169684, "decimalLongitude": -106.384017, "eventDate": "2025-08-08T14:42:54Z" }, "geometry": { "type": "Point", "coordinates": [ -106.384017, 35.169684 ] } },
{ "type": "Feature", "properties": { "decimalLatitude": 37.48835, "decimalLongitude": -107.539375, "eventDate": "2025-08-07T14:37:53Z" }, "geometry": { "type": "Point", "coordinates": [ -107.539375, 37.48835 ] } },
{ "type": "Feature", "properties": { "decimalLatitude": 37.442688, "decimalLongitude": -106.87615, "eventDate": "2025-08-24T12:15:00Z" }, "geometry": { "type": "Point", "coordinates": [ -106.87615, 37.442688 ] } },
{ "type": "Feature", "properties": { "decimalLatitude": 39.366185, "decimalLongitude": -107.3185, "eventDate": "2025-08-10T10:29:00Z" }, "geometry": { "type": "Point", "coordinates": [ -107.3185, 39.366185 ] } },
{ "type": "Feature", "properties": { "decimalLatitude": 39.22518, "decimalLongitude": -107.222032, "eventDate": "2025-08-09T14:54:00Z" }, "geometry": { "type": "Point", "coordinates": [ -107.222032, 39.22518 ] } },
{ "type": "Feature", "properties": { "decimalLatitude": 39.366357, "decimalLongitude": -107.316603, "eventDate": "2025-08-10T09:26:00Z" }, "geometry": { "type": "Point", "coordinates": [ -107.316603, 39.366357 ] } },
{ "type": "Feature", "properties": { "decimalLatitude": 40.583133, "decimalLongitude": -111.440163, "eventDate": "2025-08-27T10:54:32Z" }, "geometry": { "type": "Point", "coordinates": [ -111.440163, 40.583133 ] } },
{ "type": "Feature", "properties": { "decimalLatitude": 39.572221, "decimalLongitude": -107.29176, "eventDate": "2025-08-07T13:58:00Z" }, "geometry": { "type": "Point", "coordinates": [ -107.29176, 39.572221 ] } },
{ "type": "Feature", "properties": { "decimalLatitude": 39.572211, "decimalLongitude": -107.292606, "eventDate": "2025-08-07T12:20:00Z" }, "geometry": { "type": "Point", "coordinates": [ -107.292606, 39.572211 ] } },
{ "type": "Feature", "properties": { "decimalLatitude": 38.737733, "decimalLongitude": -108.427508, "eventDate": "2025-08-31T13:10:00Z" }, "geometry": { "type": "Point", "coordinates": [ -108.427508, 38.737733 ] } },
{ "type": "Feature", "properties": { "decimalLatitude": 36.73969, "decimalLongitude": -106.409617, "eventDate": "2025-08-13T15:44:00Z" }, "geometry": { "type": "Point", "coordinates": [ -106.409617, 36.73969 ] } },
{ "type": "Feature", "properties": { "decimalLatitude": 40.641056, "decimalLongitude": -111.784795, "eventDate": "2025-09-14T11:57:39Z" }, "geometry": { "type": "Point", "coordinates": [ -111.784795, 40.641056 ] } }
]
}
