{
"type": "FeatureCollection",
"name": "lycaena-heteronea-gbif",
"crs": { "type": "name", "properties": { "name": "urn:ogc:def:crs:OGC:1.3:CRS84" } },
"features": [
{ "type": "Feature", "properties": { "decimalLatitude": 45.035592, "decimalLongitude": -113.554623, "eventDate": "2024-07-12T00:00:00Z", "countryCode": "US" }, "geometry": { "type": "Point", "coordinates": [ -113.554623, 45.035592 ] } },
{ "type": "Feature", "properties": { "decimalLatitude": 42.0758915, "decimalLongitude": -122.7186663, "eventDate": "2024-07-15T00:00:00Z", "countryCode": "US" }, "geometry": { "type": "Point", "coordinates": [ -122.7186663, 42.0758915 ] } },
{ "type": "Feature", "properties": { "decimalLatitude": 42.0774024, "decimalLongitude": -122.7289626, "eventDate": "2024-07-15T00:00:00Z", "countryCode": "US" }, "geometry": { "type": "Point", "coordinates": [ -122.7289626, 42.0774024 ] } },
{ "type": "Feature", "properties": { "decimalLatitude": 44.990715, "decimalLongitude": -113.449967, "eventDate": "2024-07-19T00:00:00Z", "countryCode": "US" }, "geometry": { "type": "Point", "coordinates": [ -113.449967, 44.990715 ] } },
{ "type": "Feature", "properties": { "decimalLatitude": 39.467226, "decimalLongitude": -105.239432, "eventDate": "2024-07-14T00:00:00Z", "countryCode": "US" }, "geometry": { "type": "Point", "coordinates": [ -105.239432, 39.467226 ] } },
{ "type": "Feature", "properties": { "decimalLatitude": 47.640285, "decimalLongitude": -120.579624, "eventDate": "2024-07-20T00:00:00Z", "countryCode": "US" }, "geometry": { "type": "Point", "coordinates": [ -120.579624, 47.640285 ] } },
{ "type": "Feature", "properties": { "decimalLatitude": 39.467226, "decimalLongitude": -105.239432, "eventDate": "2024-07-14T00:00:00Z", "countryCode": "US" }, "geometry": { "type": "Point", "coordinates": [ -105.239432, 39.467226 ] } },
{ "type": "Feature", "properties": { "decimalLatitude": 39.611414, "decimalLongitude": -105.220018, "eventDate": "2024-07-19T00:00:00Z", "countryCode": "US" }, "geometry": { "type": "Point", "coordinates": [ -105.220018, 39.611414 ] } },
{ "type": "Feature", "properties": { "decimalLatitude": 39.467226, "decimalLongitude": -105.239432, "eventDate": "2024-07-20T00:00:00Z", "countryCode": "US" }, "geometry": { "type": "Point", "coordinates": [ -105.239432, 39.467226 ] } },
{ "type": "Feature", "properties": { "decimalLatitude": 39.611414, "decimalLongitude": -105.220018, "eventDate": "2024-07-19T00:00:00Z", "countryCode": "US" }, "geometry": { "type": "Point", "coordinates": [ -105.220018, 39.611414 ] } },
{ "type": "Feature", "properties": { "decimalLatitude": 49.459959, "decimalLongitude": -120.532371, "eventDate": "2024-07-12T00:00:00Z", "countryCode": "CA" }, "geometry": { "type": "Point", "coordinates": [ -120.532371, 49.459959 ] } },
{ "type": "Feature", "properties": { "decimalLatitude": 40.608019, "decimalLongitude": -115.375905, "eventDate": "2024-08-09T00:00:00Z", "countryCode": "US" }, "geometry": { "type": "Point", "coordinates": [ -115.375905, 40.608019 ] } },
{ "type": "Feature", "properties": { "decimalLatitude": 38.91523, "decimalLongitude": -107.030524, "eventDate": "2024-08-20T00:00:00Z", "countryCode": "US" }, "geometry": { "type": "Point", "coordinates": [ -107.030524, 38.91523 ] } },
{ "type": "Feature", "properties": { "decimalLatitude": 38.91523, "decimalLongitude": -107.030524, "eventDate": "2024-08-20T00:00:00Z", "countryCode": "US" }, "geometry": { "type": "Point", "coordinates": [ -107.030524, 38.91523 ] } },
{ "type": "Feature", "properties": { "decimalLatitude": 38.91523, "decimalLongitude": -107.030524, "eventDate": "2024-08-20T00:00:00Z", "countryCode": "US" }, "geometry": { "type": "Point", "coordinates": [ -107.030524, 38.91523 ] } },
{ "type": "Feature", "properties": { "decimalLatitude": 38.91523, "decimalLongitude": -107.030524, "eventDate": "2024-08-20T00:00:00Z", "countryCode": "US" }, "geometry": { "type": "Point", "coordinates": [ -107.030524, 38.91523 ] } },
{ "type": "Feature", "properties": { "decimalLatitude": 39.611414, "decimalLongitude": -105.220018, "eventDate": "2025-07-03T00:00:00Z", "countryCode": "US" }, "geometry": { "type": "Point", "coordinates": [ -105.220018, 39.611414 ] } },
{ "type": "Feature", "properties": { "decimalLatitude": 49.113052, "decimalLongitude": -119.672938, "eventDate": "2025-07-19T00:00:00Z", "countryCode": "CA" }, "geometry": { "type": "Point", "coordinates": [ -119.672938, 49.113052 ] } },
{ "type": "Feature", "properties": { "decimalLatitude": 44.97527, "decimalLongitude": -113.446604, "eventDate": "2025-07-27T00:00:00Z", "countryCode": "US" }, "geometry": { "type": "Point", "coordinates": [ -113.446604, 44.97527 ] } },
{ "type": "Feature", "properties": { "decimalLatitude": 44.942028, "decimalLongitude": -109.581276, "eventDate": "2025-07-16T00:00:00Z", "countryCode": "US" }, "geometry": { "type": "Point", "coordinates": [ -109.581276, 44.942028 ] } },
{ "type": "Feature", "properties": { "decimalLatitude": 44.942028, "decimalLongitude": -109.581276, "eventDate": "2025-07-17T00:00:00Z", "countryCode": "US" }, "geometry": { "type": "Point", "coordinates": [ -109.581276, 44.942028 ] } },
{ "type": "Feature", "properties": { "decimalLatitude": 44.990715, "decimalLongitude": -113.449967, "eventDate": "2025-08-12T00:00:00Z", "countryCode": "US" }, "geometry": { "type": "Point", "coordinates": [ -113.449967, 44.990715 ] } },
{ "type": "Feature", "properties": { "decimalLatitude": 45.045521, "decimalLongitude": -109.425828, "eventDate": "2025-08-01T00:00:00Z", "countryCode": "US" }, "geometry": { "type": "Point", "coordinates": [ -109.425828, 45.045521 ] } },
{ "type": "Feature", "properties": { "decimalLatitude": 44.892078, "decimalLongitude": -110.387046, "eventDate": "2025-08-03T00:00:00Z", "countryCode": "US" }, "geometry": { "type": "Point", "coordinates": [ -110.387046, 44.892078 ] } },
{ "type": "Feature", "properties": { "decimalLatitude": 44.892078, "decimalLongitude": -110.387046, "eventDate": "2025-08-03T00:00:00Z", "countryCode": "US" }, "geometry": { "type": "Point", "coordinates": [ -110.387046, 44.892078 ] } },
{ "type": "Feature", "properties": { "decimalLatitude": 45.045521, "decimalLongitude": -109.425828, "eventDate": "2025-08-01T00:00:00Z", "countryCode": "US" }, "geometry": { "type": "Point", "coordinates": [ -109.425828, 45.045521 ] } },
{ "type": "Feature", "properties": { "decimalLatitude": 44.618508, "decimalLongitude": -111.370524, "eventDate": "2025-08-06T00:00:00Z", "countryCode": "US" }, "geometry": { "type": "Point", "coordinates": [ -111.370524, 44.618508 ] } },
{ "type": "Feature", "properties": { "decimalLatitude": 45.045521, "decimalLongitude": -109.425828, "eventDate": "2025-08-01T00:00:00Z", "countryCode": "US" }, "geometry": { "type": "Point", "coordinates": [ -109.425828, 45.045521 ] } },
{ "type": "Feature", "properties": { "decimalLatitude": 44.892078, "decimalLongitude": -110.387046, "eventDate": "2025-08-03T00:00:00Z", "countryCode": "US" }, "geometry": { "type": "Point", "coordinates": [ -110.387046, 44.892078 ] } }
]
}
