{
"type": "FeatureCollection",
"name": "manataria-hercyna-gbif",
"crs": { "type": "name", "properties": { "name": "urn:ogc:def:crs:OGC:1.3:CRS84" } },
"features": [
{ "type": "Feature", "properties": { "decimalLatitude": 16.963889, "decimalLongitude": -93.570555, "eventDate": "2015-01-14T00:00:00Z" }, "geometry": { "type": "Point", "coordinates": [ -93.570555, 16.963889 ] } },
{ "type": "Feature", "properties": { "decimalLatitude": 16.963889, "decimalLongitude": -93.570555, "eventDate": "2015-01-14T00:00:00Z" }, "geometry": { "type": "Point", "coordinates": [ -93.570555, 16.963889 ] } },
{ "type": "Feature", "properties": { "decimalLatitude": 16.963889, "decimalLongitude": -93.570555, "eventDate": "2015-01-14T00:00:00Z" }, "geometry": { "type": "Point", "coordinates": [ -93.570555, 16.963889 ] } },
{ "type": "Feature", "properties": { "decimalLatitude": 16.963889, "decimalLongitude": -93.570555, "eventDate": "2015-01-14T00:00:00Z" }, "geometry": { "type": "Point", "coordinates": [ -93.570555, 16.963889 ] } },
{ "type": "Feature", "properties": { "decimalLatitude": -25.538081, "decimalLongitude": -54.141521, "eventDate": "2015-02-04T11:41:00Z" }, "geometry": { "type": "Point", "coordinates": [ -54.141521, -25.538081 ] } },
{ "type": "Feature", "properties": { "decimalLatitude": 31.367055, "decimalLongitude": -115.653643, "eventDate": "2015-04-11T00:00:00Z" }, "geometry": { "type": "Point", "coordinates": [ -115.653643, 31.367055 ] } },
{ "type": "Feature", "properties": { "decimalLatitude": 16.963889, "decimalLongitude": -93.570555, "eventDate": "2015-04-14T00:00:00Z" }, "geometry": { "type": "Point", "coordinates": [ -93.570555, 16.963889 ] } },
{ "type": "Feature", "properties": { "decimalLatitude": -1.10818, "decimalLongitude": -77.785118, "eventDate": "2015-10-28T12:25:00Z" }, "geometry": { "type": "Point", "coordinates": [ -77.785118, -1.10818 ] } },
{ "type": "Feature", "properties": { "decimalLatitude": 16.901667, "decimalLongitude": -93.536944, "eventDate": "2015-11-12T00:00:00Z" }, "geometry": { "type": "Point", "coordinates": [ -93.536944, 16.901667 ] } },
{ "type": "Feature", "properties": { "decimalLatitude": 10.286925, "decimalLongitude": -68.232605, "eventDate": "2015-11-09T00:00:00Z" }, "geometry": { "type": "Point", "coordinates": [ -68.232605, 10.286925 ] } },
{ "type": "Feature", "properties": { "decimalLatitude": 31.367055, "decimalLongitude": -115.653643, "eventDate": "2016-10-15T00:00:00Z" }, "geometry": { "type": "Point", "coordinates": [ -115.653643, 31.367055 ] } },
{ "type": "Feature", "properties": { "decimalLatitude": 1.720946, "decimalLongitude": -76.119628, "eventDate": "2017-01-10T14:49:00Z" }, "geometry": { "type": "Point", "coordinates": [ -76.119628, 1.720946 ] } },
{ "type": "Feature", "properties": { "decimalLatitude": 0.143, "decimalLongitude": -78.888, "eventDate": "2017-01-19T00:00:00Z" }, "geometry": { "type": "Point", "coordinates": [ -78.888, 0.143 ] } },
{ "type": "Feature", "properties": { "decimalLatitude": 17.695125, "decimalLongitude": -97.934179, "eventDate": "2017-06-19T00:00:00Z" }, "geometry": { "type": "Point", "coordinates": [ -97.934179, 17.695125 ] } },
{ "type": "Feature", "properties": { "decimalLatitude": 0.143, "decimalLongitude": -78.888, "eventDate": "2017-06-03T00:00:00Z" }, "geometry": { "type": "Point", "coordinates": [ -78.888, 0.143 ] } },
{ "type": "Feature", "properties": { "decimalLatitude": -1.115459, "decimalLongitude": -77.772657, "eventDate": "2017-11-22T00:00:00Z" }, "geometry": { "type": "Point", "coordinates": [ -77.772657, -1.115459 ] } },
{ "type": "Feature", "properties": { "decimalLatitude": -25.536748, "decimalLongitude": -54.142169, "eventDate": "2017-11-11T06:23:00Z" }, "geometry": { "type": "Point", "coordinates": [ -54.142169, -25.536748 ] } },
{ "type": "Feature", "properties": { "decimalLatitude": -12.226028, "decimalLongitude": -69.114505, "eventDate": "2017-12-08T09:55:52Z" }, "geometry": { "type": "Point", "coordinates": [ -69.114505, -12.226028 ] } },
{ "type": "Feature", "properties": { "decimalLatitude": 14.586, "decimalLongitude": -91.229, "eventDate": "2018-07-08T00:00:00Z" }, "geometry": { "type": "Point", "coordinates": [ -91.229, 14.586 ] } },
{ "type": "Feature", "properties": { "decimalLatitude": -26.921485, "decimalLongitude": -54.936581, "eventDate": "2018-11-14T00:00:00Z" }, "geometry": { "type": "Point", "coordinates": [ -54.936581, -26.921485 ] } },
{ "type": "Feature", "properties": { "decimalLatitude": -27.385101, "decimalLongitude": -55.592916, "eventDate": "2018-11-30T00:00:00Z" }, "geometry": { "type": "Point", "coordinates": [ -55.592916, -27.385101 ] } },
{ "type": "Feature", "properties": { "decimalLatitude": -40.798044, "decimalLongitude": -65.083793, "eventDate": "2019-01-10T00:00:00Z" }, "geometry": { "type": "Point", "coordinates": [ -65.083793, -40.798044 ] } },
{ "type": "Feature", "properties": { "decimalLatitude": -13.013525, "decimalLongitude": -71.427955, "eventDate": "2019-07-04T07:00:45Z" }, "geometry": { "type": "Point", "coordinates": [ -71.427955, -13.013525 ] } },
{ "type": "Feature", "properties": { "decimalLatitude": -3.750024, "decimalLongitude": -78.631079, "eventDate": "2019-09-18T09:08:13Z" }, "geometry": { "type": "Point", "coordinates": [ -78.631079, -3.750024 ] } },
{ "type": "Feature", "properties": { "decimalLatitude": 4.782875, "decimalLongitude": -74.469175, "eventDate": "2019-12-31T11:27:00Z" }, "geometry": { "type": "Point", "coordinates": [ -74.469175, 4.782875 ] } },
{ "type": "Feature", "properties": { "decimalLatitude": -23.442785, "decimalLongitude": -46.553723, "eventDate": "2020-01-31T08:47:00Z" }, "geometry": { "type": "Point", "coordinates": [ -46.553723, -23.442785 ] } },
{ "type": "Feature", "properties": { "decimalLatitude": -27.404044, "decimalLongitude": -55.00671, "eventDate": "2020-01-24T05:50:00Z" }, "geometry": { "type": "Point", "coordinates": [ -55.00671, -27.404044 ] } },
{ "type": "Feature", "properties": { "decimalLatitude": -27.393403, "decimalLongitude": -55.010325, "eventDate": "2020-01-26T00:00:00Z" }, "geometry": { "type": "Point", "coordinates": [ -55.010325, -27.393403 ] } },
{ "type": "Feature", "properties": { "decimalLatitude": -27.393403, "decimalLongitude": -55.010325, "eventDate": "2020-01-26T00:00:00Z" }, "geometry": { "type": "Point", "coordinates": [ -55.010325, -27.393403 ] } },
{ "type": "Feature", "properties": { "decimalLatitude": -0.032889, "decimalLongitude": -77.444806, "eventDate": "2021-08-25T10:06:14Z" }, "geometry": { "type": "Point", "coordinates": [ -77.444806, -0.032889 ] } },
{ "type": "Feature", "properties": { "decimalLatitude": -1.087742, "decimalLongitude": -77.948991, "eventDate": "2021-09-24T16:45:00Z" }, "geometry": { "type": "Point", "coordinates": [ -77.948991, -1.087742 ] } },
{ "type": "Feature", "properties": { "decimalLatitude": -1.10943, "decimalLongitude": -77.781139, "eventDate": "2021-09-25T09:44:00Z" }, "geometry": { "type": "Point", "coordinates": [ -77.781139, -1.10943 ] } },
{ "type": "Feature", "properties": { "decimalLatitude": -25.11245, "decimalLongitude": -52.259802, "eventDate": "2021-12-08T14:06:16Z" }, "geometry": { "type": "Point", "coordinates": [ -52.259802, -25.11245 ] } },
{ "type": "Feature", "properties": { "decimalLatitude": 3.921959, "decimalLongitude": -75.464824, "eventDate": "2022-08-03T09:17:44Z" }, "geometry": { "type": "Point", "coordinates": [ -75.464824, 3.921959 ] } },
{ "type": "Feature", "properties": { "decimalLatitude": -8.179244, "decimalLongitude": -70.335729, "eventDate": "2022-10-27T00:00:00Z" }, "geometry": { "type": "Point", "coordinates": [ -70.335729, -8.179244 ] } },
{ "type": "Feature", "properties": { "decimalLatitude": -25.648192, "decimalLongitude": -54.420761, "eventDate": "2022-11-05T09:20:15Z" }, "geometry": { "type": "Point", "coordinates": [ -54.420761, -25.648192 ] } },
{ "type": "Feature", "properties": { "decimalLatitude": -9.059303, "decimalLongitude": -72.245575, "eventDate": "2022-11-25T06:27:21Z" }, "geometry": { "type": "Point", "coordinates": [ -72.245575, -9.059303 ] } },
{ "type": "Feature", "properties": { "decimalLatitude": -24.997086, "decimalLongitude": -50.631539, "eventDate": "2022-12-25T10:31:55Z" }, "geometry": { "type": "Point", "coordinates": [ -50.631539, -24.997086 ] } },
{ "type": "Feature", "properties": { "decimalLatitude": -12.893604, "decimalLongitude": -71.402331, "eventDate": "2023-09-08T06:10:38Z" }, "geometry": { "type": "Point", "coordinates": [ -71.402331, -12.893604 ] } },
{ "type": "Feature", "properties": { "decimalLatitude": -12.047353, "decimalLongitude": -69.672254, "eventDate": "2023-09-07T11:54:00Z" }, "geometry": { "type": "Point", "coordinates": [ -69.672254, -12.047353 ] } },
{ "type": "Feature", "properties": { "decimalLatitude": -12.047353, "decimalLongitude": -69.672254, "eventDate": "2023-09-07T10:49:00Z" }, "geometry": { "type": "Point", "coordinates": [ -69.672254, -12.047353 ] } },
{ "type": "Feature", "properties": { "decimalLatitude": -22.88258, "decimalLongitude": -46.806514, "eventDate": "2023-10-21T10:13:00Z" }, "geometry": { "type": "Point", "coordinates": [ -46.806514, -22.88258 ] } },
{ "type": "Feature", "properties": { "decimalLatitude": -12.593839, "decimalLongitude": -69.180297, "eventDate": "2023-12-03T14:07:00Z" }, "geometry": { "type": "Point", "coordinates": [ -69.180297, -12.593839 ] } },
{ "type": "Feature", "properties": { "decimalLatitude": -26.480258, "decimalLongitude": -49.274504, "eventDate": "2024-04-16T13:55:00Z" }, "geometry": { "type": "Point", "coordinates": [ -49.274504, -26.480258 ] } },
{ "type": "Feature", "properties": { "decimalLatitude": 1.084229, "decimalLongitude": -76.627549, "eventDate": "2024-09-15T13:44:00Z" }, "geometry": { "type": "Point", "coordinates": [ -76.627549, 1.084229 ] } },
{ "type": "Feature", "properties": { "decimalLatitude": -30.050869, "decimalLongitude": -51.231268, "eventDate": "2024-11-30T11:35:26Z" }, "geometry": { "type": "Point", "coordinates": [ -51.231268, -30.050869 ] } },
{ "type": "Feature", "properties": { "decimalLatitude": -12.653055, "decimalLongitude": -71.236667, "eventDate": "2024-11-14T12:28:00Z" }, "geometry": { "type": "Point", "coordinates": [ -71.236667, -12.653055 ] } },
{ "type": "Feature", "properties": { "decimalLatitude": 8.8871587, "decimalLongitude": -82.6757381, "eventDate": "2025-02-25T00:00:00Z" }, "geometry": { "type": "Point", "coordinates": [ -82.6757381, 8.8871587 ] } },
{ "type": "Feature", "properties": { "decimalLatitude": -27.40726, "decimalLongitude": -55.008829, "eventDate": "2025-02-15T13:32:00Z" }, "geometry": { "type": "Point", "coordinates": [ -55.008829, -27.40726 ] } },
{ "type": "Feature", "properties": { "decimalLatitude": 8.876236, "decimalLongitude": -82.685446, "eventDate": "2025-03-03T00:00:00Z" }, "geometry": { "type": "Point", "coordinates": [ -82.685446, 8.876236 ] } },
{ "type": "Feature", "properties": { "decimalLatitude": 8.883443, "decimalLongitude": -82.684107, "eventDate": "2025-03-01T00:00:00Z" }, "geometry": { "type": "Point", "coordinates": [ -82.684107, 8.883443 ] } },
{ "type": "Feature", "properties": { "decimalLatitude": -23.230635, "decimalLongitude": -46.955926, "eventDate": "2025-12-20T09:30:00Z" }, "geometry": { "type": "Point", "coordinates": [ -46.955926, -23.230635 ] } }
]
}
