{
"type": "FeatureCollection",
"name": "marpesia-marcella-gbif",
"crs": { "type": "name", "properties": { "name": "urn:ogc:def:crs:OGC:1.3:CRS84" } },
"features": [
{ "type": "Feature", "properties": { "decimalLatitude": 9.267826, "decimalLongitude": -83.286541, "eventDate": "2015-03-23T00:31:00Z", "countryCode": "CR" }, "geometry": { "type": "Point", "coordinates": [ -83.286541, 9.267826 ] } },
{ "type": "Feature", "properties": { "decimalLatitude": 9.814433, "decimalLongitude": -83.579646, "eventDate": "2015-03-18T12:35:00Z", "countryCode": "CR" }, "geometry": { "type": "Point", "coordinates": [ -83.579646, 9.814433 ] } },
{ "type": "Feature", "properties": { "decimalLatitude": -0.053988, "decimalLongitude": -78.775161, "eventDate": "2016-01-27T09:07:00Z", "countryCode": "EC" }, "geometry": { "type": "Point", "coordinates": [ -78.775161, -0.053988 ] } },
{ "type": "Feature", "properties": { "decimalLatitude": 0.047371, "decimalLongitude": -78.826971, "eventDate": "2016-01-31T00:00:00Z", "countryCode": "EC" }, "geometry": { "type": "Point", "coordinates": [ -78.826971, 0.047371 ] } },
{ "type": "Feature", "properties": { "decimalLatitude": 0.052995, "decimalLongitude": -78.842232, "eventDate": "2016-01-31T18:23:00Z", "countryCode": "EC" }, "geometry": { "type": "Point", "coordinates": [ -78.842232, 0.052995 ] } },
{ "type": "Feature", "properties": { "decimalLatitude": 9.549842, "decimalLongitude": -83.804355, "eventDate": "2016-02-28T12:39:00Z", "countryCode": "CR" }, "geometry": { "type": "Point", "coordinates": [ -83.804355, 9.549842 ] } },
{ "type": "Feature", "properties": { "decimalLatitude": 8.847117, "decimalLongitude": -82.48825, "eventDate": "2016-03-25T00:00:00Z", "countryCode": "PA" }, "geometry": { "type": "Point", "coordinates": [ -82.48825, 8.847117 ] } },
{ "type": "Feature", "properties": { "decimalLatitude": 9.842125, "decimalLongitude": -83.580571, "eventDate": "2016-03-10T00:00:00Z", "countryCode": "CR" }, "geometry": { "type": "Point", "coordinates": [ -83.580571, 9.842125 ] } },
{ "type": "Feature", "properties": { "decimalLatitude": 8.800003, "decimalLongitude": -82.484703, "eventDate": "2016-03-23T14:48:00Z", "countryCode": "PA" }, "geometry": { "type": "Point", "coordinates": [ -82.484703, 8.800003 ] } },
{ "type": "Feature", "properties": { "decimalLatitude": -0.076239, "decimalLongitude": -78.764503, "eventDate": "2016-03-27T10:53:20Z", "countryCode": "EC" }, "geometry": { "type": "Point", "coordinates": [ -78.764503, -0.076239 ] } },
{ "type": "Feature", "properties": { "decimalLatitude": -0.067592, "decimalLongitude": -78.764248, "eventDate": "2016-04-22T00:00:00Z", "countryCode": "EC" }, "geometry": { "type": "Point", "coordinates": [ -78.764248, -0.067592 ] } },
{ "type": "Feature", "properties": { "decimalLatitude": -0.070252, "decimalLongitude": -78.760386, "eventDate": "2016-04-22T16:32:00Z", "countryCode": "EC" }, "geometry": { "type": "Point", "coordinates": [ -78.760386, -0.070252 ] } },
{ "type": "Feature", "properties": { "decimalLatitude": 9.759041, "decimalLongitude": -83.783692, "eventDate": "2016-05-09T13:15:00Z", "countryCode": "CR" }, "geometry": { "type": "Point", "coordinates": [ -83.783692, 9.759041 ] } },
{ "type": "Feature", "properties": { "decimalLatitude": -0.048702, "decimalLongitude": -78.757625, "eventDate": "2016-07-30T17:20:00Z", "countryCode": "EC" }, "geometry": { "type": "Point", "coordinates": [ -78.757625, -0.048702 ] } },
{ "type": "Feature", "properties": { "decimalLatitude": -0.059272, "decimalLongitude": -78.739113, "eventDate": "2016-10-25T11:05:00Z", "countryCode": "EC" }, "geometry": { "type": "Point", "coordinates": [ -78.739113, -0.059272 ] } },
{ "type": "Feature", "properties": { "decimalLatitude": 13.166708, "decimalLongitude": -85.857461, "eventDate": "2017-04-25T10:53:53Z", "countryCode": "NI" }, "geometry": { "type": "Point", "coordinates": [ -85.857461, 13.166708 ] } },
{ "type": "Feature", "properties": { "decimalLatitude": 13.168033, "decimalLongitude": -85.861005, "eventDate": "2017-04-22T00:00:00Z", "countryCode": "NI" }, "geometry": { "type": "Point", "coordinates": [ -85.861005, 13.168033 ] } },
{ "type": "Feature", "properties": { "decimalLatitude": 13.165863, "decimalLongitude": -85.858464, "eventDate": "2017-04-25T00:00:00Z", "countryCode": "NI" }, "geometry": { "type": "Point", "coordinates": [ -85.858464, 13.165863 ] } },
{ "type": "Feature", "properties": { "decimalLatitude": 13.168033, "decimalLongitude": -85.861005, "eventDate": "2017-05-13T00:00:00Z", "countryCode": "NI" }, "geometry": { "type": "Point", "coordinates": [ -85.861005, 13.168033 ] } },
{ "type": "Feature", "properties": { "decimalLatitude": 13.168033, "decimalLongitude": -85.861005, "eventDate": "2017-05-01T00:00:00Z", "countryCode": "NI" }, "geometry": { "type": "Point", "coordinates": [ -85.861005, 13.168033 ] } },
{ "type": "Feature", "properties": { "decimalLatitude": 0.144893, "decimalLongitude": -78.793392, "eventDate": "2017-05-23T12:42:00Z", "countryCode": "EC" }, "geometry": { "type": "Point", "coordinates": [ -78.793392, 0.144893 ] } },
{ "type": "Feature", "properties": { "decimalLatitude": 10.363787, "decimalLongitude": -84.790206, "eventDate": "2017-05-14T16:06:00Z", "countryCode": "CR" }, "geometry": { "type": "Point", "coordinates": [ -84.790206, 10.363787 ] } },
{ "type": "Feature", "properties": { "decimalLatitude": -9.920765, "decimalLongitude": -76.241084, "eventDate": "2017-06-02T13:06:00Z", "countryCode": "PE" }, "geometry": { "type": "Point", "coordinates": [ -76.241084, -9.920765 ] } },
{ "type": "Feature", "properties": { "decimalLatitude": 13.169513, "decimalLongitude": -85.866865, "eventDate": "2017-07-08T00:00:00Z", "countryCode": "NI" }, "geometry": { "type": "Point", "coordinates": [ -85.866865, 13.169513 ] } },
{ "type": "Feature", "properties": { "decimalLatitude": 10.337887, "decimalLongitude": -84.807007, "eventDate": "2017-08-18T00:00:00Z", "countryCode": "CR" }, "geometry": { "type": "Point", "coordinates": [ -84.807007, 10.337887 ] } },
{ "type": "Feature", "properties": { "decimalLatitude": -0.073236, "decimalLongitude": -78.749256, "eventDate": "2017-08-13T02:08:50Z", "countryCode": "EC" }, "geometry": { "type": "Point", "coordinates": [ -78.749256, -0.073236 ] } },
{ "type": "Feature", "properties": { "decimalLatitude": 0.159767, "decimalLongitude": -78.853134, "eventDate": "2017-11-14T08:28:00Z", "countryCode": "EC" }, "geometry": { "type": "Point", "coordinates": [ -78.853134, 0.159767 ] } },
{ "type": "Feature", "properties": { "decimalLatitude": 13.182568, "decimalLongitude": -85.754491, "eventDate": "2017-12-20T00:00:00Z", "countryCode": "NI" }, "geometry": { "type": "Point", "coordinates": [ -85.754491, 13.182568 ] } },
{ "type": "Feature", "properties": { "decimalLatitude": 8.85556, "decimalLongitude": -82.707825, "eventDate": "2017-12-14T23:24:00Z", "countryCode": "PA" }, "geometry": { "type": "Point", "coordinates": [ -82.707825, 8.85556 ] } },
{ "type": "Feature", "properties": { "decimalLatitude": 0.12408, "decimalLongitude": -78.62947, "eventDate": "2018-02-19T13:27:55Z", "countryCode": "EC" }, "geometry": { "type": "Point", "coordinates": [ -78.62947, 0.12408 ] } },
{ "type": "Feature", "properties": { "decimalLatitude": 0.12408, "decimalLongitude": -78.62947, "eventDate": "2018-02-19T13:27:18Z", "countryCode": "EC" }, "geometry": { "type": "Point", "coordinates": [ -78.62947, 0.12408 ] } },
{ "type": "Feature", "properties": { "decimalLatitude": 8.8475, "decimalLongitude": -82.494, "eventDate": "2018-03-17T00:00:00Z", "countryCode": "PA" }, "geometry": { "type": "Point", "coordinates": [ -82.494, 8.8475 ] } },
{ "type": "Feature", "properties": { "decimalLatitude": -0.682936, "decimalLongitude": -77.602478, "eventDate": "2018-04-08T00:00:00Z", "countryCode": "EC" }, "geometry": { "type": "Point", "coordinates": [ -77.602478, -0.682936 ] } },
{ "type": "Feature", "properties": { "decimalLatitude": -0.068561, "decimalLongitude": -78.762663, "eventDate": "2018-04-22T11:20:40Z", "countryCode": "EC" }, "geometry": { "type": "Point", "coordinates": [ -78.762663, -0.068561 ] } },
{ "type": "Feature", "properties": { "decimalLatitude": 8.882953, "decimalLongitude": -82.683686, "eventDate": "2018-04-27T00:00:00Z", "countryCode": "PA" }, "geometry": { "type": "Point", "coordinates": [ -82.683686, 8.882953 ] } },
{ "type": "Feature", "properties": { "decimalLatitude": 9.642918, "decimalLongitude": -83.934341, "eventDate": "2018-04-26T18:07:00Z", "countryCode": "CR" }, "geometry": { "type": "Point", "coordinates": [ -83.934341, 9.642918 ] } },
{ "type": "Feature", "properties": { "decimalLatitude": 0.12559, "decimalLongitude": -78.630573, "eventDate": "2018-06-20T10:31:00Z", "countryCode": "EC" }, "geometry": { "type": "Point", "coordinates": [ -78.630573, 0.12559 ] } },
{ "type": "Feature", "properties": { "decimalLatitude": 0.124341, "decimalLongitude": -78.629245, "eventDate": "2018-06-30T00:00:00Z", "countryCode": "EC" }, "geometry": { "type": "Point", "coordinates": [ -78.629245, 0.124341 ] } },
{ "type": "Feature", "properties": { "decimalLatitude": 5.497608, "decimalLongitude": -75.052189, "eventDate": "2018-07-31T13:02:00Z", "countryCode": "CO" }, "geometry": { "type": "Point", "coordinates": [ -75.052189, 5.497608 ] } },
{ "type": "Feature", "properties": { "decimalLatitude": -0.010691, "decimalLongitude": -78.730799, "eventDate": "2018-07-16T10:42:00Z", "countryCode": "EC" }, "geometry": { "type": "Point", "coordinates": [ -78.730799, -0.010691 ] } },
{ "type": "Feature", "properties": { "decimalLatitude": 5.497709, "decimalLongitude": -75.052156, "eventDate": "2018-07-31T13:02:00Z", "countryCode": "CO" }, "geometry": { "type": "Point", "coordinates": [ -75.052156, 5.497709 ] } },
{ "type": "Feature", "properties": { "decimalLatitude": 0.306314, "decimalLongitude": -78.780433, "eventDate": "2018-09-01T10:20:00Z", "countryCode": "EC" }, "geometry": { "type": "Point", "coordinates": [ -78.780433, 0.306314 ] } },
{ "type": "Feature", "properties": { "decimalLatitude": -0.665442, "decimalLongitude": -77.591767, "eventDate": "2018-10-06T09:06:00Z", "countryCode": "EC" }, "geometry": { "type": "Point", "coordinates": [ -77.591767, -0.665442 ] } },
{ "type": "Feature", "properties": { "decimalLatitude": 9.801673, "decimalLongitude": -83.559877, "eventDate": "2018-10-31T10:35:00Z", "countryCode": "CR" }, "geometry": { "type": "Point", "coordinates": [ -83.559877, 9.801673 ] } },
{ "type": "Feature", "properties": { "decimalLatitude": -4.248711, "decimalLongitude": -78.659642, "eventDate": "2018-11-25T00:00:00Z", "countryCode": "EC" }, "geometry": { "type": "Point", "coordinates": [ -78.659642, -4.248711 ] } },
{ "type": "Feature", "properties": { "decimalLatitude": 9.826523, "decimalLongitude": -83.575832, "eventDate": "2018-11-01T00:32:00Z", "countryCode": "CR" }, "geometry": { "type": "Point", "coordinates": [ -83.575832, 9.826523 ] } },
{ "type": "Feature", "properties": { "decimalLatitude": 8.681076, "decimalLongitude": -82.603957, "eventDate": "2019-01-19T11:55:58Z", "countryCode": "PA" }, "geometry": { "type": "Point", "coordinates": [ -82.603957, 8.681076 ] } },
{ "type": "Feature", "properties": { "decimalLatitude": -0.06309, "decimalLongitude": -78.769137, "eventDate": "2019-01-09T11:56:00Z", "countryCode": "EC" }, "geometry": { "type": "Point", "coordinates": [ -78.769137, -0.06309 ] } },
{ "type": "Feature", "properties": { "decimalLatitude": 9.475123, "decimalLongitude": -83.572525, "eventDate": "2019-02-26T12:10:00Z", "countryCode": "CR" }, "geometry": { "type": "Point", "coordinates": [ -83.572525, 9.475123 ] } },
{ "type": "Feature", "properties": { "decimalLatitude": 0.05294, "decimalLongitude": -78.842224, "eventDate": "2019-02-02T00:00:00Z", "countryCode": "EC" }, "geometry": { "type": "Point", "coordinates": [ -78.842224, 0.05294 ] } },
{ "type": "Feature", "properties": { "decimalLatitude": -4.111115, "decimalLongitude": -78.969512, "eventDate": "2019-02-16T12:32:00Z", "countryCode": "EC" }, "geometry": { "type": "Point", "coordinates": [ -78.969512, -4.111115 ] } },
{ "type": "Feature", "properties": { "decimalLatitude": 0.052994, "decimalLongitude": -78.842261, "eventDate": "2019-02-02T00:00:00Z", "countryCode": "EC" }, "geometry": { "type": "Point", "coordinates": [ -78.842261, 0.052994 ] } },
{ "type": "Feature", "properties": { "decimalLatitude": 9.370971, "decimalLongitude": -83.493111, "eventDate": "2019-02-06T11:11:00Z", "countryCode": "CR" }, "geometry": { "type": "Point", "coordinates": [ -83.493111, 9.370971 ] } },
{ "type": "Feature", "properties": { "decimalLatitude": -0.051124, "decimalLongitude": -78.777509, "eventDate": "2019-03-08T14:18:19Z", "countryCode": "EC" }, "geometry": { "type": "Point", "coordinates": [ -78.777509, -0.051124 ] } },
{ "type": "Feature", "properties": { "decimalLatitude": 9.334639, "decimalLongitude": -83.717689, "eventDate": "2019-03-12T04:53:00Z", "countryCode": "CR" }, "geometry": { "type": "Point", "coordinates": [ -83.717689, 9.334639 ] } },
{ "type": "Feature", "properties": { "decimalLatitude": -0.320501, "decimalLongitude": -78.951871, "eventDate": "2019-04-19T17:17:00Z", "countryCode": "EC" }, "geometry": { "type": "Point", "coordinates": [ -78.951871, -0.320501 ] } },
{ "type": "Feature", "properties": { "decimalLatitude": -0.040115, "decimalLongitude": -78.787796, "eventDate": "2019-05-17T08:16:07Z", "countryCode": "EC" }, "geometry": { "type": "Point", "coordinates": [ -78.787796, -0.040115 ] } },
{ "type": "Feature", "properties": { "decimalLatitude": -0.05605, "decimalLongitude": -78.76598, "eventDate": "2019-06-27T00:00:00Z", "countryCode": "EC" }, "geometry": { "type": "Point", "coordinates": [ -78.76598, -0.05605 ] } },
{ "type": "Feature", "properties": { "decimalLatitude": 0.025304, "decimalLongitude": -78.632449, "eventDate": "2019-06-15T08:21:00Z", "countryCode": "EC" }, "geometry": { "type": "Point", "coordinates": [ -78.632449, 0.025304 ] } },
{ "type": "Feature", "properties": { "decimalLatitude": 15.496225, "decimalLongitude": -88.21145, "eventDate": "2019-06-24T22:31:00Z", "countryCode": "HN" }, "geometry": { "type": "Point", "coordinates": [ -88.21145, 15.496225 ] } },
{ "type": "Feature", "properties": { "decimalLatitude": -0.07727, "decimalLongitude": -78.75853, "eventDate": "2019-07-30T10:51:00Z", "countryCode": "EC" }, "geometry": { "type": "Point", "coordinates": [ -78.75853, -0.07727 ] } },
{ "type": "Feature", "properties": { "decimalLatitude": 13.304215, "decimalLongitude": -86.182805, "eventDate": "2019-07-14T14:51:00Z", "countryCode": "NI" }, "geometry": { "type": "Point", "coordinates": [ -86.182805, 13.304215 ] } },
{ "type": "Feature", "properties": { "decimalLatitude": 15.543621, "decimalLongitude": -88.317727, "eventDate": "2019-07-01T10:35:00Z", "countryCode": "HN" }, "geometry": { "type": "Point", "coordinates": [ -88.317727, 15.543621 ] } },
{ "type": "Feature", "properties": { "decimalLatitude": 8.811008, "decimalLongitude": -82.541622, "eventDate": "2019-07-21T11:11:36Z", "countryCode": "PA" }, "geometry": { "type": "Point", "coordinates": [ -82.541622, 8.811008 ] } },
{ "type": "Feature", "properties": { "decimalLatitude": 8.829528, "decimalLongitude": -82.486072, "eventDate": "2019-08-24T12:22:00Z", "countryCode": "PA" }, "geometry": { "type": "Point", "coordinates": [ -82.486072, 8.829528 ] } },
{ "type": "Feature", "properties": { "decimalLatitude": 14.023869, "decimalLongitude": -86.528635, "eventDate": "2019-08-31T11:26:00Z", "countryCode": "HN" }, "geometry": { "type": "Point", "coordinates": [ -86.528635, 14.023869 ] } },
{ "type": "Feature", "properties": { "decimalLatitude": 0.160718, "decimalLongitude": -78.853855, "eventDate": "2019-08-25T08:17:00Z", "countryCode": "EC" }, "geometry": { "type": "Point", "coordinates": [ -78.853855, 0.160718 ] } },
{ "type": "Feature", "properties": { "decimalLatitude": -1.400918, "decimalLongitude": -78.112342, "eventDate": "2019-09-10T10:19:00Z", "countryCode": "EC" }, "geometry": { "type": "Point", "coordinates": [ -78.112342, -1.400918 ] } },
{ "type": "Feature", "properties": { "decimalLatitude": 9.772957, "decimalLongitude": -83.859362, "eventDate": "2019-09-01T12:42:53Z", "countryCode": "CR" }, "geometry": { "type": "Point", "coordinates": [ -83.859362, 9.772957 ] } },
{ "type": "Feature", "properties": { "decimalLatitude": -4.038864, "decimalLongitude": -78.99798, "eventDate": "2019-11-09T13:16:00Z", "countryCode": "EC" }, "geometry": { "type": "Point", "coordinates": [ -78.99798, -4.038864 ] } },
{ "type": "Feature", "properties": { "decimalLatitude": -4.112238, "decimalLongitude": -78.963652, "eventDate": "2019-11-10T11:46:00Z", "countryCode": "EC" }, "geometry": { "type": "Point", "coordinates": [ -78.963652, -4.112238 ] } },
{ "type": "Feature", "properties": { "decimalLatitude": 9.470985, "decimalLongitude": -83.587373, "eventDate": "2019-11-07T09:51:00Z", "countryCode": "CR" }, "geometry": { "type": "Point", "coordinates": [ -83.587373, 9.470985 ] } },
{ "type": "Feature", "properties": { "decimalLatitude": -0.837631, "decimalLongitude": -79.205603, "eventDate": "2019-12-27T12:21:00Z", "countryCode": "EC" }, "geometry": { "type": "Point", "coordinates": [ -79.205603, -0.837631 ] } },
{ "type": "Feature", "properties": { "decimalLatitude": 5.250108, "decimalLongitude": -76.068419, "eventDate": "2020-01-11T00:00:00Z", "countryCode": "CO" }, "geometry": { "type": "Point", "coordinates": [ -76.068419, 5.250108 ] } },
{ "type": "Feature", "properties": { "decimalLatitude": 3.820853, "decimalLongitude": -76.516007, "eventDate": "2020-02-13T16:03:00Z", "countryCode": "CO" }, "geometry": { "type": "Point", "coordinates": [ -76.516007, 3.820853 ] } },
{ "type": "Feature", "properties": { "decimalLatitude": 3.54319, "decimalLongitude": -76.758641, "eventDate": "2020-02-14T11:42:00Z", "countryCode": "CO" }, "geometry": { "type": "Point", "coordinates": [ -76.758641, 3.54319 ] } },
{ "type": "Feature", "properties": { "decimalLatitude": 5.504314, "decimalLongitude": -75.046453, "eventDate": "2020-02-28T03:36:00Z", "countryCode": "CO" }, "geometry": { "type": "Point", "coordinates": [ -75.046453, 5.504314 ] } },
{ "type": "Feature", "properties": { "decimalLatitude": 8.87718, "decimalLongitude": -82.68822, "eventDate": "2020-02-14T00:00:00Z", "countryCode": "PA" }, "geometry": { "type": "Point", "coordinates": [ -82.68822, 8.87718 ] } },
{ "type": "Feature", "properties": { "decimalLatitude": -0.059893, "decimalLongitude": -78.771876, "eventDate": "2020-02-29T00:00:00Z", "countryCode": "EC" }, "geometry": { "type": "Point", "coordinates": [ -78.771876, -0.059893 ] } },
{ "type": "Feature", "properties": { "decimalLatitude": 9.471847, "decimalLongitude": -83.577517, "eventDate": "2020-03-04T13:54:00Z", "countryCode": "CR" }, "geometry": { "type": "Point", "coordinates": [ -83.577517, 9.471847 ] } },
{ "type": "Feature", "properties": { "decimalLatitude": 0.124909, "decimalLongitude": -78.630222, "eventDate": "2020-03-14T16:17:00Z", "countryCode": "EC" }, "geometry": { "type": "Point", "coordinates": [ -78.630222, 0.124909 ] } },
{ "type": "Feature", "properties": { "decimalLatitude": 9.523006, "decimalLongitude": -83.660544, "eventDate": "2020-03-05T11:19:00Z", "countryCode": "CR" }, "geometry": { "type": "Point", "coordinates": [ -83.660544, 9.523006 ] } },
{ "type": "Feature", "properties": { "decimalLatitude": 9.469931, "decimalLongitude": -83.578225, "eventDate": "2020-03-03T09:51:00Z", "countryCode": "CR" }, "geometry": { "type": "Point", "coordinates": [ -83.578225, 9.469931 ] } },
{ "type": "Feature", "properties": { "decimalLatitude": 9.471805, "decimalLongitude": -83.569997, "eventDate": "2020-03-04T13:57:00Z", "countryCode": "CR" }, "geometry": { "type": "Point", "coordinates": [ -83.569997, 9.471805 ] } },
{ "type": "Feature", "properties": { "decimalLatitude": 9.523039, "decimalLongitude": -83.660492, "eventDate": "2020-03-05T11:20:00Z", "countryCode": "CR" }, "geometry": { "type": "Point", "coordinates": [ -83.660492, 9.523039 ] } },
{ "type": "Feature", "properties": { "decimalLatitude": 9.992849, "decimalLongitude": -83.992056, "eventDate": "2020-05-22T12:09:00Z", "countryCode": "CR" }, "geometry": { "type": "Point", "coordinates": [ -83.992056, 9.992849 ] } },
{ "type": "Feature", "properties": { "decimalLatitude": 3.559384, "decimalLongitude": -76.56322, "eventDate": "2020-06-08T12:17:00Z", "countryCode": "CO" }, "geometry": { "type": "Point", "coordinates": [ -76.56322, 3.559384 ] } },
{ "type": "Feature", "properties": { "decimalLatitude": 11.826111, "decimalLongitude": -85.9675, "eventDate": "2020-09-26T14:01:35Z", "countryCode": "NI" }, "geometry": { "type": "Point", "coordinates": [ -85.9675, 11.826111 ] } },
{ "type": "Feature", "properties": { "decimalLatitude": 11.835296, "decimalLongitude": -85.97725, "eventDate": "2020-09-26T14:39:00Z", "countryCode": "NI" }, "geometry": { "type": "Point", "coordinates": [ -85.97725, 11.835296 ] } },
{ "type": "Feature", "properties": { "decimalLatitude": 8.829599, "decimalLongitude": -82.494571, "eventDate": "2021-02-06T11:24:00Z", "countryCode": "PA" }, "geometry": { "type": "Point", "coordinates": [ -82.494571, 8.829599 ] } },
{ "type": "Feature", "properties": { "decimalLatitude": 8.758877, "decimalLongitude": -82.36638, "eventDate": "2021-03-10T09:52:13Z", "countryCode": "PA" }, "geometry": { "type": "Point", "coordinates": [ -82.36638, 8.758877 ] } },
{ "type": "Feature", "properties": { "decimalLatitude": 8.764408, "decimalLongitude": -82.398227, "eventDate": "2021-03-14T09:44:00Z", "countryCode": "PA" }, "geometry": { "type": "Point", "coordinates": [ -82.398227, 8.764408 ] } },
{ "type": "Feature", "properties": { "decimalLatitude": 9.760619, "decimalLongitude": -83.784389, "eventDate": "2021-03-25T15:01:41Z", "countryCode": "CR" }, "geometry": { "type": "Point", "coordinates": [ -83.784389, 9.760619 ] } },
{ "type": "Feature", "properties": { "decimalLatitude": 3.481608, "decimalLongitude": -76.186482, "eventDate": "2021-04-23T10:31:00Z", "countryCode": "CO" }, "geometry": { "type": "Point", "coordinates": [ -76.186482, 3.481608 ] } },
{ "type": "Feature", "properties": { "decimalLatitude": 3.881167, "decimalLongitude": -76.574149, "eventDate": "2021-04-20T12:22:00Z", "countryCode": "CO" }, "geometry": { "type": "Point", "coordinates": [ -76.574149, 3.881167 ] } },
{ "type": "Feature", "properties": { "decimalLatitude": 15.097074, "decimalLongitude": -86.738563, "eventDate": "2021-04-08T14:26:00Z", "countryCode": "HN" }, "geometry": { "type": "Point", "coordinates": [ -86.738563, 15.097074 ] } },
{ "type": "Feature", "properties": { "decimalLatitude": 15.097073, "decimalLongitude": -86.738572, "eventDate": "2021-04-08T14:26:00Z", "countryCode": "HN" }, "geometry": { "type": "Point", "coordinates": [ -86.738572, 15.097073 ] } },
{ "type": "Feature", "properties": { "decimalLatitude": 9.87633, "decimalLongitude": -84.134067, "eventDate": "2021-04-25T13:30:00Z", "countryCode": "CR" }, "geometry": { "type": "Point", "coordinates": [ -84.134067, 9.87633 ] } },
{ "type": "Feature", "properties": { "decimalLatitude": 10.20248, "decimalLongitude": -84.305679, "eventDate": "2021-05-03T09:05:00Z", "countryCode": "CR" }, "geometry": { "type": "Point", "coordinates": [ -84.305679, 10.20248 ] } },
{ "type": "Feature", "properties": { "decimalLatitude": 0.182329, "decimalLongitude": -78.732047, "eventDate": "2021-05-15T12:58:57Z", "countryCode": "EC" }, "geometry": { "type": "Point", "coordinates": [ -78.732047, 0.182329 ] } },
{ "type": "Feature", "properties": { "decimalLatitude": 0.125594, "decimalLongitude": -78.630573, "eventDate": "2021-05-26T21:08:20Z", "countryCode": "EC" }, "geometry": { "type": "Point", "coordinates": [ -78.630573, 0.125594 ] } },
{ "type": "Feature", "properties": { "decimalLatitude": 9.47062, "decimalLongitude": -83.590427, "eventDate": "2021-05-25T11:37:00Z", "countryCode": "CR" }, "geometry": { "type": "Point", "coordinates": [ -83.590427, 9.47062 ] } },
{ "type": "Feature", "properties": { "decimalLatitude": 15.496226, "decimalLongitude": -88.211835, "eventDate": "2021-05-14T13:17:00Z", "countryCode": "HN" }, "geometry": { "type": "Point", "coordinates": [ -88.211835, 15.496226 ] } },
{ "type": "Feature", "properties": { "decimalLatitude": 0.124058, "decimalLongitude": -78.629433, "eventDate": "2021-05-24T10:28:00Z", "countryCode": "EC" }, "geometry": { "type": "Point", "coordinates": [ -78.629433, 0.124058 ] } },
{ "type": "Feature", "properties": { "decimalLatitude": 0.124058, "decimalLongitude": -78.629433, "eventDate": "2021-05-24T09:56:00Z", "countryCode": "EC" }, "geometry": { "type": "Point", "coordinates": [ -78.629433, 0.124058 ] } },
{ "type": "Feature", "properties": { "decimalLatitude": 0.124058, "decimalLongitude": -78.629433, "eventDate": "2021-05-24T10:35:00Z", "countryCode": "EC" }, "geometry": { "type": "Point", "coordinates": [ -78.629433, 0.124058 ] } },
{ "type": "Feature", "properties": { "decimalLatitude": 8.821568, "decimalLongitude": -82.425153, "eventDate": "2021-06-04T15:56:00Z", "countryCode": "PA" }, "geometry": { "type": "Point", "coordinates": [ -82.425153, 8.821568 ] } },
{ "type": "Feature", "properties": { "decimalLatitude": 0.062517, "decimalLongitude": -78.809272, "eventDate": "2021-06-04T09:51:40Z", "countryCode": "EC" }, "geometry": { "type": "Point", "coordinates": [ -78.809272, 0.062517 ] } },
{ "type": "Feature", "properties": { "decimalLatitude": 8.861985, "decimalLongitude": -82.718132, "eventDate": "2021-06-08T09:14:00Z", "countryCode": "PA" }, "geometry": { "type": "Point", "coordinates": [ -82.718132, 8.861985 ] } },
{ "type": "Feature", "properties": { "decimalLatitude": 1.15781, "decimalLongitude": -77.9767, "eventDate": "2021-06-29T00:00:00Z", "countryCode": "CO" }, "geometry": { "type": "Point", "coordinates": [ -77.9767, 1.15781 ] } },
{ "type": "Feature", "properties": { "decimalLatitude": 8.455056, "decimalLongitude": -82.325599, "eventDate": "2021-07-14T15:03:00Z", "countryCode": "PA" }, "geometry": { "type": "Point", "coordinates": [ -82.325599, 8.455056 ] } },
{ "type": "Feature", "properties": { "decimalLatitude": 1.17014, "decimalLongitude": -77.97252, "eventDate": "2021-07-04T00:00:00Z", "countryCode": "CO" }, "geometry": { "type": "Point", "coordinates": [ -77.97252, 1.17014 ] } },
{ "type": "Feature", "properties": { "decimalLatitude": 1.12956, "decimalLongitude": -77.99535, "eventDate": "2021-07-02T00:00:00Z", "countryCode": "CO" }, "geometry": { "type": "Point", "coordinates": [ -77.99535, 1.12956 ] } },
{ "type": "Feature", "properties": { "decimalLatitude": 6.647269, "decimalLongitude": -73.318021, "eventDate": "2021-08-16T00:00:00Z", "countryCode": "CO" }, "geometry": { "type": "Point", "coordinates": [ -73.318021, 6.647269 ] } },
{ "type": "Feature", "properties": { "decimalLatitude": 1.12727, "decimalLongitude": -77.99656, "eventDate": "2021-08-15T00:00:00Z", "countryCode": "CO" }, "geometry": { "type": "Point", "coordinates": [ -77.99656, 1.12727 ] } },
{ "type": "Feature", "properties": { "decimalLatitude": 0.124077, "decimalLongitude": -78.629574, "eventDate": "2021-09-24T11:10:00Z", "countryCode": "EC" }, "geometry": { "type": "Point", "coordinates": [ -78.629574, 0.124077 ] } },
{ "type": "Feature", "properties": { "decimalLatitude": 1.12956, "decimalLongitude": -77.99535, "eventDate": "2021-09-19T00:00:00Z", "countryCode": "CO" }, "geometry": { "type": "Point", "coordinates": [ -77.99535, 1.12956 ] } },
{ "type": "Feature", "properties": { "decimalLatitude": -4.137177, "decimalLongitude": -78.989124, "eventDate": "2021-10-24T13:14:00Z", "countryCode": "EC" }, "geometry": { "type": "Point", "coordinates": [ -78.989124, -4.137177 ] } },
{ "type": "Feature", "properties": { "decimalLatitude": -0.675521, "decimalLongitude": -77.601383, "eventDate": "2021-10-27T00:00:00Z", "countryCode": "EC" }, "geometry": { "type": "Point", "coordinates": [ -77.601383, -0.675521 ] } },
{ "type": "Feature", "properties": { "decimalLatitude": 0.124077, "decimalLongitude": -78.629574, "eventDate": "2021-11-01T08:58:00Z", "countryCode": "EC" }, "geometry": { "type": "Point", "coordinates": [ -78.629574, 0.124077 ] } },
{ "type": "Feature", "properties": { "decimalLatitude": -4.090336, "decimalLongitude": -78.957943, "eventDate": "2021-11-26T12:59:00Z", "countryCode": "EC" }, "geometry": { "type": "Point", "coordinates": [ -78.957943, -4.090336 ] } },
{ "type": "Feature", "properties": { "decimalLatitude": 5.922564, "decimalLongitude": -74.464952, "eventDate": "2021-12-07T07:52:20Z", "countryCode": "CO" }, "geometry": { "type": "Point", "coordinates": [ -74.464952, 5.922564 ] } },
{ "type": "Feature", "properties": { "decimalLatitude": 3.63442, "decimalLongitude": -76.83559, "eventDate": "2021-12-09T08:47:00Z", "countryCode": "CO" }, "geometry": { "type": "Point", "coordinates": [ -76.83559, 3.63442 ] } },
{ "type": "Feature", "properties": { "decimalLatitude": 8.819827, "decimalLongitude": -82.423231, "eventDate": "2021-12-03T11:27:00Z", "countryCode": "PA" }, "geometry": { "type": "Point", "coordinates": [ -82.423231, 8.819827 ] } },
{ "type": "Feature", "properties": { "decimalLatitude": 3.880825, "decimalLongitude": -76.56977, "eventDate": "2021-12-20T11:43:00Z", "countryCode": "CO" }, "geometry": { "type": "Point", "coordinates": [ -76.56977, 3.880825 ] } },
{ "type": "Feature", "properties": { "decimalLatitude": 3.880911, "decimalLongitude": -76.56872, "eventDate": "2021-12-20T11:31:00Z", "countryCode": "CO" }, "geometry": { "type": "Point", "coordinates": [ -76.56872, 3.880911 ] } },
{ "type": "Feature", "properties": { "decimalLatitude": -5.925794, "decimalLongitude": -77.35125, "eventDate": "2021-12-01T12:37:00Z", "countryCode": "PE" }, "geometry": { "type": "Point", "coordinates": [ -77.35125, -5.925794 ] } },
{ "type": "Feature", "properties": { "decimalLatitude": -5.925821, "decimalLongitude": -77.35125, "eventDate": "2021-12-01T12:40:00Z", "countryCode": "PE" }, "geometry": { "type": "Point", "coordinates": [ -77.35125, -5.925821 ] } },
{ "type": "Feature", "properties": { "decimalLatitude": 8.939684, "decimalLongitude": -82.813628, "eventDate": "2022-02-20T09:03:30Z", "countryCode": "CR" }, "geometry": { "type": "Point", "coordinates": [ -82.813628, 8.939684 ] } },
{ "type": "Feature", "properties": { "decimalLatitude": 9.471209, "decimalLongitude": -83.572525, "eventDate": "2022-02-27T10:18:00Z", "countryCode": "CR" }, "geometry": { "type": "Point", "coordinates": [ -83.572525, 9.471209 ] } },
{ "type": "Feature", "properties": { "decimalLatitude": 1.12956, "decimalLongitude": -77.99535, "eventDate": "2022-02-15T00:00:00Z", "countryCode": "CO" }, "geometry": { "type": "Point", "coordinates": [ -77.99535, 1.12956 ] } },
{ "type": "Feature", "properties": { "decimalLatitude": 10.115935, "decimalLongitude": -84.210811, "eventDate": "2022-02-05T11:19:40Z", "countryCode": "CR" }, "geometry": { "type": "Point", "coordinates": [ -84.210811, 10.115935 ] } },
{ "type": "Feature", "properties": { "decimalLatitude": 3.882637, "decimalLongitude": -76.575575, "eventDate": "2022-03-23T11:02:00Z", "countryCode": "CO" }, "geometry": { "type": "Point", "coordinates": [ -76.575575, 3.882637 ] } },
{ "type": "Feature", "properties": { "decimalLatitude": 0.12295, "decimalLongitude": -78.628477, "eventDate": "2022-03-30T00:00:00Z", "countryCode": "EC" }, "geometry": { "type": "Point", "coordinates": [ -78.628477, 0.12295 ] } },
{ "type": "Feature", "properties": { "decimalLatitude": 0.122987, "decimalLongitude": -78.628367, "eventDate": "2022-03-30T00:00:00Z", "countryCode": "EC" }, "geometry": { "type": "Point", "coordinates": [ -78.628367, 0.122987 ] } },
{ "type": "Feature", "properties": { "decimalLatitude": 8.883951, "decimalLongitude": -82.683794, "eventDate": "2022-04-16T12:44:00Z", "countryCode": "PA" }, "geometry": { "type": "Point", "coordinates": [ -82.683794, 8.883951 ] } },
{ "type": "Feature", "properties": { "decimalLatitude": 0.160477, "decimalLongitude": -78.856378, "eventDate": "2022-04-10T00:00:00Z", "countryCode": "EC" }, "geometry": { "type": "Point", "coordinates": [ -78.856378, 0.160477 ] } },
{ "type": "Feature", "properties": { "decimalLatitude": -0.585007, "decimalLongitude": -77.877488, "eventDate": "2022-04-10T15:03:00Z", "countryCode": "EC" }, "geometry": { "type": "Point", "coordinates": [ -77.877488, -0.585007 ] } },
{ "type": "Feature", "properties": { "decimalLatitude": -0.075987, "decimalLongitude": -78.761777, "eventDate": "2022-06-19T11:01:00Z", "countryCode": "EC" }, "geometry": { "type": "Point", "coordinates": [ -78.761777, -0.075987 ] } },
{ "type": "Feature", "properties": { "decimalLatitude": -0.064131, "decimalLongitude": -78.764668, "eventDate": "2022-06-12T10:50:00Z", "countryCode": "EC" }, "geometry": { "type": "Point", "coordinates": [ -78.764668, -0.064131 ] } },
{ "type": "Feature", "properties": { "decimalLatitude": 10.324092, "decimalLongitude": -84.816278, "eventDate": "2022-07-09T11:49:00Z", "countryCode": "CR" }, "geometry": { "type": "Point", "coordinates": [ -84.816278, 10.324092 ] } },
{ "type": "Feature", "properties": { "decimalLatitude": -0.078614, "decimalLongitude": -78.762271, "eventDate": "2022-08-08T11:45:00Z", "countryCode": "EC" }, "geometry": { "type": "Point", "coordinates": [ -78.762271, -0.078614 ] } },
{ "type": "Feature", "properties": { "decimalLatitude": -0.685132, "decimalLongitude": -77.601429, "eventDate": "2022-10-09T00:00:00Z", "countryCode": "EC" }, "geometry": { "type": "Point", "coordinates": [ -77.601429, -0.685132 ] } },
{ "type": "Feature", "properties": { "decimalLatitude": -0.717879, "decimalLongitude": -77.682247, "eventDate": "2022-10-06T10:28:00Z", "countryCode": "EC" }, "geometry": { "type": "Point", "coordinates": [ -77.682247, -0.717879 ] } },
{ "type": "Feature", "properties": { "decimalLatitude": -0.685294, "decimalLongitude": -77.601413, "eventDate": "2022-10-09T09:45:00Z", "countryCode": "EC" }, "geometry": { "type": "Point", "coordinates": [ -77.601413, -0.685294 ] } },
{ "type": "Feature", "properties": { "decimalLatitude": -0.718033, "decimalLongitude": -77.682305, "eventDate": "2022-10-04T00:00:00Z", "countryCode": "EC" }, "geometry": { "type": "Point", "coordinates": [ -77.682305, -0.718033 ] } },
{ "type": "Feature", "properties": { "decimalLatitude": -0.684621, "decimalLongitude": -77.600845, "eventDate": "2022-10-11T00:00:00Z", "countryCode": "EC" }, "geometry": { "type": "Point", "coordinates": [ -77.600845, -0.684621 ] } },
{ "type": "Feature", "properties": { "decimalLatitude": -0.685379, "decimalLongitude": -77.601549, "eventDate": "2022-10-09T09:20:00Z", "countryCode": "EC" }, "geometry": { "type": "Point", "coordinates": [ -77.601549, -0.685379 ] } },
{ "type": "Feature", "properties": { "decimalLatitude": -0.718155, "decimalLongitude": -77.682277, "eventDate": "2022-10-06T00:00:00Z", "countryCode": "EC" }, "geometry": { "type": "Point", "coordinates": [ -77.682277, -0.718155 ] } },
{ "type": "Feature", "properties": { "decimalLatitude": -0.392062, "decimalLongitude": -77.816344, "eventDate": "2022-10-14T00:00:00Z", "countryCode": "EC" }, "geometry": { "type": "Point", "coordinates": [ -77.816344, -0.392062 ] } },
{ "type": "Feature", "properties": { "decimalLatitude": -0.718155, "decimalLongitude": -77.682277, "eventDate": "2022-10-06T00:00:00Z", "countryCode": "EC" }, "geometry": { "type": "Point", "coordinates": [ -77.682277, -0.718155 ] } },
{ "type": "Feature", "properties": { "decimalLatitude": -3.406349, "decimalLongitude": -78.571763, "eventDate": "2022-10-09T15:33:00Z", "countryCode": "EC" }, "geometry": { "type": "Point", "coordinates": [ -78.571763, -3.406349 ] } },
{ "type": "Feature", "properties": { "decimalLatitude": -0.717413, "decimalLongitude": -77.682616, "eventDate": "2022-10-04T11:02:00Z", "countryCode": "EC" }, "geometry": { "type": "Point", "coordinates": [ -77.682616, -0.717413 ] } },
{ "type": "Feature", "properties": { "decimalLatitude": -0.717465, "decimalLongitude": -77.682604, "eventDate": "2022-10-04T11:03:00Z", "countryCode": "EC" }, "geometry": { "type": "Point", "coordinates": [ -77.682604, -0.717465 ] } },
{ "type": "Feature", "properties": { "decimalLatitude": -0.105616, "decimalLongitude": -78.590729, "eventDate": "2022-11-24T18:26:49Z", "countryCode": "EC" }, "geometry": { "type": "Point", "coordinates": [ -78.590729, -0.105616 ] } },
{ "type": "Feature", "properties": { "decimalLatitude": 10.319411, "decimalLongitude": -84.834258, "eventDate": "2022-12-26T19:01:00Z", "countryCode": "CR" }, "geometry": { "type": "Point", "coordinates": [ -84.834258, 10.319411 ] } },
{ "type": "Feature", "properties": { "decimalLatitude": 14.523438, "decimalLongitude": -91.136692, "eventDate": "2022-12-08T12:51:00Z", "countryCode": "GT" }, "geometry": { "type": "Point", "coordinates": [ -91.136692, 14.523438 ] } },
{ "type": "Feature", "properties": { "decimalLatitude": 10.204743, "decimalLongitude": -84.317439, "eventDate": "2023-01-06T10:01:00Z", "countryCode": "CR" }, "geometry": { "type": "Point", "coordinates": [ -84.317439, 10.204743 ] } },
{ "type": "Feature", "properties": { "decimalLatitude": 3.896373, "decimalLongitude": -76.621481, "eventDate": "2023-01-11T12:22:00Z", "countryCode": "CO" }, "geometry": { "type": "Point", "coordinates": [ -76.621481, 3.896373 ] } },
{ "type": "Feature", "properties": { "decimalLatitude": 14.550465, "decimalLongitude": -91.165967, "eventDate": "2023-01-07T10:05:00Z", "countryCode": "GT" }, "geometry": { "type": "Point", "coordinates": [ -91.165967, 14.550465 ] } },
{ "type": "Feature", "properties": { "decimalLatitude": -0.3212, "decimalLongitude": -78.951662, "eventDate": "2023-01-24T11:22:41Z", "countryCode": "EC" }, "geometry": { "type": "Point", "coordinates": [ -78.951662, -0.3212 ] } },
{ "type": "Feature", "properties": { "decimalLatitude": 9.482453, "decimalLongitude": -83.567245, "eventDate": "2023-01-30T13:20:29Z", "countryCode": "CR" }, "geometry": { "type": "Point", "coordinates": [ -83.567245, 9.482453 ] } },
{ "type": "Feature", "properties": { "decimalLatitude": 9.128007, "decimalLongitude": -79.715169, "eventDate": "2023-01-21T00:00:00Z", "countryCode": "PA" }, "geometry": { "type": "Point", "coordinates": [ -79.715169, 9.128007 ] } },
{ "type": "Feature", "properties": { "decimalLatitude": 9.128007, "decimalLongitude": -79.715169, "eventDate": "2023-01-21T00:00:00Z", "countryCode": "PA" }, "geometry": { "type": "Point", "coordinates": [ -79.715169, 9.128007 ] } },
{ "type": "Feature", "properties": { "decimalLatitude": 9.576463, "decimalLongitude": -84.214292, "eventDate": "2023-02-01T13:35:42Z", "countryCode": "CR" }, "geometry": { "type": "Point", "coordinates": [ -84.214292, 9.576463 ] } },
{ "type": "Feature", "properties": { "decimalLatitude": 8.830088, "decimalLongitude": -82.480328, "eventDate": "2023-03-21T13:52:00Z", "countryCode": "PA" }, "geometry": { "type": "Point", "coordinates": [ -82.480328, 8.830088 ] } },
{ "type": "Feature", "properties": { "decimalLatitude": 5.230227, "decimalLongitude": -76.083815, "eventDate": "2023-03-12T00:00:00Z", "countryCode": "CO" }, "geometry": { "type": "Point", "coordinates": [ -76.083815, 5.230227 ] } },
{ "type": "Feature", "properties": { "decimalLatitude": 10.302679, "decimalLongitude": -84.795499, "eventDate": "2023-04-08T10:48:00Z", "countryCode": "CR" }, "geometry": { "type": "Point", "coordinates": [ -84.795499, 10.302679 ] } },
{ "type": "Feature", "properties": { "decimalLatitude": 9.75726, "decimalLongitude": -83.782992, "eventDate": "2023-05-10T10:59:00Z", "countryCode": "CR" }, "geometry": { "type": "Point", "coordinates": [ -83.782992, 9.75726 ] } },
{ "type": "Feature", "properties": { "decimalLatitude": 9.732749, "decimalLongitude": -83.780901, "eventDate": "2023-05-10T12:53:00Z", "countryCode": "CR" }, "geometry": { "type": "Point", "coordinates": [ -83.780901, 9.732749 ] } },
{ "type": "Feature", "properties": { "decimalLatitude": 0.290284, "decimalLongitude": -78.867484, "eventDate": "2023-05-01T00:39:00Z", "countryCode": "EC" }, "geometry": { "type": "Point", "coordinates": [ -78.867484, 0.290284 ] } },
{ "type": "Feature", "properties": { "decimalLatitude": 0.290802, "decimalLongitude": -78.866997, "eventDate": "2023-05-01T00:39:00Z", "countryCode": "EC" }, "geometry": { "type": "Point", "coordinates": [ -78.866997, 0.290802 ] } },
{ "type": "Feature", "properties": { "decimalLatitude": 0.290197, "decimalLongitude": -78.867552, "eventDate": "2023-05-08T12:22:00Z", "countryCode": "EC" }, "geometry": { "type": "Point", "coordinates": [ -78.867552, 0.290197 ] } },
{ "type": "Feature", "properties": { "decimalLatitude": 9.84234, "decimalLongitude": -83.92429, "eventDate": "2023-05-14T00:00:00Z", "countryCode": "CR" }, "geometry": { "type": "Point", "coordinates": [ -83.92429, 9.84234 ] } },
{ "type": "Feature", "properties": { "decimalLatitude": 8.807803, "decimalLongitude": -82.472568, "eventDate": "2023-05-13T11:58:00Z", "countryCode": "PA" }, "geometry": { "type": "Point", "coordinates": [ -82.472568, 8.807803 ] } },
{ "type": "Feature", "properties": { "decimalLatitude": 0.012188, "decimalLongitude": -78.684608, "eventDate": "2023-05-20T11:30:00Z", "countryCode": "EC" }, "geometry": { "type": "Point", "coordinates": [ -78.684608, 0.012188 ] } },
{ "type": "Feature", "properties": { "decimalLatitude": 9.758283, "decimalLongitude": -83.783504, "eventDate": "2023-05-10T10:05:00Z", "countryCode": "CR" }, "geometry": { "type": "Point", "coordinates": [ -83.783504, 9.758283 ] } },
{ "type": "Feature", "properties": { "decimalLatitude": -0.054311, "decimalLongitude": -78.775812, "eventDate": "2023-06-24T12:09:17Z", "countryCode": "EC" }, "geometry": { "type": "Point", "coordinates": [ -78.775812, -0.054311 ] } },
{ "type": "Feature", "properties": { "decimalLatitude": -0.082663, "decimalLongitude": -78.745786, "eventDate": "2023-06-28T10:08:39Z", "countryCode": "EC" }, "geometry": { "type": "Point", "coordinates": [ -78.745786, -0.082663 ] } },
{ "type": "Feature", "properties": { "decimalLatitude": 0.123942, "decimalLongitude": -78.629386, "eventDate": "2023-06-12T09:15:59Z", "countryCode": "EC" }, "geometry": { "type": "Point", "coordinates": [ -78.629386, 0.123942 ] } },
{ "type": "Feature", "properties": { "decimalLatitude": 9.911004, "decimalLongitude": -84.199756, "eventDate": "2023-07-09T11:12:29Z", "countryCode": "CR" }, "geometry": { "type": "Point", "coordinates": [ -84.199756, 9.911004 ] } },
{ "type": "Feature", "properties": { "decimalLatitude": 10.166045, "decimalLongitude": -84.151561, "eventDate": "2023-07-23T13:28:00Z", "countryCode": "CR" }, "geometry": { "type": "Point", "coordinates": [ -84.151561, 10.166045 ] } },
{ "type": "Feature", "properties": { "decimalLatitude": 10.168627, "decimalLongitude": -84.14879, "eventDate": "2023-07-23T11:53:00Z", "countryCode": "CR" }, "geometry": { "type": "Point", "coordinates": [ -84.14879, 10.168627 ] } },
{ "type": "Feature", "properties": { "decimalLatitude": 0.123764, "decimalLongitude": -78.629324, "eventDate": "2023-07-26T09:40:00Z", "countryCode": "EC" }, "geometry": { "type": "Point", "coordinates": [ -78.629324, 0.123764 ] } },
{ "type": "Feature", "properties": { "decimalLatitude": 10.375119, "decimalLongitude": -84.007878, "eventDate": "2023-07-23T11:58:00Z", "countryCode": "CR" }, "geometry": { "type": "Point", "coordinates": [ -84.007878, 10.375119 ] } },
{ "type": "Feature", "properties": { "decimalLatitude": 9.738425, "decimalLongitude": -84.380936, "eventDate": "2023-07-23T19:13:00Z", "countryCode": "CR" }, "geometry": { "type": "Point", "coordinates": [ -84.380936, 9.738425 ] } },
{ "type": "Feature", "properties": { "decimalLatitude": -0.622775, "decimalLongitude": -77.602509, "eventDate": "2023-07-14T00:00:00Z", "countryCode": "EC" }, "geometry": { "type": "Point", "coordinates": [ -77.602509, -0.622775 ] } },
{ "type": "Feature", "properties": { "decimalLatitude": 10.2991, "decimalLongitude": -84.805763, "eventDate": "2023-07-11T13:10:11Z", "countryCode": "CR" }, "geometry": { "type": "Point", "coordinates": [ -84.805763, 10.2991 ] } },
{ "type": "Feature", "properties": { "decimalLatitude": -0.07885, "decimalLongitude": -78.760087, "eventDate": "2023-07-21T14:40:59Z", "countryCode": "EC" }, "geometry": { "type": "Point", "coordinates": [ -78.760087, -0.07885 ] } },
{ "type": "Feature", "properties": { "decimalLatitude": 10.135021, "decimalLongitude": -84.234697, "eventDate": "2023-08-13T10:16:45Z", "countryCode": "CR" }, "geometry": { "type": "Point", "coordinates": [ -84.234697, 10.135021 ] } },
{ "type": "Feature", "properties": { "decimalLatitude": -0.058155, "decimalLongitude": -78.77357, "eventDate": "2023-09-17T06:46:15Z", "countryCode": "EC" }, "geometry": { "type": "Point", "coordinates": [ -78.77357, -0.058155 ] } },
{ "type": "Feature", "properties": { "decimalLatitude": -0.048717, "decimalLongitude": -78.775198, "eventDate": "2023-09-21T13:29:07Z", "countryCode": "EC" }, "geometry": { "type": "Point", "coordinates": [ -78.775198, -0.048717 ] } },
{ "type": "Feature", "properties": { "decimalLatitude": -1.309773, "decimalLongitude": -77.187961, "eventDate": "2023-11-08T01:24:00Z", "countryCode": "EC" }, "geometry": { "type": "Point", "coordinates": [ -77.187961, -1.309773 ] } },
{ "type": "Feature", "properties": { "decimalLatitude": -0.690885, "decimalLongitude": -77.309, "eventDate": "2023-11-07T01:31:00Z", "countryCode": "EC" }, "geometry": { "type": "Point", "coordinates": [ -77.309, -0.690885 ] } },
{ "type": "Feature", "properties": { "decimalLatitude": 9.942924, "decimalLongitude": -69.271684, "eventDate": "2024-01-28T13:03:00Z", "countryCode": "VE" }, "geometry": { "type": "Point", "coordinates": [ -69.271684, 9.942924 ] } },
{ "type": "Feature", "properties": { "decimalLatitude": 9.535763, "decimalLongitude": -83.851763, "eventDate": "2024-01-14T15:04:00Z", "countryCode": "CR" }, "geometry": { "type": "Point", "coordinates": [ -83.851763, 9.535763 ] } },
{ "type": "Feature", "properties": { "decimalLatitude": 0.805339, "decimalLongitude": -78.165778, "eventDate": "2024-01-17T08:50:42Z", "countryCode": "EC" }, "geometry": { "type": "Point", "coordinates": [ -78.165778, 0.805339 ] } },
{ "type": "Feature", "properties": { "decimalLatitude": 3.52738, "decimalLongitude": -76.617056, "eventDate": "2024-01-19T21:03:00Z", "countryCode": "CO" }, "geometry": { "type": "Point", "coordinates": [ -76.617056, 3.52738 ] } },
{ "type": "Feature", "properties": { "decimalLatitude": 9.47135, "decimalLongitude": -83.584488, "eventDate": "2024-02-12T09:29:57Z", "countryCode": "CR" }, "geometry": { "type": "Point", "coordinates": [ -83.584488, 9.47135 ] } },
{ "type": "Feature", "properties": { "decimalLatitude": 8.773599, "decimalLongitude": -82.369528, "eventDate": "2024-02-17T12:37:00Z", "countryCode": "PA" }, "geometry": { "type": "Point", "coordinates": [ -82.369528, 8.773599 ] } },
{ "type": "Feature", "properties": { "decimalLatitude": 13.257805, "decimalLongitude": -85.723542, "eventDate": "2024-02-16T10:09:12Z", "countryCode": "NI" }, "geometry": { "type": "Point", "coordinates": [ -85.723542, 13.257805 ] } },
{ "type": "Feature", "properties": { "decimalLatitude": 13.260589, "decimalLongitude": -85.72125, "eventDate": "2024-02-26T10:31:00Z", "countryCode": "NI" }, "geometry": { "type": "Point", "coordinates": [ -85.72125, 13.260589 ] } },
{ "type": "Feature", "properties": { "decimalLatitude": 9.550258, "decimalLongitude": -83.805122, "eventDate": "2024-02-25T12:51:00Z", "countryCode": "CR" }, "geometry": { "type": "Point", "coordinates": [ -83.805122, 9.550258 ] } },
{ "type": "Feature", "properties": { "decimalLatitude": 8.767735, "decimalLongitude": -82.673516, "eventDate": "2024-02-28T12:30:00Z", "countryCode": "PA" }, "geometry": { "type": "Point", "coordinates": [ -82.673516, 8.767735 ] } },
{ "type": "Feature", "properties": { "decimalLatitude": 9.485154, "decimalLongitude": -83.586529, "eventDate": "2024-02-10T11:05:00Z", "countryCode": "CR" }, "geometry": { "type": "Point", "coordinates": [ -83.586529, 9.485154 ] } },
{ "type": "Feature", "properties": { "decimalLatitude": 8.836623, "decimalLongitude": -82.696261, "eventDate": "2024-02-19T10:23:55Z", "countryCode": "PA" }, "geometry": { "type": "Point", "coordinates": [ -82.696261, 8.836623 ] } },
{ "type": "Feature", "properties": { "decimalLatitude": 9.435532, "decimalLongitude": -83.608449, "eventDate": "2024-02-11T12:55:00Z", "countryCode": "CR" }, "geometry": { "type": "Point", "coordinates": [ -83.608449, 9.435532 ] } },
{ "type": "Feature", "properties": { "decimalLatitude": 8.827671, "decimalLongitude": -82.714111, "eventDate": "2024-02-03T12:02:26Z", "countryCode": "PA" }, "geometry": { "type": "Point", "coordinates": [ -82.714111, 8.827671 ] } },
{ "type": "Feature", "properties": { "decimalLatitude": 10.30522, "decimalLongitude": -84.810691, "eventDate": "2024-03-10T13:41:00Z", "countryCode": "CR" }, "geometry": { "type": "Point", "coordinates": [ -84.810691, 10.30522 ] } },
{ "type": "Feature", "properties": { "decimalLatitude": -0.050928, "decimalLongitude": -78.770225, "eventDate": "2024-03-14T11:09:28Z", "countryCode": "EC" }, "geometry": { "type": "Point", "coordinates": [ -78.770225, -0.050928 ] } },
{ "type": "Feature", "properties": { "decimalLatitude": 9.863809, "decimalLongitude": -83.916193, "eventDate": "2024-03-27T11:48:00Z", "countryCode": "CR" }, "geometry": { "type": "Point", "coordinates": [ -83.916193, 9.863809 ] } },
{ "type": "Feature", "properties": { "decimalLatitude": 9.546267, "decimalLongitude": -83.811608, "eventDate": "2024-03-29T14:10:00Z", "countryCode": "CR" }, "geometry": { "type": "Point", "coordinates": [ -83.811608, 9.546267 ] } },
{ "type": "Feature", "properties": { "decimalLatitude": 8.830111, "decimalLongitude": -82.484969, "eventDate": "2024-03-13T18:38:00Z", "countryCode": "PA" }, "geometry": { "type": "Point", "coordinates": [ -82.484969, 8.830111 ] } },
{ "type": "Feature", "properties": { "decimalLatitude": 9.644328, "decimalLongitude": -83.915016, "eventDate": "2024-03-29T00:00:00Z", "countryCode": "CR" }, "geometry": { "type": "Point", "coordinates": [ -83.915016, 9.644328 ] } },
{ "type": "Feature", "properties": { "decimalLatitude": 9.462608, "decimalLongitude": -83.703117, "eventDate": "2024-03-27T00:00:00Z", "countryCode": "CR" }, "geometry": { "type": "Point", "coordinates": [ -83.703117, 9.462608 ] } },
{ "type": "Feature", "properties": { "decimalLatitude": 8.828547, "decimalLongitude": -82.493775, "eventDate": "2024-03-13T16:43:00Z", "countryCode": "PA" }, "geometry": { "type": "Point", "coordinates": [ -82.493775, 8.828547 ] } },
{ "type": "Feature", "properties": { "decimalLatitude": 9.407584, "decimalLongitude": -83.711929, "eventDate": "2024-03-27T00:00:00Z", "countryCode": "CR" }, "geometry": { "type": "Point", "coordinates": [ -83.711929, 9.407584 ] } },
{ "type": "Feature", "properties": { "decimalLatitude": 10.214498, "decimalLongitude": -84.297655, "eventDate": "2024-03-04T10:14:00Z", "countryCode": "CR" }, "geometry": { "type": "Point", "coordinates": [ -84.297655, 10.214498 ] } },
{ "type": "Feature", "properties": { "decimalLatitude": 9.469719, "decimalLongitude": -83.682669, "eventDate": "2024-03-27T11:15:00Z", "countryCode": "CR" }, "geometry": { "type": "Point", "coordinates": [ -83.682669, 9.469719 ] } },
{ "type": "Feature", "properties": { "decimalLatitude": 9.825648, "decimalLongitude": -84.106077, "eventDate": "2024-03-24T08:54:31Z", "countryCode": "CR" }, "geometry": { "type": "Point", "coordinates": [ -84.106077, 9.825648 ] } },
{ "type": "Feature", "properties": { "decimalLatitude": 9.827732, "decimalLongitude": -83.772179, "eventDate": "2024-03-27T11:57:00Z", "countryCode": "CR" }, "geometry": { "type": "Point", "coordinates": [ -83.772179, 9.827732 ] } },
{ "type": "Feature", "properties": { "decimalLatitude": 0.159688, "decimalLongitude": -78.852918, "eventDate": "2024-03-04T09:54:00Z", "countryCode": "EC" }, "geometry": { "type": "Point", "coordinates": [ -78.852918, 0.159688 ] } },
{ "type": "Feature", "properties": { "decimalLatitude": 9.63278, "decimalLongitude": -83.909512, "eventDate": "2024-03-29T11:02:00Z", "countryCode": "CR" }, "geometry": { "type": "Point", "coordinates": [ -83.909512, 9.63278 ] } },
{ "type": "Feature", "properties": { "decimalLatitude": 9.798769, "decimalLongitude": -83.526805, "eventDate": "2024-04-14T06:34:00Z", "countryCode": "CR" }, "geometry": { "type": "Point", "coordinates": [ -83.526805, 9.798769 ] } },
{ "type": "Feature", "properties": { "decimalLatitude": 15.038935, "decimalLongitude": -91.701939, "eventDate": "2024-04-24T00:00:00Z", "countryCode": "GT" }, "geometry": { "type": "Point", "coordinates": [ -91.701939, 15.038935 ] } },
{ "type": "Feature", "properties": { "decimalLatitude": 9.808133, "decimalLongitude": -83.584258, "eventDate": "2024-04-20T11:21:46Z", "countryCode": "CR" }, "geometry": { "type": "Point", "coordinates": [ -83.584258, 9.808133 ] } },
{ "type": "Feature", "properties": { "decimalLatitude": 8.938857, "decimalLongitude": -82.835115, "eventDate": "2024-04-10T11:38:45Z", "countryCode": "CR" }, "geometry": { "type": "Point", "coordinates": [ -82.835115, 8.938857 ] } },
{ "type": "Feature", "properties": { "decimalLatitude": -0.048717, "decimalLongitude": -78.775198, "eventDate": "2024-04-23T09:34:30Z", "countryCode": "EC" }, "geometry": { "type": "Point", "coordinates": [ -78.775198, -0.048717 ] } },
{ "type": "Feature", "properties": { "decimalLatitude": 8.816976, "decimalLongitude": -82.485352, "eventDate": "2024-05-07T00:00:00Z", "countryCode": "PA" }, "geometry": { "type": "Point", "coordinates": [ -82.485352, 8.816976 ] } },
{ "type": "Feature", "properties": { "decimalLatitude": 10.298934, "decimalLongitude": -84.789387, "eventDate": "2024-05-01T13:18:00Z", "countryCode": "CR" }, "geometry": { "type": "Point", "coordinates": [ -84.789387, 10.298934 ] } },
{ "type": "Feature", "properties": { "decimalLatitude": 8.8840518, "decimalLongitude": -82.6832063, "eventDate": "2024-05-28T00:00:00Z", "countryCode": "PA" }, "geometry": { "type": "Point", "coordinates": [ -82.6832063, 8.8840518 ] } },
{ "type": "Feature", "properties": { "decimalLatitude": 5.23013, "decimalLongitude": -76.083603, "eventDate": "2024-05-26T12:22:20Z", "countryCode": "CO" }, "geometry": { "type": "Point", "coordinates": [ -76.083603, 5.23013 ] } },
{ "type": "Feature", "properties": { "decimalLatitude": 5.248193, "decimalLongitude": -76.08361, "eventDate": "2024-05-26T12:20:00Z", "countryCode": "CO" }, "geometry": { "type": "Point", "coordinates": [ -76.08361, 5.248193 ] } },
{ "type": "Feature", "properties": { "decimalLatitude": 5.248193, "decimalLongitude": -76.08361, "eventDate": "2024-05-26T11:36:00Z", "countryCode": "CO" }, "geometry": { "type": "Point", "coordinates": [ -76.08361, 5.248193 ] } },
{ "type": "Feature", "properties": { "decimalLatitude": 10.205206, "decimalLongitude": -84.318314, "eventDate": "2024-05-06T09:44:00Z", "countryCode": "CR" }, "geometry": { "type": "Point", "coordinates": [ -84.318314, 10.205206 ] } },
{ "type": "Feature", "properties": { "decimalLatitude": 0.123939, "decimalLongitude": -78.629228, "eventDate": "2024-05-19T09:59:39Z", "countryCode": "EC" }, "geometry": { "type": "Point", "coordinates": [ -78.629228, 0.123939 ] } },
{ "type": "Feature", "properties": { "decimalLatitude": 4.901236, "decimalLongitude": -75.065077, "eventDate": "2024-05-26T09:46:00Z", "countryCode": "CO" }, "geometry": { "type": "Point", "coordinates": [ -75.065077, 4.901236 ] } },
{ "type": "Feature", "properties": { "decimalLatitude": 10.003224, "decimalLongitude": -83.743896, "eventDate": "2024-06-08T09:35:00Z", "countryCode": "CR" }, "geometry": { "type": "Point", "coordinates": [ -83.743896, 10.003224 ] } },
{ "type": "Feature", "properties": { "decimalLatitude": 0.123633, "decimalLongitude": -78.628587, "eventDate": "2024-06-22T13:37:29Z", "countryCode": "EC" }, "geometry": { "type": "Point", "coordinates": [ -78.628587, 0.123633 ] } },
{ "type": "Feature", "properties": { "decimalLatitude": 0.153888, "decimalLongitude": -78.63811, "eventDate": "2024-06-22T11:34:50Z", "countryCode": "EC" }, "geometry": { "type": "Point", "coordinates": [ -78.63811, 0.153888 ] } },
{ "type": "Feature", "properties": { "decimalLatitude": 0.115322, "decimalLongitude": -78.6115, "eventDate": "2024-06-22T12:28:52Z", "countryCode": "EC" }, "geometry": { "type": "Point", "coordinates": [ -78.6115, 0.115322 ] } },
{ "type": "Feature", "properties": { "decimalLatitude": 4.892574, "decimalLongitude": -75.062144, "eventDate": "2024-06-12T09:57:00Z", "countryCode": "CO" }, "geometry": { "type": "Point", "coordinates": [ -75.062144, 4.892574 ] } },
{ "type": "Feature", "properties": { "decimalLatitude": -17.16778, "decimalLongitude": -65.757352, "eventDate": "2024-07-03T14:51:00Z", "countryCode": "BO" }, "geometry": { "type": "Point", "coordinates": [ -65.757352, -17.16778 ] } },
{ "type": "Feature", "properties": { "decimalLatitude": -6.078586, "decimalLongitude": -76.977762, "eventDate": "2024-07-31T00:00:00Z", "countryCode": "PE" }, "geometry": { "type": "Point", "coordinates": [ -76.977762, -6.078586 ] } },
{ "type": "Feature", "properties": { "decimalLatitude": -6.078586, "decimalLongitude": -76.977762, "eventDate": "2024-07-31T00:00:00Z", "countryCode": "PE" }, "geometry": { "type": "Point", "coordinates": [ -76.977762, -6.078586 ] } },
{ "type": "Feature", "properties": { "decimalLatitude": 10.33793, "decimalLongitude": -84.808265, "eventDate": "2024-07-12T12:50:00Z", "countryCode": "CR" }, "geometry": { "type": "Point", "coordinates": [ -84.808265, 10.33793 ] } },
{ "type": "Feature", "properties": { "decimalLatitude": 10.313305, "decimalLongitude": -84.819375, "eventDate": "2024-07-02T14:08:58Z", "countryCode": "CR" }, "geometry": { "type": "Point", "coordinates": [ -84.819375, 10.313305 ] } },
{ "type": "Feature", "properties": { "decimalLatitude": 10.28836, "decimalLongitude": -84.800206, "eventDate": "2024-07-19T12:22:00Z", "countryCode": "CR" }, "geometry": { "type": "Point", "coordinates": [ -84.800206, 10.28836 ] } },
{ "type": "Feature", "properties": { "decimalLatitude": -5.681558, "decimalLongitude": -77.655206, "eventDate": "2024-08-02T00:00:00Z", "countryCode": "PE" }, "geometry": { "type": "Point", "coordinates": [ -77.655206, -5.681558 ] } },
{ "type": "Feature", "properties": { "decimalLatitude": -5.682215, "decimalLongitude": -77.658934, "eventDate": "2024-08-04T00:00:00Z", "countryCode": "PE" }, "geometry": { "type": "Point", "coordinates": [ -77.658934, -5.682215 ] } },
{ "type": "Feature", "properties": { "decimalLatitude": -6.091345, "decimalLongitude": -76.967518, "eventDate": "2024-08-08T00:00:00Z", "countryCode": "PE" }, "geometry": { "type": "Point", "coordinates": [ -76.967518, -6.091345 ] } },
{ "type": "Feature", "properties": { "decimalLatitude": -6.091425, "decimalLongitude": -76.967892, "eventDate": "2024-08-09T00:00:00Z", "countryCode": "PE" }, "geometry": { "type": "Point", "coordinates": [ -76.967892, -6.091425 ] } },
{ "type": "Feature", "properties": { "decimalLatitude": 14.808595, "decimalLongitude": -91.695328, "eventDate": "2024-09-30T10:37:36Z", "countryCode": "GT" }, "geometry": { "type": "Point", "coordinates": [ -91.695328, 14.808595 ] } },
{ "type": "Feature", "properties": { "decimalLatitude": 0.160178, "decimalLongitude": -78.850249, "eventDate": "2024-09-23T09:42:00Z", "countryCode": "EC" }, "geometry": { "type": "Point", "coordinates": [ -78.850249, 0.160178 ] } },
{ "type": "Feature", "properties": { "decimalLatitude": -0.058721, "decimalLongitude": -78.772327, "eventDate": "2024-10-04T15:01:39Z", "countryCode": "EC" }, "geometry": { "type": "Point", "coordinates": [ -78.772327, -0.058721 ] } },
{ "type": "Feature", "properties": { "decimalLatitude": -0.048717, "decimalLongitude": -78.775198, "eventDate": "2024-10-04T14:15:00Z", "countryCode": "EC" }, "geometry": { "type": "Point", "coordinates": [ -78.775198, -0.048717 ] } },
{ "type": "Feature", "properties": { "decimalLatitude": 0.123668, "decimalLongitude": -78.629026, "eventDate": "2024-10-11T10:56:00Z", "countryCode": "EC" }, "geometry": { "type": "Point", "coordinates": [ -78.629026, 0.123668 ] } },
{ "type": "Feature", "properties": { "decimalLatitude": 0.125642, "decimalLongitude": -78.632758, "eventDate": "2024-10-11T11:52:40Z", "countryCode": "EC" }, "geometry": { "type": "Point", "coordinates": [ -78.632758, 0.125642 ] } },
{ "type": "Feature", "properties": { "decimalLatitude": 0.125021, "decimalLongitude": -78.632842, "eventDate": "2024-10-11T10:52:00Z", "countryCode": "EC" }, "geometry": { "type": "Point", "coordinates": [ -78.632842, 0.125021 ] } },
{ "type": "Feature", "properties": { "decimalLatitude": 0.125105, "decimalLongitude": -78.63283, "eventDate": "2024-10-09T10:38:00Z", "countryCode": "EC" }, "geometry": { "type": "Point", "coordinates": [ -78.63283, 0.125105 ] } },
{ "type": "Feature", "properties": { "decimalLatitude": 0.124119, "decimalLongitude": -78.629656, "eventDate": "2024-10-11T10:41:00Z", "countryCode": "EC" }, "geometry": { "type": "Point", "coordinates": [ -78.629656, 0.124119 ] } },
{ "type": "Feature", "properties": { "decimalLatitude": 0.125528, "decimalLongitude": -78.632533, "eventDate": "2024-10-11T11:25:00Z", "countryCode": "EC" }, "geometry": { "type": "Point", "coordinates": [ -78.632533, 0.125528 ] } },
{ "type": "Feature", "properties": { "decimalLatitude": 0.121476, "decimalLongitude": -78.628228, "eventDate": "2024-10-11T11:52:00Z", "countryCode": "EC" }, "geometry": { "type": "Point", "coordinates": [ -78.628228, 0.121476 ] } },
{ "type": "Feature", "properties": { "decimalLatitude": -0.049747, "decimalLongitude": -78.776268, "eventDate": "2024-10-04T00:00:00Z", "countryCode": "EC" }, "geometry": { "type": "Point", "coordinates": [ -78.776268, -0.049747 ] } },
{ "type": "Feature", "properties": { "decimalLatitude": 0.12555, "decimalLongitude": -78.633058, "eventDate": "2024-10-11T11:44:00Z", "countryCode": "EC" }, "geometry": { "type": "Point", "coordinates": [ -78.633058, 0.12555 ] } },
{ "type": "Feature", "properties": { "decimalLatitude": -0.048717, "decimalLongitude": -78.775198, "eventDate": "2024-10-04T15:01:48Z", "countryCode": "EC" }, "geometry": { "type": "Point", "coordinates": [ -78.775198, -0.048717 ] } },
{ "type": "Feature", "properties": { "decimalLatitude": 0.124848, "decimalLongitude": -78.629891, "eventDate": "2024-10-11T11:42:00Z", "countryCode": "EC" }, "geometry": { "type": "Point", "coordinates": [ -78.629891, 0.124848 ] } },
{ "type": "Feature", "properties": { "decimalLatitude": 0.124955, "decimalLongitude": -78.629998, "eventDate": "2024-10-11T10:44:00Z", "countryCode": "EC" }, "geometry": { "type": "Point", "coordinates": [ -78.629998, 0.124955 ] } },
{ "type": "Feature", "properties": { "decimalLatitude": 0.124662, "decimalLongitude": -78.629319, "eventDate": "2024-10-11T11:39:00Z", "countryCode": "EC" }, "geometry": { "type": "Point", "coordinates": [ -78.629319, 0.124662 ] } },
{ "type": "Feature", "properties": { "decimalLatitude": 0.125661, "decimalLongitude": -78.632866, "eventDate": "2024-10-11T12:18:00Z", "countryCode": "EC" }, "geometry": { "type": "Point", "coordinates": [ -78.632866, 0.125661 ] } },
{ "type": "Feature", "properties": { "decimalLatitude": 0.12558, "decimalLongitude": -78.633049, "eventDate": "2024-10-11T11:33:00Z", "countryCode": "EC" }, "geometry": { "type": "Point", "coordinates": [ -78.633049, 0.12558 ] } },
{ "type": "Feature", "properties": { "decimalLatitude": 0.125584, "decimalLongitude": -78.632741, "eventDate": "2024-10-11T11:36:00Z", "countryCode": "EC" }, "geometry": { "type": "Point", "coordinates": [ -78.632741, 0.125584 ] } },
{ "type": "Feature", "properties": { "decimalLatitude": 0.124681, "decimalLongitude": -78.629605, "eventDate": "2024-10-11T11:15:00Z", "countryCode": "EC" }, "geometry": { "type": "Point", "coordinates": [ -78.629605, 0.124681 ] } },
{ "type": "Feature", "properties": { "decimalLatitude": 0.124653, "decimalLongitude": -78.629332, "eventDate": "2024-10-11T10:29:00Z", "countryCode": "EC" }, "geometry": { "type": "Point", "coordinates": [ -78.629332, 0.124653 ] } },
{ "type": "Feature", "properties": { "decimalLatitude": 15.01232, "decimalLongitude": -91.796463, "eventDate": "2024-11-11T09:26:00Z", "countryCode": "GT" }, "geometry": { "type": "Point", "coordinates": [ -91.796463, 15.01232 ] } },
{ "type": "Feature", "properties": { "decimalLatitude": 15.035241, "decimalLongitude": -91.786963, "eventDate": "2024-11-11T22:39:00Z", "countryCode": "GT" }, "geometry": { "type": "Point", "coordinates": [ -91.786963, 15.035241 ] } },
{ "type": "Feature", "properties": { "decimalLatitude": 9.466373, "decimalLongitude": -83.595543, "eventDate": "2024-11-02T09:49:00Z", "countryCode": "CR" }, "geometry": { "type": "Point", "coordinates": [ -83.595543, 9.466373 ] } },
{ "type": "Feature", "properties": { "decimalLatitude": 9.471164, "decimalLongitude": -83.583244, "eventDate": "2024-11-02T07:57:00Z", "countryCode": "CR" }, "geometry": { "type": "Point", "coordinates": [ -83.583244, 9.471164 ] } },
{ "type": "Feature", "properties": { "decimalLatitude": 9.905645, "decimalLongitude": -84.041193, "eventDate": "2025-01-03T14:16:00Z", "countryCode": "CR" }, "geometry": { "type": "Point", "coordinates": [ -84.041193, 9.905645 ] } },
{ "type": "Feature", "properties": { "decimalLatitude": 9.805283, "decimalLongitude": -83.555701, "eventDate": "2025-01-08T12:24:00Z", "countryCode": "CR" }, "geometry": { "type": "Point", "coordinates": [ -83.555701, 9.805283 ] } },
{ "type": "Feature", "properties": { "decimalLatitude": 9.46917, "decimalLongitude": -83.589583, "eventDate": "2025-01-21T11:52:48Z", "countryCode": "CR" }, "geometry": { "type": "Point", "coordinates": [ -83.589583, 9.46917 ] } },
{ "type": "Feature", "properties": { "decimalLatitude": -0.076089, "decimalLongitude": -78.764281, "eventDate": "2025-01-31T06:54:00Z", "countryCode": "EC" }, "geometry": { "type": "Point", "coordinates": [ -78.764281, -0.076089 ] } },
{ "type": "Feature", "properties": { "decimalLatitude": 9.46958, "decimalLongitude": -83.58393, "eventDate": "2025-02-02T11:57:24Z", "countryCode": "CR" }, "geometry": { "type": "Point", "coordinates": [ -83.58393, 9.46958 ] } },
{ "type": "Feature", "properties": { "decimalLatitude": 9.797624, "decimalLongitude": -83.923123, "eventDate": "2025-02-01T18:50:11Z", "countryCode": "CR" }, "geometry": { "type": "Point", "coordinates": [ -83.923123, 9.797624 ] } },
{ "type": "Feature", "properties": { "decimalLatitude": 9.469103, "decimalLongitude": -83.591565, "eventDate": "2025-02-03T15:33:01Z", "countryCode": "CR" }, "geometry": { "type": "Point", "coordinates": [ -83.591565, 9.469103 ] } },
{ "type": "Feature", "properties": { "decimalLatitude": 8.665079, "decimalLongitude": -82.527579, "eventDate": "2025-02-05T21:52:45Z", "countryCode": "PA" }, "geometry": { "type": "Point", "coordinates": [ -82.527579, 8.665079 ] } },
{ "type": "Feature", "properties": { "decimalLatitude": 8.768121, "decimalLongitude": -82.673307, "eventDate": "2025-02-17T14:41:00Z", "countryCode": "PA" }, "geometry": { "type": "Point", "coordinates": [ -82.673307, 8.768121 ] } },
{ "type": "Feature", "properties": { "decimalLatitude": 8.8871587, "decimalLongitude": -82.6757381, "eventDate": "2025-02-25T00:00:00Z", "countryCode": "PA" }, "geometry": { "type": "Point", "coordinates": [ -82.6757381, 8.8871587 ] } },
{ "type": "Feature", "properties": { "decimalLatitude": 9.577336, "decimalLongitude": -84.214298, "eventDate": "2025-02-04T17:46:15Z", "countryCode": "CR" }, "geometry": { "type": "Point", "coordinates": [ -84.214298, 9.577336 ] } },
{ "type": "Feature", "properties": { "decimalLatitude": 9.473308, "decimalLongitude": -83.585442, "eventDate": "2025-02-22T09:02:01Z", "countryCode": "CR" }, "geometry": { "type": "Point", "coordinates": [ -83.585442, 9.473308 ] } },
{ "type": "Feature", "properties": { "decimalLatitude": 0.062176, "decimalLongitude": -78.682022, "eventDate": "2025-02-23T09:18:26Z", "countryCode": "EC" }, "geometry": { "type": "Point", "coordinates": [ -78.682022, 0.062176 ] } },
{ "type": "Feature", "properties": { "decimalLatitude": 9.474837, "decimalLongitude": -83.573403, "eventDate": "2025-02-22T10:17:20Z", "countryCode": "CR" }, "geometry": { "type": "Point", "coordinates": [ -83.573403, 9.474837 ] } },
{ "type": "Feature", "properties": { "decimalLatitude": 8.885968, "decimalLongitude": -82.676049, "eventDate": "2025-02-24T00:00:00Z", "countryCode": "PA" }, "geometry": { "type": "Point", "coordinates": [ -82.676049, 8.885968 ] } },
{ "type": "Feature", "properties": { "decimalLatitude": 8.8840878, "decimalLongitude": -82.6831533, "eventDate": "2025-02-26T00:00:00Z", "countryCode": "PA" }, "geometry": { "type": "Point", "coordinates": [ -82.6831533, 8.8840878 ] } },
{ "type": "Feature", "properties": { "decimalLatitude": 8.8844608, "decimalLongitude": -82.6852093, "eventDate": "2025-02-27T00:00:00Z", "countryCode": "PA" }, "geometry": { "type": "Point", "coordinates": [ -82.6852093, 8.8844608 ] } },
{ "type": "Feature", "properties": { "decimalLatitude": 8.837337, "decimalLongitude": -82.695831, "eventDate": "2025-02-28T00:00:00Z", "countryCode": "PA" }, "geometry": { "type": "Point", "coordinates": [ -82.695831, 8.837337 ] } },
{ "type": "Feature", "properties": { "decimalLatitude": 8.845509, "decimalLongitude": -82.689995, "eventDate": "2025-02-28T00:00:00Z", "countryCode": "PA" }, "geometry": { "type": "Point", "coordinates": [ -82.689995, 8.845509 ] } },
{ "type": "Feature", "properties": { "decimalLatitude": 8.859223, "decimalLongitude": -82.692889, "eventDate": "2025-02-28T00:00:00Z", "countryCode": "PA" }, "geometry": { "type": "Point", "coordinates": [ -82.692889, 8.859223 ] } },
{ "type": "Feature", "properties": { "decimalLatitude": 9.457457, "decimalLongitude": -83.607015, "eventDate": "2025-02-17T13:28:21Z", "countryCode": "CR" }, "geometry": { "type": "Point", "coordinates": [ -83.607015, 9.457457 ] } },
{ "type": "Feature", "properties": { "decimalLatitude": 9.471913, "decimalLongitude": -83.578094, "eventDate": "2025-02-22T10:50:00Z", "countryCode": "CR" }, "geometry": { "type": "Point", "coordinates": [ -83.578094, 9.471913 ] } },
{ "type": "Feature", "properties": { "decimalLatitude": 8.741222, "decimalLongitude": -82.25069, "eventDate": "2025-03-15T00:00:00Z", "countryCode": "PA" }, "geometry": { "type": "Point", "coordinates": [ -82.25069, 8.741222 ] } },
{ "type": "Feature", "properties": { "decimalLatitude": 9.47245, "decimalLongitude": -83.571267, "eventDate": "2025-03-05T12:34:56Z", "countryCode": "CR" }, "geometry": { "type": "Point", "coordinates": [ -83.571267, 9.47245 ] } },
{ "type": "Feature", "properties": { "decimalLatitude": 8.749418, "decimalLongitude": -82.252194, "eventDate": "2025-03-15T12:02:00Z", "countryCode": "PA" }, "geometry": { "type": "Point", "coordinates": [ -82.252194, 8.749418 ] } },
{ "type": "Feature", "properties": { "decimalLatitude": 10.213513, "decimalLongitude": -84.279243, "eventDate": "2025-03-17T05:13:50Z", "countryCode": "CR" }, "geometry": { "type": "Point", "coordinates": [ -84.279243, 10.213513 ] } },
{ "type": "Feature", "properties": { "decimalLatitude": 8.885968, "decimalLongitude": -82.676049, "eventDate": "2025-03-01T00:00:00Z", "countryCode": "PA" }, "geometry": { "type": "Point", "coordinates": [ -82.676049, 8.885968 ] } },
{ "type": "Feature", "properties": { "decimalLatitude": 8.837337, "decimalLongitude": -82.695831, "eventDate": "2025-03-02T00:00:00Z", "countryCode": "PA" }, "geometry": { "type": "Point", "coordinates": [ -82.695831, 8.837337 ] } },
{ "type": "Feature", "properties": { "decimalLatitude": 11.117306, "decimalLongitude": -74.086825, "eventDate": "2025-03-07T15:54:59Z", "countryCode": "CO" }, "geometry": { "type": "Point", "coordinates": [ -74.086825, 11.117306 ] } },
{ "type": "Feature", "properties": { "decimalLatitude": 8.876236, "decimalLongitude": -82.685446, "eventDate": "2025-03-03T00:00:00Z", "countryCode": "PA" }, "geometry": { "type": "Point", "coordinates": [ -82.685446, 8.876236 ] } },
{ "type": "Feature", "properties": { "decimalLatitude": 8.827646, "decimalLongitude": -82.689814, "eventDate": "2025-03-02T00:00:00Z", "countryCode": "PA" }, "geometry": { "type": "Point", "coordinates": [ -82.689814, 8.827646 ] } },
{ "type": "Feature", "properties": { "decimalLatitude": 10.372174, "decimalLongitude": -84.827364, "eventDate": "2025-03-21T10:37:02Z", "countryCode": "CR" }, "geometry": { "type": "Point", "coordinates": [ -84.827364, 10.372174 ] } },
{ "type": "Feature", "properties": { "decimalLatitude": 0.124331, "decimalLongitude": -78.629131, "eventDate": "2025-03-14T14:31:00Z", "countryCode": "EC" }, "geometry": { "type": "Point", "coordinates": [ -78.629131, 0.124331 ] } },
{ "type": "Feature", "properties": { "decimalLatitude": 9.472987, "decimalLongitude": -83.576241, "eventDate": "2025-03-06T10:51:00Z", "countryCode": "CR" }, "geometry": { "type": "Point", "coordinates": [ -83.576241, 9.472987 ] } },
{ "type": "Feature", "properties": { "decimalLatitude": 8.67277, "decimalLongitude": -82.215955, "eventDate": "2025-03-28T10:54:51Z", "countryCode": "PA" }, "geometry": { "type": "Point", "coordinates": [ -82.215955, 8.67277 ] } },
{ "type": "Feature", "properties": { "decimalLatitude": 8.843338, "decimalLongitude": -82.481514, "eventDate": "2025-03-28T12:57:29Z", "countryCode": "PA" }, "geometry": { "type": "Point", "coordinates": [ -82.481514, 8.843338 ] } },
{ "type": "Feature", "properties": { "decimalLatitude": 9.828293, "decimalLongitude": -83.773488, "eventDate": "2025-03-29T11:23:00Z", "countryCode": "CR" }, "geometry": { "type": "Point", "coordinates": [ -83.773488, 9.828293 ] } },
{ "type": "Feature", "properties": { "decimalLatitude": 0.189952, "decimalLongitude": -78.863375, "eventDate": "2025-03-25T18:57:00Z", "countryCode": "EC" }, "geometry": { "type": "Point", "coordinates": [ -78.863375, 0.189952 ] } },
{ "type": "Feature", "properties": { "decimalLatitude": 9.47675, "decimalLongitude": -83.56703, "eventDate": "2025-03-18T11:19:33Z", "countryCode": "CR" }, "geometry": { "type": "Point", "coordinates": [ -83.56703, 9.47675 ] } },
{ "type": "Feature", "properties": { "decimalLatitude": 9.470678, "decimalLongitude": -83.583483, "eventDate": "2025-03-26T09:54:00Z", "countryCode": "CR" }, "geometry": { "type": "Point", "coordinates": [ -83.583483, 9.470678 ] } },
{ "type": "Feature", "properties": { "decimalLatitude": 10.20715, "decimalLongitude": -84.163722, "eventDate": "2025-03-17T19:22:00Z", "countryCode": "CR" }, "geometry": { "type": "Point", "coordinates": [ -84.163722, 10.20715 ] } },
{ "type": "Feature", "properties": { "decimalLatitude": 9.828168, "decimalLongitude": -83.7737, "eventDate": "2025-03-29T11:23:00Z", "countryCode": "CR" }, "geometry": { "type": "Point", "coordinates": [ -83.7737, 9.828168 ] } },
{ "type": "Feature", "properties": { "decimalLatitude": 3.881874, "decimalLongitude": -76.563069, "eventDate": "2025-03-01T09:41:00Z", "countryCode": "CO" }, "geometry": { "type": "Point", "coordinates": [ -76.563069, 3.881874 ] } },
{ "type": "Feature", "properties": { "decimalLatitude": 3.888027, "decimalLongitude": -76.600577, "eventDate": "2025-03-01T11:44:00Z", "countryCode": "CO" }, "geometry": { "type": "Point", "coordinates": [ -76.600577, 3.888027 ] } },
{ "type": "Feature", "properties": { "decimalLatitude": 8.833543, "decimalLongitude": -82.489789, "eventDate": "2025-03-17T08:56:00Z", "countryCode": "PA" }, "geometry": { "type": "Point", "coordinates": [ -82.489789, 8.833543 ] } },
{ "type": "Feature", "properties": { "decimalLatitude": 8.852094, "decimalLongitude": -82.494492, "eventDate": "2025-03-07T12:15:00Z", "countryCode": "PA" }, "geometry": { "type": "Point", "coordinates": [ -82.494492, 8.852094 ] } },
{ "type": "Feature", "properties": { "decimalLatitude": 9.361897, "decimalLongitude": -83.498286, "eventDate": "2025-04-11T09:52:00Z", "countryCode": "CR" }, "geometry": { "type": "Point", "coordinates": [ -83.498286, 9.361897 ] } },
{ "type": "Feature", "properties": { "decimalLatitude": 9.920245, "decimalLongitude": -84.139085, "eventDate": "2025-04-17T13:21:00Z", "countryCode": "CR" }, "geometry": { "type": "Point", "coordinates": [ -84.139085, 9.920245 ] } },
{ "type": "Feature", "properties": { "decimalLatitude": 8.882752, "decimalLongitude": -82.683655, "eventDate": "2025-04-27T00:00:00Z", "countryCode": "PA" }, "geometry": { "type": "Point", "coordinates": [ -82.683655, 8.882752 ] } },
{ "type": "Feature", "properties": { "decimalLatitude": 9.471876, "decimalLongitude": -83.578143, "eventDate": "2025-04-13T09:17:00Z", "countryCode": "CR" }, "geometry": { "type": "Point", "coordinates": [ -83.578143, 9.471876 ] } },
{ "type": "Feature", "properties": { "decimalLatitude": 9.471813, "decimalLongitude": -83.577702, "eventDate": "2025-04-26T11:32:01Z", "countryCode": "CR" }, "geometry": { "type": "Point", "coordinates": [ -83.577702, 9.471813 ] } },
{ "type": "Feature", "properties": { "decimalLatitude": 9.471938, "decimalLongitude": -83.577478, "eventDate": "2025-04-29T11:03:12Z", "countryCode": "CR" }, "geometry": { "type": "Point", "coordinates": [ -83.577478, 9.471938 ] } },
{ "type": "Feature", "properties": { "decimalLatitude": 9.47273, "decimalLongitude": -83.57447, "eventDate": "2025-04-28T10:19:05Z", "countryCode": "CR" }, "geometry": { "type": "Point", "coordinates": [ -83.57447, 9.47273 ] } },
{ "type": "Feature", "properties": { "decimalLatitude": 0.308358, "decimalLongitude": -78.779237, "eventDate": "2025-04-16T11:41:21Z", "countryCode": "EC" }, "geometry": { "type": "Point", "coordinates": [ -78.779237, 0.308358 ] } },
{ "type": "Feature", "properties": { "decimalLatitude": 9.472015, "decimalLongitude": -83.578602, "eventDate": "2025-04-17T10:55:00Z", "countryCode": "CR" }, "geometry": { "type": "Point", "coordinates": [ -83.578602, 9.472015 ] } },
{ "type": "Feature", "properties": { "decimalLatitude": 9.471876, "decimalLongitude": -83.578143, "eventDate": "2025-04-13T10:16:00Z", "countryCode": "CR" }, "geometry": { "type": "Point", "coordinates": [ -83.578143, 9.471876 ] } },
{ "type": "Feature", "properties": { "decimalLatitude": 9.471962, "decimalLongitude": -83.57872, "eventDate": "2025-04-26T10:23:05Z", "countryCode": "CR" }, "geometry": { "type": "Point", "coordinates": [ -83.57872, 9.471962 ] } },
{ "type": "Feature", "properties": { "decimalLatitude": 10.32031, "decimalLongitude": -84.808161, "eventDate": "2025-04-17T21:22:00Z", "countryCode": "CR" }, "geometry": { "type": "Point", "coordinates": [ -84.808161, 10.32031 ] } },
{ "type": "Feature", "properties": { "decimalLatitude": 10.32033, "decimalLongitude": -84.808067, "eventDate": "2025-04-17T21:22:55Z", "countryCode": "CR" }, "geometry": { "type": "Point", "coordinates": [ -84.808067, 10.32033 ] } },
{ "type": "Feature", "properties": { "decimalLatitude": 9.899702, "decimalLongitude": -84.142336, "eventDate": "2025-04-17T09:09:01Z", "countryCode": "CR" }, "geometry": { "type": "Point", "coordinates": [ -84.142336, 9.899702 ] } },
{ "type": "Feature", "properties": { "decimalLatitude": 8.882952, "decimalLongitude": -82.683685, "eventDate": "2025-04-22T00:00:00Z", "countryCode": "PA" }, "geometry": { "type": "Point", "coordinates": [ -82.683685, 8.882952 ] } },
{ "type": "Feature", "properties": { "decimalLatitude": 10.35137, "decimalLongitude": -84.821557, "eventDate": "2025-04-18T12:35:50Z", "countryCode": "CR" }, "geometry": { "type": "Point", "coordinates": [ -84.821557, 10.35137 ] } },
{ "type": "Feature", "properties": { "decimalLatitude": 10.015939, "decimalLongitude": -84.21417, "eventDate": "2025-04-03T12:17:00Z", "countryCode": "CR" }, "geometry": { "type": "Point", "coordinates": [ -84.21417, 10.015939 ] } },
{ "type": "Feature", "properties": { "decimalLatitude": 8.888575, "decimalLongitude": -82.748062, "eventDate": "2025-04-30T11:42:42Z", "countryCode": "PA" }, "geometry": { "type": "Point", "coordinates": [ -82.748062, 8.888575 ] } },
{ "type": "Feature", "properties": { "decimalLatitude": 8.770349, "decimalLongitude": -82.377733, "eventDate": "2025-04-10T10:50:00Z", "countryCode": "PA" }, "geometry": { "type": "Point", "coordinates": [ -82.377733, 8.770349 ] } },
{ "type": "Feature", "properties": { "decimalLatitude": 0.124149, "decimalLongitude": -78.629492, "eventDate": "2025-04-12T15:21:59Z", "countryCode": "EC" }, "geometry": { "type": "Point", "coordinates": [ -78.629492, 0.124149 ] } },
{ "type": "Feature", "properties": { "decimalLatitude": 9.755688, "decimalLongitude": -83.841305, "eventDate": "2025-05-17T11:11:00Z", "countryCode": "CR" }, "geometry": { "type": "Point", "coordinates": [ -83.841305, 9.755688 ] } },
{ "type": "Feature", "properties": { "decimalLatitude": 9.838432, "decimalLongitude": -84.202022, "eventDate": "2025-05-11T10:55:59Z", "countryCode": "CR" }, "geometry": { "type": "Point", "coordinates": [ -84.202022, 9.838432 ] } },
{ "type": "Feature", "properties": { "decimalLatitude": 5.393668, "decimalLongitude": -75.888303, "eventDate": "2025-05-20T11:34:00Z", "countryCode": "CO" }, "geometry": { "type": "Point", "coordinates": [ -75.888303, 5.393668 ] } },
{ "type": "Feature", "properties": { "decimalLatitude": 10.238742, "decimalLongitude": -84.480302, "eventDate": "2025-05-28T14:56:00Z", "countryCode": "CR" }, "geometry": { "type": "Point", "coordinates": [ -84.480302, 10.238742 ] } },
{ "type": "Feature", "properties": { "decimalLatitude": 8.887404, "decimalLongitude": -82.683322, "eventDate": "2025-05-22T00:00:00Z", "countryCode": "PA" }, "geometry": { "type": "Point", "coordinates": [ -82.683322, 8.887404 ] } },
{ "type": "Feature", "properties": { "decimalLatitude": 8.887404, "decimalLongitude": -82.683322, "eventDate": "2025-05-22T00:00:00Z", "countryCode": "PA" }, "geometry": { "type": "Point", "coordinates": [ -82.683322, 8.887404 ] } },
{ "type": "Feature", "properties": { "decimalLatitude": 8.887404, "decimalLongitude": -82.683322, "eventDate": "2025-05-22T00:00:00Z", "countryCode": "PA" }, "geometry": { "type": "Point", "coordinates": [ -82.683322, 8.887404 ] } },
{ "type": "Feature", "properties": { "decimalLatitude": 8.885968, "decimalLongitude": -82.676049, "eventDate": "2025-05-22T00:00:00Z", "countryCode": "PA" }, "geometry": { "type": "Point", "coordinates": [ -82.676049, 8.885968 ] } },
{ "type": "Feature", "properties": { "decimalLatitude": 8.885968, "decimalLongitude": -82.676049, "eventDate": "2025-05-23T00:00:00Z", "countryCode": "PA" }, "geometry": { "type": "Point", "coordinates": [ -82.676049, 8.885968 ] } },
{ "type": "Feature", "properties": { "decimalLatitude": 8.882952, "decimalLongitude": -82.683685, "eventDate": "2025-05-25T00:00:00Z", "countryCode": "PA" }, "geometry": { "type": "Point", "coordinates": [ -82.683685, 8.882952 ] } },
{ "type": "Feature", "properties": { "decimalLatitude": 10.135722, "decimalLongitude": -84.242164, "eventDate": "2025-05-04T08:32:38Z", "countryCode": "CR" }, "geometry": { "type": "Point", "coordinates": [ -84.242164, 10.135722 ] } },
{ "type": "Feature", "properties": { "decimalLatitude": 8.888121, "decimalLongitude": -82.68436, "eventDate": "2025-05-26T00:00:00Z", "countryCode": "PA" }, "geometry": { "type": "Point", "coordinates": [ -82.68436, 8.888121 ] } },
{ "type": "Feature", "properties": { "decimalLatitude": 8.837171, "decimalLongitude": -82.696201, "eventDate": "2025-05-28T00:00:00Z", "countryCode": "PA" }, "geometry": { "type": "Point", "coordinates": [ -82.696201, 8.837171 ] } },
{ "type": "Feature", "properties": { "decimalLatitude": 8.885968, "decimalLongitude": -82.676049, "eventDate": "2025-05-29T00:00:00Z", "countryCode": "PA" }, "geometry": { "type": "Point", "coordinates": [ -82.676049, 8.885968 ] } },
{ "type": "Feature", "properties": { "decimalLatitude": 8.885968, "decimalLongitude": -82.676049, "eventDate": "2025-05-29T00:00:00Z", "countryCode": "PA" }, "geometry": { "type": "Point", "coordinates": [ -82.676049, 8.885968 ] } },
{ "type": "Feature", "properties": { "decimalLatitude": 10.320738, "decimalLongitude": -84.807976, "eventDate": "2025-05-16T05:25:00Z", "countryCode": "CR" }, "geometry": { "type": "Point", "coordinates": [ -84.807976, 10.320738 ] } },
{ "type": "Feature", "properties": { "decimalLatitude": 10.325246, "decimalLongitude": -84.800176, "eventDate": "2025-05-18T03:04:00Z", "countryCode": "CR" }, "geometry": { "type": "Point", "coordinates": [ -84.800176, 10.325246 ] } },
{ "type": "Feature", "properties": { "decimalLatitude": 10.322634, "decimalLongitude": -84.800466, "eventDate": "2025-05-17T03:03:00Z", "countryCode": "CR" }, "geometry": { "type": "Point", "coordinates": [ -84.800466, 10.322634 ] } },
{ "type": "Feature", "properties": { "decimalLatitude": -0.06079, "decimalLongitude": -78.77269, "eventDate": "2025-06-19T10:51:00Z", "countryCode": "EC" }, "geometry": { "type": "Point", "coordinates": [ -78.77269, -0.06079 ] } },
{ "type": "Feature", "properties": { "decimalLatitude": 0.12372, "decimalLongitude": -78.628538, "eventDate": "2025-06-21T11:30:41Z", "countryCode": "EC" }, "geometry": { "type": "Point", "coordinates": [ -78.628538, 0.12372 ] } },
{ "type": "Feature", "properties": { "decimalLatitude": 0.022888, "decimalLongitude": -78.695047, "eventDate": "2025-06-21T10:32:00Z", "countryCode": "EC" }, "geometry": { "type": "Point", "coordinates": [ -78.695047, 0.022888 ] } },
{ "type": "Feature", "properties": { "decimalLatitude": 14.522325, "decimalLongitude": -91.154614, "eventDate": "2025-06-28T11:21:38Z", "countryCode": "GT" }, "geometry": { "type": "Point", "coordinates": [ -91.154614, 14.522325 ] } },
{ "type": "Feature", "properties": { "decimalLatitude": 0.123683, "decimalLongitude": -78.628547, "eventDate": "2025-06-21T11:56:19Z", "countryCode": "EC" }, "geometry": { "type": "Point", "coordinates": [ -78.628547, 0.123683 ] } },
{ "type": "Feature", "properties": { "decimalLatitude": 8.76242, "decimalLongitude": -82.400799, "eventDate": "2025-07-20T00:00:00Z", "countryCode": "PA" }, "geometry": { "type": "Point", "coordinates": [ -82.400799, 8.76242 ] } },
{ "type": "Feature", "properties": { "decimalLatitude": 0.032789, "decimalLongitude": -78.681053, "eventDate": "2025-07-06T14:49:24Z", "countryCode": "EC" }, "geometry": { "type": "Point", "coordinates": [ -78.681053, 0.032789 ] } },
{ "type": "Feature", "properties": { "decimalLatitude": 0.157185, "decimalLongitude": -78.853429, "eventDate": "2025-08-06T12:24:00Z", "countryCode": "EC" }, "geometry": { "type": "Point", "coordinates": [ -78.853429, 0.157185 ] } },
{ "type": "Feature", "properties": { "decimalLatitude": -0.080111, "decimalLongitude": -78.763113, "eventDate": "2025-08-23T11:08:13Z", "countryCode": "EC" }, "geometry": { "type": "Point", "coordinates": [ -78.763113, -0.080111 ] } },
{ "type": "Feature", "properties": { "decimalLatitude": -0.079205, "decimalLongitude": -78.760516, "eventDate": "2025-08-14T13:41:00Z", "countryCode": "EC" }, "geometry": { "type": "Point", "coordinates": [ -78.760516, -0.079205 ] } },
{ "type": "Feature", "properties": { "decimalLatitude": 5.112951, "decimalLongitude": -76.096387, "eventDate": "2025-09-03T08:49:00Z", "countryCode": "CO" }, "geometry": { "type": "Point", "coordinates": [ -76.096387, 5.112951 ] } },
{ "type": "Feature", "properties": { "decimalLatitude": 0.125583, "decimalLongitude": -78.63295, "eventDate": "2025-09-13T13:13:00Z", "countryCode": "EC" }, "geometry": { "type": "Point", "coordinates": [ -78.63295, 0.125583 ] } },
{ "type": "Feature", "properties": { "decimalLatitude": 8.816317, "decimalLongitude": -82.423744, "eventDate": "2025-11-07T10:43:23Z", "countryCode": "PA" }, "geometry": { "type": "Point", "coordinates": [ -82.423744, 8.816317 ] } },
{ "type": "Feature", "properties": { "decimalLatitude": -0.675521, "decimalLongitude": -77.601383, "eventDate": "2025-11-22T10:04:00Z", "countryCode": "EC" }, "geometry": { "type": "Point", "coordinates": [ -77.601383, -0.675521 ] } }
]
}
