{
"type": "FeatureCollection",
"name": "morpho-cisseis-gbif",
"crs": { "type": "name", "properties": { "name": "urn:ogc:def:crs:OGC:1.3:CRS84" } },
"features": [
{ "type": "Feature", "properties": { "decimalLatitude": -6.466104, "decimalLongitude": -76.338185, "eventDate": "2015-08-06T14:05:00Z", "countryCode": "PE" }, "geometry": { "type": "Point", "coordinates": [ -76.338185, -6.466104 ] } },
{ "type": "Feature", "properties": { "decimalLatitude": -3.168611, "decimalLongitude": -60.333889, "eventDate": "2016-10-22T00:00:00Z", "countryCode": "BR" }, "geometry": { "type": "Point", "coordinates": [ -60.333889, -3.168611 ] } },
{ "type": "Feature", "properties": { "decimalLatitude": -2.964833, "decimalLongitude": -59.921012, "eventDate": "2018-06-04T15:48:00Z", "countryCode": "BR" }, "geometry": { "type": "Point", "coordinates": [ -59.921012, -2.964833 ] } },
{ "type": "Feature", "properties": { "decimalLatitude": -5.674945, "decimalLongitude": -77.63963, "eventDate": "2018-12-04T09:07:00Z", "countryCode": "PE" }, "geometry": { "type": "Point", "coordinates": [ -77.63963, -5.674945 ] } },
{ "type": "Feature", "properties": { "decimalLatitude": -1.956817, "decimalLongitude": -61.445417, "eventDate": "2019-02-18T17:15:00Z", "countryCode": "BR" }, "geometry": { "type": "Point", "coordinates": [ -61.445417, -1.956817 ] } },
{ "type": "Feature", "properties": { "decimalLatitude": -12.382073, "decimalLongitude": -54.936976, "eventDate": "2019-12-22T12:34:00Z", "countryCode": "BR" }, "geometry": { "type": "Point", "coordinates": [ -54.936976, -12.382073 ] } },
{ "type": "Feature", "properties": { "decimalLatitude": -15.801421, "decimalLongitude": -67.649317, "eventDate": "2022-02-21T11:50:00Z", "countryCode": "BO" }, "geometry": { "type": "Point", "coordinates": [ -67.649317, -15.801421 ] } },
{ "type": "Feature", "properties": { "decimalLatitude": -8.754034, "decimalLongitude": -63.457545, "eventDate": "2022-05-05T14:55:00Z", "countryCode": "BR" }, "geometry": { "type": "Point", "coordinates": [ -63.457545, -8.754034 ] } },
{ "type": "Feature", "properties": { "decimalLatitude": -5.967265, "decimalLongitude": -75.894275, "eventDate": "2022-07-25T09:09:55Z", "countryCode": "PE" }, "geometry": { "type": "Point", "coordinates": [ -75.894275, -5.967265 ] } },
{ "type": "Feature", "properties": { "decimalLatitude": -5.676655, "decimalLongitude": -50.312601, "eventDate": "2022-10-20T16:27:17Z", "countryCode": "BR" }, "geometry": { "type": "Point", "coordinates": [ -50.312601, -5.676655 ] } },
{ "type": "Feature", "properties": { "decimalLatitude": -1.111685, "decimalLongitude": -77.781361, "eventDate": "2022-10-05T17:16:00Z", "countryCode": "EC" }, "geometry": { "type": "Point", "coordinates": [ -77.781361, -1.111685 ] } },
{ "type": "Feature", "properties": { "decimalLatitude": 1.219677, "decimalLongitude": -76.72558, "eventDate": "2023-10-21T10:14:35Z", "countryCode": "CO" }, "geometry": { "type": "Point", "coordinates": [ -76.72558, 1.219677 ] } },
{ "type": "Feature", "properties": { "decimalLatitude": 0.36165, "decimalLongitude": -53.313071, "eventDate": "2023-11-01T18:08:07Z", "countryCode": "BR" }, "geometry": { "type": "Point", "coordinates": [ -53.313071, 0.36165 ] } },
{ "type": "Feature", "properties": { "decimalLatitude": -3.979221, "decimalLongitude": -73.422021, "eventDate": "2023-12-14T21:56:27Z", "countryCode": "PE" }, "geometry": { "type": "Point", "coordinates": [ -73.422021, -3.979221 ] } },
{ "type": "Feature", "properties": { "decimalLatitude": -6.045587, "decimalLongitude": -50.267776, "eventDate": "2024-05-18T08:45:00Z", "countryCode": "BR" }, "geometry": { "type": "Point", "coordinates": [ -50.267776, -6.045587 ] } },
{ "type": "Feature", "properties": { "decimalLatitude": -1.032163, "decimalLongitude": -77.398523, "eventDate": "2024-06-02T09:45:00Z", "countryCode": "EC" }, "geometry": { "type": "Point", "coordinates": [ -77.398523, -1.032163 ] } },
{ "type": "Feature", "properties": { "decimalLatitude": -6.455683, "decimalLongitude": -76.308431, "eventDate": "2025-10-07T11:18:00Z", "countryCode": "PE" }, "geometry": { "type": "Point", "coordinates": [ -76.308431, -6.455683 ] } }
]
}
