{
"type": "FeatureCollection",
"name": "morpho-aurora-gbif",
"crs": { "type": "name", "properties": { "name": "urn:ogc:def:crs:OGC:1.3:CRS84" } },
"features": [
{ "type": "Feature", "properties": { "decimalLatitude": -18.105344, "decimalLongitude": -63.598557, "eventDate": "2016-02-26T00:00:00Z", "countryCode": "BO" }, "geometry": { "type": "Point", "coordinates": [ -63.598557, -18.105344 ] } },
{ "type": "Feature", "properties": { "decimalLatitude": -18.105344, "decimalLongitude": -63.598557, "eventDate": "2016-02-26T00:00:00Z", "countryCode": "BO" }, "geometry": { "type": "Point", "coordinates": [ -63.598557, -18.105344 ] } },
{ "type": "Feature", "properties": { "decimalLatitude": -16.245909, "decimalLongitude": -67.784834, "eventDate": "2019-05-05T11:55:00Z", "countryCode": "BO" }, "geometry": { "type": "Point", "coordinates": [ -67.784834, -16.245909 ] } },
{ "type": "Feature", "properties": { "decimalLatitude": -17.406166, "decimalLongitude": -65.237667, "eventDate": "2021-09-19T01:59:00Z", "countryCode": "BO" }, "geometry": { "type": "Point", "coordinates": [ -65.237667, -17.406166 ] } },
{ "type": "Feature", "properties": { "decimalLatitude": -13.025616, "decimalLongitude": -71.500174, "eventDate": "2023-09-16T13:48:00Z", "countryCode": "PE" }, "geometry": { "type": "Point", "coordinates": [ -71.500174, -13.025616 ] } },
{ "type": "Feature", "properties": { "decimalLatitude": -13.025449, "decimalLongitude": -71.500252, "eventDate": "2023-09-16T13:49:00Z", "countryCode": "PE" }, "geometry": { "type": "Point", "coordinates": [ -71.500252, -13.025449 ] } },
{ "type": "Feature", "properties": { "decimalLatitude": -13.037434, "decimalLongitude": -71.528526, "eventDate": "2025-10-09T10:51:00Z", "countryCode": "PE" }, "geometry": { "type": "Point", "coordinates": [ -71.528526, -13.037434 ] } }
]
}
