{
"type": "FeatureCollection",
"name": "ornithoptera-goliath-gbif",
"crs": { "type": "name", "properties": { "name": "urn:ogc:def:crs:OGC:1.3:CRS84" } },
"features": [
{ "type": "Feature", "properties": { "decimalLatitude": -1.083333, "decimalLongitude": 133.966667, "eventDate": "2016-07-29T11:14:00Z", "countryCode": "ID" }, "geometry": { "type": "Point", "coordinates": [ 133.966667, -1.083333 ] } },
{ "type": "Feature", "properties": { "decimalLatitude": -1.136195, "decimalLongitude": 133.979027, "eventDate": "2018-10-11T13:03:00Z", "countryCode": "ID" }, "geometry": { "type": "Point", "coordinates": [ 133.979027, -1.136195 ] } },
{ "type": "Feature", "properties": { "decimalLatitude": -1.131389, "decimalLongitude": 133.975593, "eventDate": "2018-10-11T13:00:00Z", "countryCode": "ID" }, "geometry": { "type": "Point", "coordinates": [ 133.975593, -1.131389 ] } },
{ "type": "Feature", "properties": { "decimalLatitude": -1.037393, "decimalLongitude": 133.839838, "eventDate": "2018-12-04T05:16:00Z", "countryCode": "ID" }, "geometry": { "type": "Point", "coordinates": [ 133.839838, -1.037393 ] } },
{ "type": "Feature", "properties": { "decimalLatitude": -1.037393, "decimalLongitude": 133.839838, "eventDate": "2018-12-05T10:11:00Z", "countryCode": "ID" }, "geometry": { "type": "Point", "coordinates": [ 133.839838, -1.037393 ] } },
{ "type": "Feature", "properties": { "decimalLatitude": -1.09308, "decimalLongitude": 133.903512, "eventDate": "2019-08-09T00:00:00Z", "countryCode": "ID" }, "geometry": { "type": "Point", "coordinates": [ 133.903512, -1.09308 ] } },
{ "type": "Feature", "properties": { "decimalLatitude": -0.967968, "decimalLongitude": 133.708675, "eventDate": "2019-09-08T07:07:00Z", "countryCode": "ID" }, "geometry": { "type": "Point", "coordinates": [ 133.708675, -0.967968 ] } },
{ "type": "Feature", "properties": { "decimalLatitude": -3.21148, "decimalLongitude": 129.091413, "eventDate": "2019-10-22T21:42:00Z", "countryCode": "ID" }, "geometry": { "type": "Point", "coordinates": [ 129.091413, -3.21148 ] } },
{ "type": "Feature", "properties": { "decimalLatitude": -1.155456, "decimalLongitude": 133.714248, "eventDate": "2019-10-23T04:21:00Z", "countryCode": "ID" }, "geometry": { "type": "Point", "coordinates": [ 133.714248, -1.155456 ] } },
{ "type": "Feature", "properties": { "decimalLatitude": -1.155456, "decimalLongitude": 133.714248, "eventDate": "2019-10-25T06:46:00Z", "countryCode": "ID" }, "geometry": { "type": "Point", "coordinates": [ 133.714248, -1.155456 ] } },
{ "type": "Feature", "properties": { "decimalLatitude": -1.039979, "decimalLongitude": 133.742465, "eventDate": "2019-10-19T08:55:00Z", "countryCode": "ID" }, "geometry": { "type": "Point", "coordinates": [ 133.742465, -1.039979 ] } },
{ "type": "Feature", "properties": { "decimalLatitude": -1.039979, "decimalLongitude": 133.742465, "eventDate": "2019-10-20T11:33:00Z", "countryCode": "ID" }, "geometry": { "type": "Point", "coordinates": [ 133.742465, -1.039979 ] } },
{ "type": "Feature", "properties": { "decimalLatitude": -1.039979, "decimalLongitude": 133.742465, "eventDate": "2019-10-22T06:49:00Z", "countryCode": "ID" }, "geometry": { "type": "Point", "coordinates": [ 133.742465, -1.039979 ] } },
{ "type": "Feature", "properties": { "decimalLatitude": -1.100649, "decimalLongitude": 133.909049, "eventDate": "2019-12-20T02:06:00Z", "countryCode": "ID" }, "geometry": { "type": "Point", "coordinates": [ 133.909049, -1.100649 ] } },
{ "type": "Feature", "properties": { "decimalLatitude": -1.076381, "decimalLongitude": 133.904181, "eventDate": "2023-07-31T14:23:00Z", "countryCode": "ID" }, "geometry": { "type": "Point", "coordinates": [ 133.904181, -1.076381 ] } },
{ "type": "Feature", "properties": { "decimalLatitude": -1.075064, "decimalLongitude": 133.904336, "eventDate": "2023-08-01T09:18:00Z", "countryCode": "ID" }, "geometry": { "type": "Point", "coordinates": [ 133.904336, -1.075064 ] } },
{ "type": "Feature", "properties": { "decimalLatitude": -1.074953, "decimalLongitude": 133.904673, "eventDate": "2023-08-10T00:00:00Z", "countryCode": "ID" }, "geometry": { "type": "Point", "coordinates": [ 133.904673, -1.074953 ] } },
{ "type": "Feature", "properties": { "decimalLatitude": -1.005404, "decimalLongitude": 133.951439, "eventDate": "2023-08-01T09:34:09Z", "countryCode": "ID" }, "geometry": { "type": "Point", "coordinates": [ 133.951439, -1.005404 ] } },
{ "type": "Feature", "properties": { "decimalLatitude": -1.106169, "decimalLongitude": 133.960123, "eventDate": "2023-10-28T22:11:00Z", "countryCode": "ID" }, "geometry": { "type": "Point", "coordinates": [ 133.960123, -1.106169 ] } },
{ "type": "Feature", "properties": { "decimalLatitude": -1.076091, "decimalLongitude": 133.904021, "eventDate": "2023-11-10T14:17:51Z", "countryCode": "ID" }, "geometry": { "type": "Point", "coordinates": [ 133.904021, -1.076091 ] } },
{ "type": "Feature", "properties": { "decimalLatitude": -1.074337, "decimalLongitude": 133.904507, "eventDate": "2023-11-11T15:16:30Z", "countryCode": "ID" }, "geometry": { "type": "Point", "coordinates": [ 133.904507, -1.074337 ] } },
{ "type": "Feature", "properties": { "decimalLatitude": -1.105197, "decimalLongitude": 133.984464, "eventDate": "2024-07-22T11:02:22Z", "countryCode": "ID" }, "geometry": { "type": "Point", "coordinates": [ 133.984464, -1.105197 ] } },
{ "type": "Feature", "properties": { "decimalLatitude": -1.083333, "decimalLongitude": 133.966667, "eventDate": "2024-07-13T11:46:28Z", "countryCode": "ID" }, "geometry": { "type": "Point", "coordinates": [ 133.966667, -1.083333 ] } },
{ "type": "Feature", "properties": { "decimalLatitude": -1.110665, "decimalLongitude": 133.900616, "eventDate": "2024-11-30T11:33:00Z", "countryCode": "ID" }, "geometry": { "type": "Point", "coordinates": [ 133.900616, -1.110665 ] } },
{ "type": "Feature", "properties": { "decimalLatitude": -1.110665, "decimalLongitude": 133.900616, "eventDate": "2024-11-30T11:32:00Z", "countryCode": "ID" }, "geometry": { "type": "Point", "coordinates": [ 133.900616, -1.110665 ] } },
{ "type": "Feature", "properties": { "decimalLatitude": -1.110665, "decimalLongitude": 133.900616, "eventDate": "2024-11-30T11:58:00Z", "countryCode": "ID" }, "geometry": { "type": "Point", "coordinates": [ 133.900616, -1.110665 ] } },
{ "type": "Feature", "properties": { "decimalLatitude": -1.110665, "decimalLongitude": 133.900616, "eventDate": "2024-11-30T12:01:00Z", "countryCode": "ID" }, "geometry": { "type": "Point", "coordinates": [ 133.900616, -1.110665 ] } },
{ "type": "Feature", "properties": { "decimalLatitude": -2.949681, "decimalLongitude": 132.912948, "eventDate": "2024-11-20T11:10:00Z", "countryCode": "ID" }, "geometry": { "type": "Point", "coordinates": [ 132.912948, -2.949681 ] } },
{ "type": "Feature", "properties": { "decimalLatitude": -1.083333, "decimalLongitude": 133.966667, "eventDate": "2024-12-15T18:55:00Z", "countryCode": "ID" }, "geometry": { "type": "Point", "coordinates": [ 133.966667, -1.083333 ] } },
{ "type": "Feature", "properties": { "decimalLatitude": -1.102053, "decimalLongitude": 133.90907, "eventDate": "2024-12-02T13:34:00Z", "countryCode": "ID" }, "geometry": { "type": "Point", "coordinates": [ 133.90907, -1.102053 ] } },
{ "type": "Feature", "properties": { "decimalLatitude": -1.104025, "decimalLongitude": 133.910028, "eventDate": "2024-12-14T06:43:00Z", "countryCode": "ID" }, "geometry": { "type": "Point", "coordinates": [ 133.910028, -1.104025 ] } },
{ "type": "Feature", "properties": { "decimalLatitude": -1.073367, "decimalLongitude": 133.909261, "eventDate": "2024-12-02T12:41:00Z", "countryCode": "ID" }, "geometry": { "type": "Point", "coordinates": [ 133.909261, -1.073367 ] } },
{ "type": "Feature", "properties": { "decimalLatitude": -1.102235, "decimalLongitude": 133.924841, "eventDate": "2024-12-16T08:55:00Z", "countryCode": "ID" }, "geometry": { "type": "Point", "coordinates": [ 133.924841, -1.102235 ] } },
{ "type": "Feature", "properties": { "decimalLatitude": -1.102053, "decimalLongitude": 133.90907, "eventDate": "2024-12-02T13:31:00Z", "countryCode": "ID" }, "geometry": { "type": "Point", "coordinates": [ 133.90907, -1.102053 ] } },
{ "type": "Feature", "properties": { "decimalLatitude": -1.103324, "decimalLongitude": 133.910569, "eventDate": "2024-12-16T08:55:00Z", "countryCode": "ID" }, "geometry": { "type": "Point", "coordinates": [ 133.910569, -1.103324 ] } },
{ "type": "Feature", "properties": { "decimalLatitude": -1.155456, "decimalLongitude": 133.714248, "eventDate": "2025-01-22T00:56:00Z", "countryCode": "ID" }, "geometry": { "type": "Point", "coordinates": [ 133.714248, -1.155456 ] } },
{ "type": "Feature", "properties": { "decimalLatitude": -4.146071, "decimalLongitude": 137.095158, "eventDate": "2025-07-18T00:00:00Z", "countryCode": "ID" }, "geometry": { "type": "Point", "coordinates": [ 137.095158, -4.146071 ] } },
{ "type": "Feature", "properties": { "decimalLatitude": -1.07523, "decimalLongitude": 133.90407, "eventDate": "2025-10-17T13:16:00Z", "countryCode": "ID" }, "geometry": { "type": "Point", "coordinates": [ 133.90407, -1.07523 ] } },
{ "type": "Feature", "properties": { "decimalLatitude": -1.075215, "decimalLongitude": 133.90407, "eventDate": "2025-10-18T12:32:00Z", "countryCode": "ID" }, "geometry": { "type": "Point", "coordinates": [ 133.90407, -1.075215 ] } }
]
}
