{
"type": "FeatureCollection",
"name": "pachliopta-aristolochia-gbif",
"crs": { "type": "name", "properties": { "name": "urn:ogc:def:crs:OGC:1.3:CRS84" } },
"features": [
{ "type": "Feature", "properties": { "decimalLatitude": 14.439642, "decimalLongitude": 98.854537, "eventDate": "2016-11-03T15:36:00Z", "countryCode": "TH" }, "geometry": { "type": "Point", "coordinates": [ 98.854537, 14.439642 ] } },
{ "type": "Feature", "properties": { "decimalLatitude": 12.842553, "decimalLongitude": 99.59155, "eventDate": "2020-07-27T13:17:00Z", "countryCode": "TH" }, "geometry": { "type": "Point", "coordinates": [ 99.59155, 12.842553 ] } },
{ "type": "Feature", "properties": { "decimalLatitude": 17.039809, "decimalLongitude": 96.099688, "eventDate": "2022-10-01T08:41:00Z", "countryCode": "MM" }, "geometry": { "type": "Point", "coordinates": [ 96.099688, 17.039809 ] } },
{ "type": "Feature", "properties": { "decimalLatitude": 19.413889, "decimalLongitude": 98.915, "eventDate": "2023-04-01T10:16:00Z", "countryCode": "TH" }, "geometry": { "type": "Point", "coordinates": [ 98.915, 19.413889 ] } },
{ "type": "Feature", "properties": { "decimalLatitude": 19.413889, "decimalLongitude": 98.915, "eventDate": "2023-04-01T09:34:00Z", "countryCode": "TH" }, "geometry": { "type": "Point", "coordinates": [ 98.915, 19.413889 ] } },
{ "type": "Feature", "properties": { "decimalLatitude": 19.365622, "decimalLongitude": 99.495846, "eventDate": "2023-07-05T16:45:00Z", "countryCode": "TH" }, "geometry": { "type": "Point", "coordinates": [ 99.495846, 19.365622 ] } },
{ "type": "Feature", "properties": { "decimalLatitude": 13.816283, "decimalLongitude": 100.55351, "eventDate": "2024-06-26T08:05:00Z", "countryCode": "TH" }, "geometry": { "type": "Point", "coordinates": [ 100.55351, 13.816283 ] } },
{ "type": "Feature", "properties": { "decimalLatitude": 13.412291, "decimalLongitude": 103.864642, "eventDate": "2024-07-29T11:42:00Z", "countryCode": "KH" }, "geometry": { "type": "Point", "coordinates": [ 103.864642, 13.412291 ] } }
]
}
