{
"type": "FeatureCollection",
"name": "parthenos-aspila-gbif",
"crs": { "type": "name", "properties": { "name": "urn:ogc:def:crs:OGC:1.3:CRS84" } },
"features": [
{ "type": "Feature", "properties": { "decimalLatitude": -2.518564, "decimalLongitude": 140.162666, "eventDate": "2015-04-05T03:31:00Z", "countryCode": "ID" }, "geometry": { "type": "Point", "coordinates": [ 140.162666, -2.518564 ] } },
{ "type": "Feature", "properties": { "decimalLatitude": -2.518564, "decimalLongitude": 140.162666, "eventDate": "2015-04-03T03:50:00Z", "countryCode": "ID" }, "geometry": { "type": "Point", "coordinates": [ 140.162666, -2.518564 ] } },
{ "type": "Feature", "properties": { "decimalLatitude": -1.108879, "decimalLongitude": 133.910093, "eventDate": "2015-07-27T06:30:00Z", "countryCode": "ID" }, "geometry": { "type": "Point", "coordinates": [ 133.910093, -1.108879 ] } },
{ "type": "Feature", "properties": { "decimalLatitude": -3.353239, "decimalLongitude": 143.521494, "eventDate": "2017-07-01T00:41:00Z", "countryCode": "PG" }, "geometry": { "type": "Point", "coordinates": [ 143.521494, -3.353239 ] } },
{ "type": "Feature", "properties": { "decimalLatitude": -2.538757, "decimalLongitude": 140.401702, "eventDate": "2017-10-27T00:25:00Z", "countryCode": "ID" }, "geometry": { "type": "Point", "coordinates": [ 140.401702, -2.538757 ] } },
{ "type": "Feature", "properties": { "decimalLatitude": -3.669659, "decimalLongitude": 143.999783, "eventDate": "2019-04-21T00:00:00Z", "countryCode": "PG" }, "geometry": { "type": "Point", "coordinates": [ 143.999783, -3.669659 ] } },
{ "type": "Feature", "properties": { "decimalLatitude": -2.56385, "decimalLongitude": 140.097812, "eventDate": "2019-08-19T00:00:00Z", "countryCode": "ID" }, "geometry": { "type": "Point", "coordinates": [ 140.097812, -2.56385 ] } },
{ "type": "Feature", "properties": { "decimalLatitude": -5.221884, "decimalLongitude": 145.785632, "eventDate": "2019-09-14T11:13:00Z", "countryCode": "PG" }, "geometry": { "type": "Point", "coordinates": [ 145.785632, -5.221884 ] } },
{ "type": "Feature", "properties": { "decimalLatitude": -2.478472, "decimalLongitude": 140.543002, "eventDate": "2019-10-17T07:03:00Z", "countryCode": "ID" }, "geometry": { "type": "Point", "coordinates": [ 140.543002, -2.478472 ] } },
{ "type": "Feature", "properties": { "decimalLatitude": -2.564965, "decimalLongitude": 140.610987, "eventDate": "2020-07-15T00:00:00Z", "countryCode": "ID" }, "geometry": { "type": "Point", "coordinates": [ 140.610987, -2.564965 ] } },
{ "type": "Feature", "properties": { "decimalLatitude": -2.549018, "decimalLongitude": 140.095166, "eventDate": "2022-06-11T02:51:00Z", "countryCode": "ID" }, "geometry": { "type": "Point", "coordinates": [ 140.095166, -2.549018 ] } },
{ "type": "Feature", "properties": { "decimalLatitude": -2.590576, "decimalLongitude": 140.420921, "eventDate": "2022-06-08T05:28:00Z", "countryCode": "ID" }, "geometry": { "type": "Point", "coordinates": [ 140.420921, -2.590576 ] } },
{ "type": "Feature", "properties": { "decimalLatitude": -2.590576, "decimalLongitude": 140.420921, "eventDate": "2022-06-08T04:54:00Z", "countryCode": "ID" }, "geometry": { "type": "Point", "coordinates": [ 140.420921, -2.590576 ] } },
{ "type": "Feature", "properties": { "decimalLatitude": -2.573254, "decimalLongitude": 140.106795, "eventDate": "2022-06-25T14:31:00Z", "countryCode": "ID" }, "geometry": { "type": "Point", "coordinates": [ 140.106795, -2.573254 ] } },
{ "type": "Feature", "properties": { "decimalLatitude": -2.549018, "decimalLongitude": 140.095166, "eventDate": "2022-06-11T01:41:00Z", "countryCode": "ID" }, "geometry": { "type": "Point", "coordinates": [ 140.095166, -2.549018 ] } },
{ "type": "Feature", "properties": { "decimalLatitude": -2.56852, "decimalLongitude": 140.105697, "eventDate": "2022-06-25T11:52:00Z", "countryCode": "ID" }, "geometry": { "type": "Point", "coordinates": [ 140.105697, -2.56852 ] } },
{ "type": "Feature", "properties": { "decimalLatitude": -2.573254, "decimalLongitude": 140.106795, "eventDate": "2022-06-26T12:23:00Z", "countryCode": "ID" }, "geometry": { "type": "Point", "coordinates": [ 140.106795, -2.573254 ] } },
{ "type": "Feature", "properties": { "decimalLatitude": -2.548282, "decimalLongitude": 140.134083, "eventDate": "2022-06-26T12:35:00Z", "countryCode": "ID" }, "geometry": { "type": "Point", "coordinates": [ 140.134083, -2.548282 ] } },
{ "type": "Feature", "properties": { "decimalLatitude": -2.642514, "decimalLongitude": 140.883466, "eventDate": "2022-08-23T20:36:00Z", "countryCode": "ID" }, "geometry": { "type": "Point", "coordinates": [ 140.883466, -2.642514 ] } },
{ "type": "Feature", "properties": { "decimalLatitude": -2.631025, "decimalLongitude": 140.933551, "eventDate": "2022-08-21T18:46:00Z", "countryCode": "ID" }, "geometry": { "type": "Point", "coordinates": [ 140.933551, -2.631025 ] } },
{ "type": "Feature", "properties": { "decimalLatitude": -2.548282, "decimalLongitude": 140.134083, "eventDate": "2022-09-12T13:20:00Z", "countryCode": "ID" }, "geometry": { "type": "Point", "coordinates": [ 140.134083, -2.548282 ] } },
{ "type": "Feature", "properties": { "decimalLatitude": -2.540945, "decimalLongitude": 140.439779, "eventDate": "2022-10-03T09:24:00Z", "countryCode": "ID" }, "geometry": { "type": "Point", "coordinates": [ 140.439779, -2.540945 ] } },
{ "type": "Feature", "properties": { "decimalLatitude": -3.422373, "decimalLongitude": 142.508369, "eventDate": "2023-01-20T14:14:00Z", "countryCode": "PG" }, "geometry": { "type": "Point", "coordinates": [ 142.508369, -3.422373 ] } },
{ "type": "Feature", "properties": { "decimalLatitude": -3.485549, "decimalLongitude": 142.049805, "eventDate": "2023-04-01T15:08:00Z", "countryCode": "PG" }, "geometry": { "type": "Point", "coordinates": [ 142.049805, -3.485549 ] } },
{ "type": "Feature", "properties": { "decimalLatitude": -3.485549, "decimalLongitude": 142.049805, "eventDate": "2023-04-08T00:41:00Z", "countryCode": "PG" }, "geometry": { "type": "Point", "coordinates": [ 142.049805, -3.485549 ] } },
{ "type": "Feature", "properties": { "decimalLatitude": -3.485549, "decimalLongitude": 142.049805, "eventDate": "2023-05-06T03:51:00Z", "countryCode": "PG" }, "geometry": { "type": "Point", "coordinates": [ 142.049805, -3.485549 ] } },
{ "type": "Feature", "properties": { "decimalLatitude": -3.485549, "decimalLongitude": 142.049805, "eventDate": "2023-06-25T10:41:00Z", "countryCode": "PG" }, "geometry": { "type": "Point", "coordinates": [ 142.049805, -3.485549 ] } },
{ "type": "Feature", "properties": { "decimalLatitude": -3.485549, "decimalLongitude": 142.049805, "eventDate": "2023-07-01T02:23:00Z", "countryCode": "PG" }, "geometry": { "type": "Point", "coordinates": [ 142.049805, -3.485549 ] } },
{ "type": "Feature", "properties": { "decimalLatitude": -1.137645, "decimalLongitude": 136.12029, "eventDate": "2023-07-08T00:00:00Z", "countryCode": "ID" }, "geometry": { "type": "Point", "coordinates": [ 136.12029, -1.137645 ] } },
{ "type": "Feature", "properties": { "decimalLatitude": -2.544857, "decimalLongitude": 140.147616, "eventDate": "2023-08-31T01:43:00Z", "countryCode": "ID" }, "geometry": { "type": "Point", "coordinates": [ 140.147616, -2.544857 ] } },
{ "type": "Feature", "properties": { "decimalLatitude": -3.485549, "decimalLongitude": 142.049805, "eventDate": "2023-10-01T01:54:00Z", "countryCode": "PG" }, "geometry": { "type": "Point", "coordinates": [ 142.049805, -3.485549 ] } },
{ "type": "Feature", "properties": { "decimalLatitude": -3.485549, "decimalLongitude": 142.049805, "eventDate": "2023-10-08T12:08:00Z", "countryCode": "PG" }, "geometry": { "type": "Point", "coordinates": [ 142.049805, -3.485549 ] } },
{ "type": "Feature", "properties": { "decimalLatitude": -2.541693, "decimalLongitude": 140.512091, "eventDate": "2023-10-18T11:28:00Z", "countryCode": "ID" }, "geometry": { "type": "Point", "coordinates": [ 140.512091, -2.541693 ] } },
{ "type": "Feature", "properties": { "decimalLatitude": -2.541776, "decimalLongitude": 140.512135, "eventDate": "2023-10-18T11:37:00Z", "countryCode": "ID" }, "geometry": { "type": "Point", "coordinates": [ 140.512135, -2.541776 ] } },
{ "type": "Feature", "properties": { "decimalLatitude": -2.565029, "decimalLongitude": 140.09826, "eventDate": "2023-10-19T09:20:00Z", "countryCode": "ID" }, "geometry": { "type": "Point", "coordinates": [ 140.09826, -2.565029 ] } },
{ "type": "Feature", "properties": { "decimalLatitude": -2.565028, "decimalLongitude": 140.098257, "eventDate": "2023-10-19T09:20:00Z", "countryCode": "ID" }, "geometry": { "type": "Point", "coordinates": [ 140.098257, -2.565028 ] } },
{ "type": "Feature", "properties": { "decimalLatitude": -2.563521, "decimalLongitude": 140.09776, "eventDate": "2023-10-19T10:02:00Z", "countryCode": "ID" }, "geometry": { "type": "Point", "coordinates": [ 140.09776, -2.563521 ] } },
{ "type": "Feature", "properties": { "decimalLatitude": -2.53514, "decimalLongitude": 140.513208, "eventDate": "2023-10-18T12:20:57Z", "countryCode": "ID" }, "geometry": { "type": "Point", "coordinates": [ 140.513208, -2.53514 ] } },
{ "type": "Feature", "properties": { "decimalLatitude": -2.545833, "decimalLongitude": 140.50722, "eventDate": "2024-11-14T13:59:00Z", "countryCode": "ID" }, "geometry": { "type": "Point", "coordinates": [ 140.50722, -2.545833 ] } },
{ "type": "Feature", "properties": { "decimalLatitude": -3.557153, "decimalLongitude": 143.584972, "eventDate": "2024-12-30T18:21:16Z", "countryCode": "PG" }, "geometry": { "type": "Point", "coordinates": [ 143.584972, -3.557153 ] } }
]
}
