{
"type": "FeatureCollection",
"name": "phocides-pigmalion-gbif",
"crs": { "type": "name", "properties": { "name": "urn:ogc:def:crs:OGC:1.3:CRS84" } },
"features": [
{ "type": "Feature", "properties": { "decimalLatitude": 23.299, "decimalLongitude": -106.44343, "eventDate": "2015-01-12T10:34:17Z", "countryCode": "MX" }, "geometry": { "type": "Point", "coordinates": [ -106.44343, 23.299 ] } },
{ "type": "Feature", "properties": { "decimalLatitude": 10.96187, "decimalLongitude": -85.28045, "eventDate": "2015-01-08T00:00:00Z", "countryCode": "CR" }, "geometry": { "type": "Point", "coordinates": [ -85.28045, 10.96187 ] } },
{ "type": "Feature", "properties": { "decimalLatitude": 24.636251, "decimalLongitude": -81.351142, "eventDate": "2015-02-11T00:00:00Z", "countryCode": "US" }, "geometry": { "type": "Point", "coordinates": [ -81.351142, 24.636251 ] } },
{ "type": "Feature", "properties": { "decimalLatitude": 10.93548, "decimalLongitude": -85.25314, "eventDate": "2015-04-30T00:00:00Z", "countryCode": "CR" }, "geometry": { "type": "Point", "coordinates": [ -85.25314, 10.93548 ] } },
{ "type": "Feature", "properties": { "decimalLatitude": 23.299398, "decimalLongitude": -106.443525, "eventDate": "2015-04-08T00:00:00Z", "countryCode": "MX" }, "geometry": { "type": "Point", "coordinates": [ -106.443525, 23.299398 ] } },
{ "type": "Feature", "properties": { "decimalLatitude": 24.816106, "decimalLongitude": -80.823052, "eventDate": "2015-04-18T00:00:00Z", "countryCode": "US" }, "geometry": { "type": "Point", "coordinates": [ -80.823052, 24.816106 ] } },
{ "type": "Feature", "properties": { "decimalLatitude": 11.01602, "decimalLongitude": -85.38053, "eventDate": "2015-06-27T00:00:00Z", "countryCode": "CR" }, "geometry": { "type": "Point", "coordinates": [ -85.38053, 11.01602 ] } },
{ "type": "Feature", "properties": { "decimalLatitude": 19.287036, "decimalLongitude": -96.432265, "eventDate": "2015-07-06T17:22:16Z", "countryCode": "MX" }, "geometry": { "type": "Point", "coordinates": [ -96.432265, 19.287036 ] } },
{ "type": "Feature", "properties": { "decimalLatitude": 27.847614, "decimalLongitude": -82.60869, "eventDate": "2015-08-12T00:00:00Z", "countryCode": "US" }, "geometry": { "type": "Point", "coordinates": [ -82.60869, 27.847614 ] } },
{ "type": "Feature", "properties": { "decimalLatitude": 23.299553, "decimalLongitude": -106.443493, "eventDate": "2015-10-21T21:35:33Z", "countryCode": "MX" }, "geometry": { "type": "Point", "coordinates": [ -106.443493, 23.299553 ] } },
{ "type": "Feature", "properties": { "decimalLatitude": 11.01227, "decimalLongitude": -85.34929, "eventDate": "2015-10-23T00:00:00Z", "countryCode": "CR" }, "geometry": { "type": "Point", "coordinates": [ -85.34929, 11.01227 ] } },
{ "type": "Feature", "properties": { "decimalLatitude": 11.01602, "decimalLongitude": -85.38053, "eventDate": "2015-10-10T00:00:00Z", "countryCode": "CR" }, "geometry": { "type": "Point", "coordinates": [ -85.38053, 11.01602 ] } },
{ "type": "Feature", "properties": { "decimalLatitude": 11.01227, "decimalLongitude": -85.34929, "eventDate": "2015-10-21T00:00:00Z", "countryCode": "CR" }, "geometry": { "type": "Point", "coordinates": [ -85.34929, 11.01227 ] } },
{ "type": "Feature", "properties": { "decimalLatitude": -13.036764, "decimalLongitude": -71.512806, "eventDate": "2015-11-19T00:00:00Z", "countryCode": "PE" }, "geometry": { "type": "Point", "coordinates": [ -71.512806, -13.036764 ] } },
{ "type": "Feature", "properties": { "decimalLatitude": 23.2994, "decimalLongitude": -106.440536, "eventDate": "2015-12-11T12:20:25Z", "countryCode": "MX" }, "geometry": { "type": "Point", "coordinates": [ -106.440536, 23.2994 ] } },
{ "type": "Feature", "properties": { "decimalLatitude": 24.642644, "decimalLongitude": -81.511473, "eventDate": "2015-12-19T00:00:00Z", "countryCode": "US" }, "geometry": { "type": "Point", "coordinates": [ -81.511473, 24.642644 ] } },
{ "type": "Feature", "properties": { "decimalLatitude": 24.642644, "decimalLongitude": -81.511473, "eventDate": "2015-12-19T00:00:00Z", "countryCode": "US" }, "geometry": { "type": "Point", "coordinates": [ -81.511473, 24.642644 ] } },
{ "type": "Feature", "properties": { "decimalLatitude": 24.642644, "decimalLongitude": -81.511473, "eventDate": "2015-12-19T00:00:00Z", "countryCode": "US" }, "geometry": { "type": "Point", "coordinates": [ -81.511473, 24.642644 ] } },
{ "type": "Feature", "properties": { "decimalLatitude": 24.642644, "decimalLongitude": -81.511473, "eventDate": "2015-12-19T00:00:00Z", "countryCode": "US" }, "geometry": { "type": "Point", "coordinates": [ -81.511473, 24.642644 ] } },
{ "type": "Feature", "properties": { "decimalLatitude": 24.642644, "decimalLongitude": -81.511473, "eventDate": "2015-12-19T00:00:00Z", "countryCode": "US" }, "geometry": { "type": "Point", "coordinates": [ -81.511473, 24.642644 ] } },
{ "type": "Feature", "properties": { "decimalLatitude": 24.642644, "decimalLongitude": -81.511473, "eventDate": "2015-12-19T00:00:00Z", "countryCode": "US" }, "geometry": { "type": "Point", "coordinates": [ -81.511473, 24.642644 ] } },
{ "type": "Feature", "properties": { "decimalLatitude": 24.642644, "decimalLongitude": -81.511473, "eventDate": "2015-12-19T00:00:00Z", "countryCode": "US" }, "geometry": { "type": "Point", "coordinates": [ -81.511473, 24.642644 ] } },
{ "type": "Feature", "properties": { "decimalLatitude": 24.642644, "decimalLongitude": -81.511473, "eventDate": "2015-12-19T00:00:00Z", "countryCode": "US" }, "geometry": { "type": "Point", "coordinates": [ -81.511473, 24.642644 ] } },
{ "type": "Feature", "properties": { "decimalLatitude": 24.642644, "decimalLongitude": -81.511473, "eventDate": "2015-12-19T00:00:00Z", "countryCode": "US" }, "geometry": { "type": "Point", "coordinates": [ -81.511473, 24.642644 ] } },
{ "type": "Feature", "properties": { "decimalLatitude": 24.642644, "decimalLongitude": -81.511473, "eventDate": "2015-12-19T00:00:00Z", "countryCode": "US" }, "geometry": { "type": "Point", "coordinates": [ -81.511473, 24.642644 ] } },
{ "type": "Feature", "properties": { "decimalLatitude": 24.642644, "decimalLongitude": -81.511473, "eventDate": "2015-12-19T00:00:00Z", "countryCode": "US" }, "geometry": { "type": "Point", "coordinates": [ -81.511473, 24.642644 ] } },
{ "type": "Feature", "properties": { "decimalLatitude": 24.642644, "decimalLongitude": -81.511473, "eventDate": "2015-12-19T00:00:00Z", "countryCode": "US" }, "geometry": { "type": "Point", "coordinates": [ -81.511473, 24.642644 ] } },
{ "type": "Feature", "properties": { "decimalLatitude": 24.642644, "decimalLongitude": -81.511473, "eventDate": "2015-12-19T00:00:00Z", "countryCode": "US" }, "geometry": { "type": "Point", "coordinates": [ -81.511473, 24.642644 ] } },
{ "type": "Feature", "properties": { "decimalLatitude": 24.642644, "decimalLongitude": -81.511473, "eventDate": "2015-12-19T00:00:00Z", "countryCode": "US" }, "geometry": { "type": "Point", "coordinates": [ -81.511473, 24.642644 ] } },
{ "type": "Feature", "properties": { "decimalLatitude": 27.451318, "decimalLongitude": -82.692409, "eventDate": "2015-12-28T00:00:00Z", "countryCode": "US" }, "geometry": { "type": "Point", "coordinates": [ -82.692409, 27.451318 ] } },
{ "type": "Feature", "properties": { "decimalLatitude": 26.300927, "decimalLongitude": -81.833993, "eventDate": "2016-01-04T00:00:00Z", "countryCode": "US" }, "geometry": { "type": "Point", "coordinates": [ -81.833993, 26.300927 ] } },
{ "type": "Feature", "properties": { "decimalLatitude": 11.01227, "decimalLongitude": -85.34929, "eventDate": "2016-03-27T00:00:00Z", "countryCode": "CR" }, "geometry": { "type": "Point", "coordinates": [ -85.34929, 11.01227 ] } },
{ "type": "Feature", "properties": { "decimalLatitude": 11.01227, "decimalLongitude": -85.34929, "eventDate": "2016-03-23T00:00:00Z", "countryCode": "CR" }, "geometry": { "type": "Point", "coordinates": [ -85.34929, 11.01227 ] } },
{ "type": "Feature", "properties": { "decimalLatitude": 24.813927, "decimalLongitude": -80.817962, "eventDate": "2016-03-02T00:00:00Z", "countryCode": "US" }, "geometry": { "type": "Point", "coordinates": [ -80.817962, 24.813927 ] } },
{ "type": "Feature", "properties": { "decimalLatitude": 23.300611, "decimalLongitude": -106.438064, "eventDate": "2016-04-20T11:21:33Z", "countryCode": "MX" }, "geometry": { "type": "Point", "coordinates": [ -106.438064, 23.300611 ] } },
{ "type": "Feature", "properties": { "decimalLatitude": 10.95644, "decimalLongitude": -85.26611, "eventDate": "2016-04-23T00:00:00Z", "countryCode": "CR" }, "geometry": { "type": "Point", "coordinates": [ -85.26611, 10.95644 ] } },
{ "type": "Feature", "properties": { "decimalLatitude": 10.95644, "decimalLongitude": -85.26611, "eventDate": "2016-04-25T00:00:00Z", "countryCode": "CR" }, "geometry": { "type": "Point", "coordinates": [ -85.26611, 10.95644 ] } },
{ "type": "Feature", "properties": { "decimalLatitude": 10.95644, "decimalLongitude": -85.26611, "eventDate": "2016-04-23T00:00:00Z", "countryCode": "CR" }, "geometry": { "type": "Point", "coordinates": [ -85.26611, 10.95644 ] } },
{ "type": "Feature", "properties": { "decimalLatitude": 10.95644, "decimalLongitude": -85.26611, "eventDate": "2016-04-07T00:00:00Z", "countryCode": "CR" }, "geometry": { "type": "Point", "coordinates": [ -85.26611, 10.95644 ] } },
{ "type": "Feature", "properties": { "decimalLatitude": 10.974, "decimalLongitude": -85.28328, "eventDate": "2016-04-07T00:00:00Z", "countryCode": "CR" }, "geometry": { "type": "Point", "coordinates": [ -85.28328, 10.974 ] } },
{ "type": "Feature", "properties": { "decimalLatitude": 10.95644, "decimalLongitude": -85.26611, "eventDate": "2016-04-10T00:00:00Z", "countryCode": "CR" }, "geometry": { "type": "Point", "coordinates": [ -85.26611, 10.95644 ] } },
{ "type": "Feature", "properties": { "decimalLatitude": 10.95644, "decimalLongitude": -85.26611, "eventDate": "2016-04-11T00:00:00Z", "countryCode": "CR" }, "geometry": { "type": "Point", "coordinates": [ -85.26611, 10.95644 ] } },
{ "type": "Feature", "properties": { "decimalLatitude": 20.953975, "decimalLongitude": -97.322813, "eventDate": "2016-05-16T14:24:00Z", "countryCode": "MX" }, "geometry": { "type": "Point", "coordinates": [ -97.322813, 20.953975 ] } },
{ "type": "Feature", "properties": { "decimalLatitude": 25.403524, "decimalLongitude": -80.654688, "eventDate": "2016-05-04T00:00:00Z", "countryCode": "US" }, "geometry": { "type": "Point", "coordinates": [ -80.654688, 25.403524 ] } },
{ "type": "Feature", "properties": { "decimalLatitude": 10.96187, "decimalLongitude": -85.28045, "eventDate": "2016-08-05T00:00:00Z", "countryCode": "CR" }, "geometry": { "type": "Point", "coordinates": [ -85.28045, 10.96187 ] } },
{ "type": "Feature", "properties": { "decimalLatitude": 23.299379, "decimalLongitude": -106.443443, "eventDate": "2016-09-20T11:35:00Z", "countryCode": "MX" }, "geometry": { "type": "Point", "coordinates": [ -106.443443, 23.299379 ] } },
{ "type": "Feature", "properties": { "decimalLatitude": 10.95644, "decimalLongitude": -85.26611, "eventDate": "2016-09-13T00:00:00Z", "countryCode": "CR" }, "geometry": { "type": "Point", "coordinates": [ -85.26611, 10.95644 ] } },
{ "type": "Feature", "properties": { "decimalLatitude": 23.299659, "decimalLongitude": -106.443703, "eventDate": "2016-10-04T12:00:00Z", "countryCode": "MX" }, "geometry": { "type": "Point", "coordinates": [ -106.443703, 23.299659 ] } },
{ "type": "Feature", "properties": { "decimalLatitude": 23.299, "decimalLongitude": -106.443, "eventDate": "2016-11-05T10:02:00Z", "countryCode": "MX" }, "geometry": { "type": "Point", "coordinates": [ -106.443, 23.299 ] } },
{ "type": "Feature", "properties": { "decimalLatitude": 19.59893, "decimalLongitude": -96.390996, "eventDate": "2016-11-11T00:00:00Z", "countryCode": "MX" }, "geometry": { "type": "Point", "coordinates": [ -96.390996, 19.59893 ] } },
{ "type": "Feature", "properties": { "decimalLatitude": 23.299, "decimalLongitude": -106.443, "eventDate": "2016-11-28T09:50:00Z", "countryCode": "MX" }, "geometry": { "type": "Point", "coordinates": [ -106.443, 23.299 ] } },
{ "type": "Feature", "properties": { "decimalLatitude": 10.95644, "decimalLongitude": -85.26611, "eventDate": "2016-11-11T00:00:00Z", "countryCode": "CR" }, "geometry": { "type": "Point", "coordinates": [ -85.26611, 10.95644 ] } },
{ "type": "Feature", "properties": { "decimalLatitude": 23.298995, "decimalLongitude": -106.440501, "eventDate": "2016-12-16T09:26:00Z", "countryCode": "MX" }, "geometry": { "type": "Point", "coordinates": [ -106.440501, 23.298995 ] } },
{ "type": "Feature", "properties": { "decimalLatitude": 23.299, "decimalLongitude": -106.443, "eventDate": "2016-12-17T11:08:00Z", "countryCode": "MX" }, "geometry": { "type": "Point", "coordinates": [ -106.443, 23.299 ] } },
{ "type": "Feature", "properties": { "decimalLatitude": 25.58562, "decimalLongitude": -109.059609, "eventDate": "2016-12-28T00:15:00Z", "countryCode": "MX" }, "geometry": { "type": "Point", "coordinates": [ -109.059609, 25.58562 ] } },
{ "type": "Feature", "properties": { "decimalLatitude": 17.097365, "decimalLongitude": -88.974967, "eventDate": "2017-01-13T11:03:00Z", "countryCode": "BZ" }, "geometry": { "type": "Point", "coordinates": [ -88.974967, 17.097365 ] } },
{ "type": "Feature", "properties": { "decimalLatitude": 21.611273, "decimalLongitude": -105.270181, "eventDate": "2017-02-02T11:02:00Z", "countryCode": "MX" }, "geometry": { "type": "Point", "coordinates": [ -105.270181, 21.611273 ] } },
{ "type": "Feature", "properties": { "decimalLatitude": 24.572807, "decimalLongitude": -81.74923, "eventDate": "2017-02-22T00:00:00Z", "countryCode": "US" }, "geometry": { "type": "Point", "coordinates": [ -81.74923, 24.572807 ] } },
{ "type": "Feature", "properties": { "decimalLatitude": 24.572807, "decimalLongitude": -81.74923, "eventDate": "2017-02-21T00:00:00Z", "countryCode": "US" }, "geometry": { "type": "Point", "coordinates": [ -81.74923, 24.572807 ] } },
{ "type": "Feature", "properties": { "decimalLatitude": 24.572807, "decimalLongitude": -81.74923, "eventDate": "2017-02-23T00:00:00Z", "countryCode": "US" }, "geometry": { "type": "Point", "coordinates": [ -81.74923, 24.572807 ] } },
{ "type": "Feature", "properties": { "decimalLatitude": 25.844722, "decimalLongitude": -81.385746, "eventDate": "2017-03-07T00:00:00Z", "countryCode": "US" }, "geometry": { "type": "Point", "coordinates": [ -81.385746, 25.844722 ] } },
{ "type": "Feature", "properties": { "decimalLatitude": 25.979805, "decimalLongitude": -81.3729, "eventDate": "2017-03-06T00:00:00Z", "countryCode": "US" }, "geometry": { "type": "Point", "coordinates": [ -81.3729, 25.979805 ] } },
{ "type": "Feature", "properties": { "decimalLatitude": 25.952643, "decimalLongitude": -81.511946, "eventDate": "2017-03-08T00:00:00Z", "countryCode": "US" }, "geometry": { "type": "Point", "coordinates": [ -81.511946, 25.952643 ] } },
{ "type": "Feature", "properties": { "decimalLatitude": 25.952643, "decimalLongitude": -81.511946, "eventDate": "2017-03-09T00:00:00Z", "countryCode": "US" }, "geometry": { "type": "Point", "coordinates": [ -81.511946, 25.952643 ] } },
{ "type": "Feature", "properties": { "decimalLatitude": 25.987443, "decimalLongitude": -81.593721, "eventDate": "2017-03-05T00:00:00Z", "countryCode": "US" }, "geometry": { "type": "Point", "coordinates": [ -81.593721, 25.987443 ] } },
{ "type": "Feature", "properties": { "decimalLatitude": 22.59856, "decimalLongitude": -78.65876, "eventDate": "2017-03-06T00:00:00Z", "countryCode": "CU" }, "geometry": { "type": "Point", "coordinates": [ -78.65876, 22.59856 ] } },
{ "type": "Feature", "properties": { "decimalLatitude": 25.138641, "decimalLongitude": -80.927889, "eventDate": "2017-04-26T00:00:00Z", "countryCode": "US" }, "geometry": { "type": "Point", "coordinates": [ -80.927889, 25.138641 ] } },
{ "type": "Feature", "properties": { "decimalLatitude": 10.90037, "decimalLongitude": -85.37254, "eventDate": "2017-05-23T00:00:00Z", "countryCode": "CR" }, "geometry": { "type": "Point", "coordinates": [ -85.37254, 10.90037 ] } },
{ "type": "Feature", "properties": { "decimalLatitude": 10.90037, "decimalLongitude": -85.37254, "eventDate": "2017-05-25T00:00:00Z", "countryCode": "CR" }, "geometry": { "type": "Point", "coordinates": [ -85.37254, 10.90037 ] } },
{ "type": "Feature", "properties": { "decimalLatitude": 23.299, "decimalLongitude": -106.443, "eventDate": "2017-06-27T10:58:00Z", "countryCode": "MX" }, "geometry": { "type": "Point", "coordinates": [ -106.443, 23.299 ] } },
{ "type": "Feature", "properties": { "decimalLatitude": 10.96187, "decimalLongitude": -85.28045, "eventDate": "2017-07-25T00:00:00Z", "countryCode": "CR" }, "geometry": { "type": "Point", "coordinates": [ -85.28045, 10.96187 ] } },
{ "type": "Feature", "properties": { "decimalLatitude": 10.95644, "decimalLongitude": -85.26611, "eventDate": "2017-07-22T00:00:00Z", "countryCode": "CR" }, "geometry": { "type": "Point", "coordinates": [ -85.26611, 10.95644 ] } },
{ "type": "Feature", "properties": { "decimalLatitude": 10.93548, "decimalLongitude": -85.25314, "eventDate": "2017-07-07T00:00:00Z", "countryCode": "CR" }, "geometry": { "type": "Point", "coordinates": [ -85.25314, 10.93548 ] } },
{ "type": "Feature", "properties": { "decimalLatitude": 20.95318, "decimalLongitude": -97.448437, "eventDate": "2017-08-13T14:50:47Z", "countryCode": "MX" }, "geometry": { "type": "Point", "coordinates": [ -97.448437, 20.95318 ] } },
{ "type": "Feature", "properties": { "decimalLatitude": 23.299, "decimalLongitude": -106.443, "eventDate": "2017-09-29T11:01:00Z", "countryCode": "MX" }, "geometry": { "type": "Point", "coordinates": [ -106.443, 23.299 ] } },
{ "type": "Feature", "properties": { "decimalLatitude": 23.299, "decimalLongitude": -106.443, "eventDate": "2017-10-09T10:56:00Z", "countryCode": "MX" }, "geometry": { "type": "Point", "coordinates": [ -106.443, 23.299 ] } },
{ "type": "Feature", "properties": { "decimalLatitude": 23.299, "decimalLongitude": -106.443, "eventDate": "2017-11-01T13:56:00Z", "countryCode": "MX" }, "geometry": { "type": "Point", "coordinates": [ -106.443, 23.299 ] } },
{ "type": "Feature", "properties": { "decimalLatitude": 23.299, "decimalLongitude": -106.443, "eventDate": "2017-11-04T11:28:00Z", "countryCode": "MX" }, "geometry": { "type": "Point", "coordinates": [ -106.443, 23.299 ] } },
{ "type": "Feature", "properties": { "decimalLatitude": 23.299181, "decimalLongitude": -106.440804, "eventDate": "2017-11-02T22:29:00Z", "countryCode": "MX" }, "geometry": { "type": "Point", "coordinates": [ -106.440804, 23.299181 ] } },
{ "type": "Feature", "properties": { "decimalLatitude": 23.299, "decimalLongitude": -106.443, "eventDate": "2017-11-09T11:38:00Z", "countryCode": "MX" }, "geometry": { "type": "Point", "coordinates": [ -106.443, 23.299 ] } },
{ "type": "Feature", "properties": { "decimalLatitude": 20.27783, "decimalLongitude": -87.381898, "eventDate": "2017-11-15T08:50:00Z", "countryCode": "MX" }, "geometry": { "type": "Point", "coordinates": [ -87.381898, 20.27783 ] } },
{ "type": "Feature", "properties": { "decimalLatitude": 23.299, "decimalLongitude": -106.443, "eventDate": "2017-11-17T11:21:00Z", "countryCode": "MX" }, "geometry": { "type": "Point", "coordinates": [ -106.443, 23.299 ] } },
{ "type": "Feature", "properties": { "decimalLatitude": 23.299, "decimalLongitude": -106.443, "eventDate": "2017-11-22T10:30:00Z", "countryCode": "MX" }, "geometry": { "type": "Point", "coordinates": [ -106.443, 23.299 ] } },
{ "type": "Feature", "properties": { "decimalLatitude": -1.076213, "decimalLongitude": -77.937119, "eventDate": "2017-11-21T00:00:00Z", "countryCode": "EC" }, "geometry": { "type": "Point", "coordinates": [ -77.937119, -1.076213 ] } },
{ "type": "Feature", "properties": { "decimalLatitude": -1.075566, "decimalLongitude": -77.936607, "eventDate": "2017-11-21T08:46:00Z", "countryCode": "EC" }, "geometry": { "type": "Point", "coordinates": [ -77.936607, -1.075566 ] } },
{ "type": "Feature", "properties": { "decimalLatitude": 23.302092, "decimalLongitude": -106.434657, "eventDate": "2017-12-26T10:24:00Z", "countryCode": "MX" }, "geometry": { "type": "Point", "coordinates": [ -106.434657, 23.302092 ] } },
{ "type": "Feature", "properties": { "decimalLatitude": 15.758822, "decimalLongitude": -96.124363, "eventDate": "2018-01-17T00:00:00Z", "countryCode": "MX" }, "geometry": { "type": "Point", "coordinates": [ -96.124363, 15.758822 ] } },
{ "type": "Feature", "properties": { "decimalLatitude": 20.488861, "decimalLongitude": -105.452036, "eventDate": "2018-01-25T11:12:00Z", "countryCode": "MX" }, "geometry": { "type": "Point", "coordinates": [ -105.452036, 20.488861 ] } },
{ "type": "Feature", "properties": { "decimalLatitude": 23.670547, "decimalLongitude": -106.599747, "eventDate": "2018-02-17T09:21:00Z", "countryCode": "MX" }, "geometry": { "type": "Point", "coordinates": [ -106.599747, 23.670547 ] } },
{ "type": "Feature", "properties": { "decimalLatitude": 20.96181, "decimalLongitude": -97.304513, "eventDate": "2018-03-10T11:30:00Z", "countryCode": "MX" }, "geometry": { "type": "Point", "coordinates": [ -97.304513, 20.96181 ] } },
{ "type": "Feature", "properties": { "decimalLatitude": 9.155, "decimalLongitude": -79.848, "eventDate": "2018-03-17T00:00:00Z", "countryCode": "PA" }, "geometry": { "type": "Point", "coordinates": [ -79.848, 9.155 ] } },
{ "type": "Feature", "properties": { "decimalLatitude": 10.95644, "decimalLongitude": -85.26611, "eventDate": "2018-03-25T00:00:00Z", "countryCode": "CR" }, "geometry": { "type": "Point", "coordinates": [ -85.26611, 10.95644 ] } },
{ "type": "Feature", "properties": { "decimalLatitude": 9.909808, "decimalLongitude": -84.287412, "eventDate": "2018-05-11T16:25:00Z", "countryCode": "CR" }, "geometry": { "type": "Point", "coordinates": [ -84.287412, 9.909808 ] } },
{ "type": "Feature", "properties": { "decimalLatitude": 10.96187, "decimalLongitude": -85.28045, "eventDate": "2018-07-10T00:00:00Z", "countryCode": "CR" }, "geometry": { "type": "Point", "coordinates": [ -85.28045, 10.96187 ] } },
{ "type": "Feature", "properties": { "decimalLatitude": 10.798089, "decimalLongitude": -85.318916, "eventDate": "2018-07-22T09:43:00Z", "countryCode": "CR" }, "geometry": { "type": "Point", "coordinates": [ -85.318916, 10.798089 ] } },
{ "type": "Feature", "properties": { "decimalLatitude": 19.5975, "decimalLongitude": -96.382161, "eventDate": "2018-08-25T00:00:00Z", "countryCode": "MX" }, "geometry": { "type": "Point", "coordinates": [ -96.382161, 19.5975 ] } },
{ "type": "Feature", "properties": { "decimalLatitude": 5.772, "decimalLongitude": -55.53, "eventDate": "2018-08-12T00:00:00Z", "countryCode": "SR" }, "geometry": { "type": "Point", "coordinates": [ -55.53, 5.772 ] } },
{ "type": "Feature", "properties": { "decimalLatitude": 23.299, "decimalLongitude": -106.443, "eventDate": "2018-10-26T08:37:00Z", "countryCode": "MX" }, "geometry": { "type": "Point", "coordinates": [ -106.443, 23.299 ] } },
{ "type": "Feature", "properties": { "decimalLatitude": 23.299, "decimalLongitude": -106.443, "eventDate": "2018-11-12T12:03:00Z", "countryCode": "MX" }, "geometry": { "type": "Point", "coordinates": [ -106.443, 23.299 ] } },
{ "type": "Feature", "properties": { "decimalLatitude": 17.675695, "decimalLongitude": -101.612603, "eventDate": "2018-11-12T11:23:00Z", "countryCode": "MX" }, "geometry": { "type": "Point", "coordinates": [ -101.612603, 17.675695 ] } },
{ "type": "Feature", "properties": { "decimalLatitude": 25.57825, "decimalLongitude": -109.118364, "eventDate": "2018-11-02T10:29:00Z", "countryCode": "MX" }, "geometry": { "type": "Point", "coordinates": [ -109.118364, 25.57825 ] } },
{ "type": "Feature", "properties": { "decimalLatitude": 20.377389, "decimalLongitude": -87.342292, "eventDate": "2018-11-01T09:24:00Z", "countryCode": "MX" }, "geometry": { "type": "Point", "coordinates": [ -87.342292, 20.377389 ] } },
{ "type": "Feature", "properties": { "decimalLatitude": -4.093854, "decimalLongitude": -78.961334, "eventDate": "2018-11-19T09:15:00Z", "countryCode": "EC" }, "geometry": { "type": "Point", "coordinates": [ -78.961334, -4.093854 ] } },
{ "type": "Feature", "properties": { "decimalLatitude": 23.299, "decimalLongitude": -106.443, "eventDate": "2018-12-30T14:41:00Z", "countryCode": "MX" }, "geometry": { "type": "Point", "coordinates": [ -106.443, 23.299 ] } },
{ "type": "Feature", "properties": { "decimalLatitude": 23.299, "decimalLongitude": -106.443, "eventDate": "2019-01-14T11:27:00Z", "countryCode": "MX" }, "geometry": { "type": "Point", "coordinates": [ -106.443, 23.299 ] } },
{ "type": "Feature", "properties": { "decimalLatitude": 25.538249, "decimalLongitude": -80.32901, "eventDate": "2019-01-22T00:00:00Z", "countryCode": "US" }, "geometry": { "type": "Point", "coordinates": [ -80.32901, 25.538249 ] } },
{ "type": "Feature", "properties": { "decimalLatitude": 25.745929, "decimalLongitude": -80.554956, "eventDate": "2019-01-24T00:00:00Z", "countryCode": "US" }, "geometry": { "type": "Point", "coordinates": [ -80.554956, 25.745929 ] } },
{ "type": "Feature", "properties": { "decimalLatitude": 21.521776, "decimalLongitude": -105.273436, "eventDate": "2019-02-15T10:54:00Z", "countryCode": "MX" }, "geometry": { "type": "Point", "coordinates": [ -105.273436, 21.521776 ] } },
{ "type": "Feature", "properties": { "decimalLatitude": 24.691201, "decimalLongitude": -81.321124, "eventDate": "2019-02-07T00:00:00Z", "countryCode": "US" }, "geometry": { "type": "Point", "coordinates": [ -81.321124, 24.691201 ] } },
{ "type": "Feature", "properties": { "decimalLatitude": 23.299, "decimalLongitude": -106.443, "eventDate": "2019-03-03T10:06:00Z", "countryCode": "MX" }, "geometry": { "type": "Point", "coordinates": [ -106.443, 23.299 ] } },
{ "type": "Feature", "properties": { "decimalLatitude": 26.479046, "decimalLongitude": -81.967293, "eventDate": "2019-03-25T00:00:00Z", "countryCode": "US" }, "geometry": { "type": "Point", "coordinates": [ -81.967293, 26.479046 ] } },
{ "type": "Feature", "properties": { "decimalLatitude": 16.319618, "decimalLongitude": -93.87153, "eventDate": "2019-03-16T17:12:00Z", "countryCode": "MX" }, "geometry": { "type": "Point", "coordinates": [ -93.87153, 16.319618 ] } },
{ "type": "Feature", "properties": { "decimalLatitude": 15.734111, "decimalLongitude": -96.159336, "eventDate": "2019-04-03T09:52:00Z", "countryCode": "MX" }, "geometry": { "type": "Point", "coordinates": [ -96.159336, 15.734111 ] } },
{ "type": "Feature", "properties": { "decimalLatitude": 27.62077, "decimalLongitude": -82.719285, "eventDate": "2019-04-16T00:00:00Z", "countryCode": "US" }, "geometry": { "type": "Point", "coordinates": [ -82.719285, 27.62077 ] } },
{ "type": "Feature", "properties": { "decimalLatitude": 26.071154, "decimalLongitude": -80.111427, "eventDate": "2019-04-13T00:00:00Z", "countryCode": "US" }, "geometry": { "type": "Point", "coordinates": [ -80.111427, 26.071154 ] } },
{ "type": "Feature", "properties": { "decimalLatitude": 23.299, "decimalLongitude": -106.443, "eventDate": "2019-05-14T10:19:00Z", "countryCode": "MX" }, "geometry": { "type": "Point", "coordinates": [ -106.443, 23.299 ] } },
{ "type": "Feature", "properties": { "decimalLatitude": 15.781239, "decimalLongitude": -96.159234, "eventDate": "2019-05-19T17:03:36Z", "countryCode": "MX" }, "geometry": { "type": "Point", "coordinates": [ -96.159234, 15.781239 ] } },
{ "type": "Feature", "properties": { "decimalLatitude": 23.299, "decimalLongitude": -106.443, "eventDate": "2019-09-12T08:01:00Z", "countryCode": "MX" }, "geometry": { "type": "Point", "coordinates": [ -106.443, 23.299 ] } },
{ "type": "Feature", "properties": { "decimalLatitude": 23.299, "decimalLongitude": -106.443, "eventDate": "2019-09-15T09:06:00Z", "countryCode": "MX" }, "geometry": { "type": "Point", "coordinates": [ -106.443, 23.299 ] } },
{ "type": "Feature", "properties": { "decimalLatitude": 21.200329, "decimalLongitude": -86.821804, "eventDate": "2019-09-18T09:45:30Z", "countryCode": "MX" }, "geometry": { "type": "Point", "coordinates": [ -86.821804, 21.200329 ] } },
{ "type": "Feature", "properties": { "decimalLatitude": 15.69724, "decimalLongitude": -96.622732, "eventDate": "2019-09-25T02:59:00Z", "countryCode": "MX" }, "geometry": { "type": "Point", "coordinates": [ -96.622732, 15.69724 ] } },
{ "type": "Feature", "properties": { "decimalLatitude": 19.086804, "decimalLongitude": -104.303152, "eventDate": "2019-09-08T11:14:00Z", "countryCode": "MX" }, "geometry": { "type": "Point", "coordinates": [ -104.303152, 19.086804 ] } },
{ "type": "Feature", "properties": { "decimalLatitude": 11.995231, "decimalLongitude": -86.338719, "eventDate": "2019-09-04T00:00:00Z", "countryCode": "NI" }, "geometry": { "type": "Point", "coordinates": [ -86.338719, 11.995231 ] } },
{ "type": "Feature", "properties": { "decimalLatitude": 23.299446, "decimalLongitude": -106.441771, "eventDate": "2019-09-16T13:07:00Z", "countryCode": "MX" }, "geometry": { "type": "Point", "coordinates": [ -106.441771, 23.299446 ] } },
{ "type": "Feature", "properties": { "decimalLatitude": 23.299, "decimalLongitude": -106.443, "eventDate": "2019-09-11T15:06:00Z", "countryCode": "MX" }, "geometry": { "type": "Point", "coordinates": [ -106.443, 23.299 ] } },
{ "type": "Feature", "properties": { "decimalLatitude": 11.995231, "decimalLongitude": -86.338719, "eventDate": "2019-09-03T00:00:00Z", "countryCode": "NI" }, "geometry": { "type": "Point", "coordinates": [ -86.338719, 11.995231 ] } },
{ "type": "Feature", "properties": { "decimalLatitude": 23.299308, "decimalLongitude": -106.441643, "eventDate": "2019-09-11T19:12:00Z", "countryCode": "MX" }, "geometry": { "type": "Point", "coordinates": [ -106.441643, 23.299308 ] } },
{ "type": "Feature", "properties": { "decimalLatitude": 21.200329, "decimalLongitude": -86.821804, "eventDate": "2019-09-18T09:45:30Z", "countryCode": "MX" }, "geometry": { "type": "Point", "coordinates": [ -86.821804, 21.200329 ] } },
{ "type": "Feature", "properties": { "decimalLatitude": 21.200276, "decimalLongitude": -86.821848, "eventDate": "2019-09-18T09:45:30Z", "countryCode": "MX" }, "geometry": { "type": "Point", "coordinates": [ -86.821848, 21.200276 ] } },
{ "type": "Feature", "properties": { "decimalLatitude": 23.299, "decimalLongitude": -106.443, "eventDate": "2019-10-08T11:05:00Z", "countryCode": "MX" }, "geometry": { "type": "Point", "coordinates": [ -106.443, 23.299 ] } },
{ "type": "Feature", "properties": { "decimalLatitude": 23.299, "decimalLongitude": -106.443, "eventDate": "2019-10-15T08:22:00Z", "countryCode": "MX" }, "geometry": { "type": "Point", "coordinates": [ -106.443, 23.299 ] } },
{ "type": "Feature", "properties": { "decimalLatitude": 20.882867, "decimalLongitude": -86.864988, "eventDate": "2019-10-17T15:00:21Z", "countryCode": "MX" }, "geometry": { "type": "Point", "coordinates": [ -86.864988, 20.882867 ] } },
{ "type": "Feature", "properties": { "decimalLatitude": 23.299, "decimalLongitude": -106.443, "eventDate": "2019-10-31T09:52:00Z", "countryCode": "MX" }, "geometry": { "type": "Point", "coordinates": [ -106.443, 23.299 ] } },
{ "type": "Feature", "properties": { "decimalLatitude": 15.78, "decimalLongitude": -96.16, "eventDate": "2019-10-17T12:27:00Z", "countryCode": "MX" }, "geometry": { "type": "Point", "coordinates": [ -96.16, 15.78 ] } },
{ "type": "Feature", "properties": { "decimalLatitude": 23.299, "decimalLongitude": -106.443, "eventDate": "2019-11-07T09:09:00Z", "countryCode": "MX" }, "geometry": { "type": "Point", "coordinates": [ -106.443, 23.299 ] } },
{ "type": "Feature", "properties": { "decimalLatitude": 21.158624, "decimalLongitude": -86.82724, "eventDate": "2019-11-11T15:15:41Z", "countryCode": "MX" }, "geometry": { "type": "Point", "coordinates": [ -86.82724, 21.158624 ] } },
{ "type": "Feature", "properties": { "decimalLatitude": 21.179843, "decimalLongitude": -89.977119, "eventDate": "2019-11-10T10:23:00Z", "countryCode": "MX" }, "geometry": { "type": "Point", "coordinates": [ -89.977119, 21.179843 ] } },
{ "type": "Feature", "properties": { "decimalLatitude": 23.301077, "decimalLongitude": -106.442946, "eventDate": "2019-11-18T12:50:00Z", "countryCode": "MX" }, "geometry": { "type": "Point", "coordinates": [ -106.442946, 23.301077 ] } },
{ "type": "Feature", "properties": { "decimalLatitude": 22.629955, "decimalLongitude": -105.607296, "eventDate": "2019-11-20T08:46:01Z", "countryCode": "MX" }, "geometry": { "type": "Point", "coordinates": [ -105.607296, 22.629955 ] } },
{ "type": "Feature", "properties": { "decimalLatitude": 23.299, "decimalLongitude": -106.443, "eventDate": "2019-12-08T12:13:00Z", "countryCode": "MX" }, "geometry": { "type": "Point", "coordinates": [ -106.443, 23.299 ] } },
{ "type": "Feature", "properties": { "decimalLatitude": 23.299, "decimalLongitude": -106.443, "eventDate": "2019-12-13T13:49:00Z", "countryCode": "MX" }, "geometry": { "type": "Point", "coordinates": [ -106.443, 23.299 ] } },
{ "type": "Feature", "properties": { "decimalLatitude": 16.089045, "decimalLongitude": -97.062855, "eventDate": "2020-01-12T09:05:00Z", "countryCode": "MX" }, "geometry": { "type": "Point", "coordinates": [ -97.062855, 16.089045 ] } },
{ "type": "Feature", "properties": { "decimalLatitude": 25.174598, "decimalLongitude": -80.365251, "eventDate": "2020-01-31T00:00:00Z", "countryCode": "US" }, "geometry": { "type": "Point", "coordinates": [ -80.365251, 25.174598 ] } },
{ "type": "Feature", "properties": { "decimalLatitude": 23.299, "decimalLongitude": -106.443, "eventDate": "2020-02-02T10:43:00Z", "countryCode": "MX" }, "geometry": { "type": "Point", "coordinates": [ -106.443, 23.299 ] } },
{ "type": "Feature", "properties": { "decimalLatitude": 17.537838, "decimalLongitude": -101.441925, "eventDate": "2020-02-15T08:43:21Z", "countryCode": "MX" }, "geometry": { "type": "Point", "coordinates": [ -101.441925, 17.537838 ] } },
{ "type": "Feature", "properties": { "decimalLatitude": 20.2151, "decimalLongitude": -87.459319, "eventDate": "2020-02-15T10:28:32Z", "countryCode": "MX" }, "geometry": { "type": "Point", "coordinates": [ -87.459319, 20.2151 ] } },
{ "type": "Feature", "properties": { "decimalLatitude": 23.299532, "decimalLongitude": -106.443594, "eventDate": "2020-03-10T09:20:19Z", "countryCode": "MX" }, "geometry": { "type": "Point", "coordinates": [ -106.443594, 23.299532 ] } },
{ "type": "Feature", "properties": { "decimalLatitude": 23.299, "decimalLongitude": -106.443, "eventDate": "2020-03-10T10:14:00Z", "countryCode": "MX" }, "geometry": { "type": "Point", "coordinates": [ -106.443, 23.299 ] } },
{ "type": "Feature", "properties": { "decimalLatitude": 10.677138, "decimalLongitude": -61.411457, "eventDate": "2020-03-28T11:56:37Z", "countryCode": "TT" }, "geometry": { "type": "Point", "coordinates": [ -61.411457, 10.677138 ] } },
{ "type": "Feature", "properties": { "decimalLatitude": 15.691288, "decimalLongitude": -96.622582, "eventDate": "2020-03-24T14:54:00Z", "countryCode": "MX" }, "geometry": { "type": "Point", "coordinates": [ -96.622582, 15.691288 ] } },
{ "type": "Feature", "properties": { "decimalLatitude": 17.536062, "decimalLongitude": -101.440266, "eventDate": "2020-04-27T00:00:00Z", "countryCode": "MX" }, "geometry": { "type": "Point", "coordinates": [ -101.440266, 17.536062 ] } },
{ "type": "Feature", "properties": { "decimalLatitude": 10.95644, "decimalLongitude": -85.26611, "eventDate": "2020-04-17T00:00:00Z", "countryCode": "CR" }, "geometry": { "type": "Point", "coordinates": [ -85.26611, 10.95644 ] } },
{ "type": "Feature", "properties": { "decimalLatitude": 10.95644, "decimalLongitude": -85.26611, "eventDate": "2020-04-19T00:00:00Z", "countryCode": "CR" }, "geometry": { "type": "Point", "coordinates": [ -85.26611, 10.95644 ] } },
{ "type": "Feature", "properties": { "decimalLatitude": 10.95644, "decimalLongitude": -85.26611, "eventDate": "2020-04-20T00:00:00Z", "countryCode": "CR" }, "geometry": { "type": "Point", "coordinates": [ -85.26611, 10.95644 ] } },
{ "type": "Feature", "properties": { "decimalLatitude": 10.95644, "decimalLongitude": -85.26611, "eventDate": "2020-04-18T00:00:00Z", "countryCode": "CR" }, "geometry": { "type": "Point", "coordinates": [ -85.26611, 10.95644 ] } },
{ "type": "Feature", "properties": { "decimalLatitude": 15.78, "decimalLongitude": -96.158333, "eventDate": "2020-05-12T13:28:27Z", "countryCode": "MX" }, "geometry": { "type": "Point", "coordinates": [ -96.158333, 15.78 ] } },
{ "type": "Feature", "properties": { "decimalLatitude": 23.29943, "decimalLongitude": -106.443445, "eventDate": "2020-06-22T06:22:17Z", "countryCode": "MX" }, "geometry": { "type": "Point", "coordinates": [ -106.443445, 23.29943 ] } },
{ "type": "Feature", "properties": { "decimalLatitude": 15.699167, "decimalLongitude": -96.624167, "eventDate": "2020-07-30T13:18:03Z", "countryCode": "MX" }, "geometry": { "type": "Point", "coordinates": [ -96.624167, 15.699167 ] } },
{ "type": "Feature", "properties": { "decimalLatitude": 23.299, "decimalLongitude": -106.443, "eventDate": "2020-08-02T08:26:00Z", "countryCode": "MX" }, "geometry": { "type": "Point", "coordinates": [ -106.443, 23.299 ] } },
{ "type": "Feature", "properties": { "decimalLatitude": 19.316597, "decimalLongitude": -96.965713, "eventDate": "2020-08-26T10:57:15Z", "countryCode": "MX" }, "geometry": { "type": "Point", "coordinates": [ -96.965713, 19.316597 ] } },
{ "type": "Feature", "properties": { "decimalLatitude": 10.99102, "decimalLongitude": -85.39539, "eventDate": "2020-08-12T00:00:00Z", "countryCode": "CR" }, "geometry": { "type": "Point", "coordinates": [ -85.39539, 10.99102 ] } },
{ "type": "Feature", "properties": { "decimalLatitude": 23.299, "decimalLongitude": -106.443, "eventDate": "2020-09-01T11:34:00Z", "countryCode": "MX" }, "geometry": { "type": "Point", "coordinates": [ -106.443, 23.299 ] } },
{ "type": "Feature", "properties": { "decimalLatitude": 23.299362, "decimalLongitude": -106.443253, "eventDate": "2020-09-09T09:22:39Z", "countryCode": "MX" }, "geometry": { "type": "Point", "coordinates": [ -106.443253, 23.299362 ] } },
{ "type": "Feature", "properties": { "decimalLatitude": -15.883573, "decimalLongitude": -47.764061, "eventDate": "2020-09-28T17:05:00Z", "countryCode": "BR" }, "geometry": { "type": "Point", "coordinates": [ -47.764061, -15.883573 ] } },
{ "type": "Feature", "properties": { "decimalLatitude": 23.299, "decimalLongitude": -106.443, "eventDate": "2020-10-07T08:58:00Z", "countryCode": "MX" }, "geometry": { "type": "Point", "coordinates": [ -106.443, 23.299 ] } },
{ "type": "Feature", "properties": { "decimalLatitude": 23.588929, "decimalLongitude": -106.541389, "eventDate": "2020-10-16T08:30:10Z", "countryCode": "MX" }, "geometry": { "type": "Point", "coordinates": [ -106.541389, 23.588929 ] } },
{ "type": "Feature", "properties": { "decimalLatitude": 10.99102, "decimalLongitude": -85.39539, "eventDate": "2020-10-20T00:00:00Z", "countryCode": "CR" }, "geometry": { "type": "Point", "coordinates": [ -85.39539, 10.99102 ] } },
{ "type": "Feature", "properties": { "decimalLatitude": 10.99102, "decimalLongitude": -85.39539, "eventDate": "2020-10-26T00:00:00Z", "countryCode": "CR" }, "geometry": { "type": "Point", "coordinates": [ -85.39539, 10.99102 ] } },
{ "type": "Feature", "properties": { "decimalLatitude": 10.99102, "decimalLongitude": -85.39539, "eventDate": "2020-10-20T00:00:00Z", "countryCode": "CR" }, "geometry": { "type": "Point", "coordinates": [ -85.39539, 10.99102 ] } },
{ "type": "Feature", "properties": { "decimalLatitude": 19.343657, "decimalLongitude": -96.464178, "eventDate": "2020-11-20T12:33:14Z", "countryCode": "MX" }, "geometry": { "type": "Point", "coordinates": [ -96.464178, 19.343657 ] } },
{ "type": "Feature", "properties": { "decimalLatitude": 10.99102, "decimalLongitude": -85.39539, "eventDate": "2020-11-12T00:00:00Z", "countryCode": "CR" }, "geometry": { "type": "Point", "coordinates": [ -85.39539, 10.99102 ] } },
{ "type": "Feature", "properties": { "decimalLatitude": 10.95644, "decimalLongitude": -85.26611, "eventDate": "2020-11-04T00:00:00Z", "countryCode": "CR" }, "geometry": { "type": "Point", "coordinates": [ -85.26611, 10.95644 ] } },
{ "type": "Feature", "properties": { "decimalLatitude": 10.95644, "decimalLongitude": -85.26611, "eventDate": "2020-11-04T00:00:00Z", "countryCode": "CR" }, "geometry": { "type": "Point", "coordinates": [ -85.26611, 10.95644 ] } },
{ "type": "Feature", "properties": { "decimalLatitude": 10.95644, "decimalLongitude": -85.26611, "eventDate": "2020-11-04T00:00:00Z", "countryCode": "CR" }, "geometry": { "type": "Point", "coordinates": [ -85.26611, 10.95644 ] } },
{ "type": "Feature", "properties": { "decimalLatitude": 13.679697, "decimalLongitude": -89.309271, "eventDate": "2021-01-24T10:35:00Z", "countryCode": "SV" }, "geometry": { "type": "Point", "coordinates": [ -89.309271, 13.679697 ] } },
{ "type": "Feature", "properties": { "decimalLatitude": 10.96187, "decimalLongitude": -85.28045, "eventDate": "2021-02-15T00:00:00Z", "countryCode": "CR" }, "geometry": { "type": "Point", "coordinates": [ -85.28045, 10.96187 ] } },
{ "type": "Feature", "properties": { "decimalLatitude": 13.880234, "decimalLongitude": -88.943781, "eventDate": "2021-03-09T11:54:40Z", "countryCode": "SV" }, "geometry": { "type": "Point", "coordinates": [ -88.943781, 13.880234 ] } },
{ "type": "Feature", "properties": { "decimalLatitude": 10.88409, "decimalLongitude": -85.25728, "eventDate": "2021-03-01T00:00:00Z", "countryCode": "CR" }, "geometry": { "type": "Point", "coordinates": [ -85.25728, 10.88409 ] } },
{ "type": "Feature", "properties": { "decimalLatitude": 10.85761, "decimalLongitude": -85.24738, "eventDate": "2021-03-09T00:00:00Z", "countryCode": "CR" }, "geometry": { "type": "Point", "coordinates": [ -85.24738, 10.85761 ] } },
{ "type": "Feature", "properties": { "decimalLatitude": 10.88409, "decimalLongitude": -85.25728, "eventDate": "2021-03-01T00:00:00Z", "countryCode": "CR" }, "geometry": { "type": "Point", "coordinates": [ -85.25728, 10.88409 ] } },
{ "type": "Feature", "properties": { "decimalLatitude": 10.88409, "decimalLongitude": -85.25728, "eventDate": "2021-03-01T00:00:00Z", "countryCode": "CR" }, "geometry": { "type": "Point", "coordinates": [ -85.25728, 10.88409 ] } },
{ "type": "Feature", "properties": { "decimalLatitude": 10.85761, "decimalLongitude": -85.24738, "eventDate": "2021-03-27T00:00:00Z", "countryCode": "CR" }, "geometry": { "type": "Point", "coordinates": [ -85.24738, 10.85761 ] } },
{ "type": "Feature", "properties": { "decimalLatitude": -23.781996, "decimalLongitude": -46.386022, "eventDate": "2021-04-17T12:12:16Z", "countryCode": "BR" }, "geometry": { "type": "Point", "coordinates": [ -46.386022, -23.781996 ] } },
{ "type": "Feature", "properties": { "decimalLatitude": 21.198313, "decimalLongitude": -86.822855, "eventDate": "2021-04-07T17:45:00Z", "countryCode": "MX" }, "geometry": { "type": "Point", "coordinates": [ -86.822855, 21.198313 ] } },
{ "type": "Feature", "properties": { "decimalLatitude": 21.198313, "decimalLongitude": -86.822855, "eventDate": "2021-05-04T16:53:00Z", "countryCode": "MX" }, "geometry": { "type": "Point", "coordinates": [ -86.822855, 21.198313 ] } },
{ "type": "Feature", "properties": { "decimalLatitude": 7.09171, "decimalLongitude": -73.38325, "eventDate": "2021-05-02T12:35:00Z", "countryCode": "CO" }, "geometry": { "type": "Point", "coordinates": [ -73.38325, 7.09171 ] } },
{ "type": "Feature", "properties": { "decimalLatitude": 10.95644, "decimalLongitude": -85.26611, "eventDate": "2021-05-28T00:00:00Z", "countryCode": "CR" }, "geometry": { "type": "Point", "coordinates": [ -85.26611, 10.95644 ] } },
{ "type": "Feature", "properties": { "decimalLatitude": 10.9409, "decimalLongitude": -85.3383, "eventDate": "2021-06-16T00:00:00Z", "countryCode": "CR" }, "geometry": { "type": "Point", "coordinates": [ -85.3383, 10.9409 ] } },
{ "type": "Feature", "properties": { "decimalLatitude": 10.95644, "decimalLongitude": -85.26611, "eventDate": "2021-06-23T00:00:00Z", "countryCode": "CR" }, "geometry": { "type": "Point", "coordinates": [ -85.26611, 10.95644 ] } },
{ "type": "Feature", "properties": { "decimalLatitude": 23.299, "decimalLongitude": -106.443, "eventDate": "2021-07-16T08:18:00Z", "countryCode": "MX" }, "geometry": { "type": "Point", "coordinates": [ -106.443, 23.299 ] } },
{ "type": "Feature", "properties": { "decimalLatitude": 10.85761, "decimalLongitude": -85.24738, "eventDate": "2021-07-12T00:00:00Z", "countryCode": "CR" }, "geometry": { "type": "Point", "coordinates": [ -85.24738, 10.85761 ] } },
{ "type": "Feature", "properties": { "decimalLatitude": 10.85761, "decimalLongitude": -85.24738, "eventDate": "2021-07-12T00:00:00Z", "countryCode": "CR" }, "geometry": { "type": "Point", "coordinates": [ -85.24738, 10.85761 ] } },
{ "type": "Feature", "properties": { "decimalLatitude": 23.299, "decimalLongitude": -106.443, "eventDate": "2021-08-15T08:57:00Z", "countryCode": "MX" }, "geometry": { "type": "Point", "coordinates": [ -106.443, 23.299 ] } },
{ "type": "Feature", "properties": { "decimalLatitude": 23.299, "decimalLongitude": -106.443, "eventDate": "2021-08-10T08:58:00Z", "countryCode": "MX" }, "geometry": { "type": "Point", "coordinates": [ -106.443, 23.299 ] } },
{ "type": "Feature", "properties": { "decimalLatitude": 23.29942, "decimalLongitude": -106.443512, "eventDate": "2021-08-04T11:16:21Z", "countryCode": "MX" }, "geometry": { "type": "Point", "coordinates": [ -106.443512, 23.29942 ] } },
{ "type": "Feature", "properties": { "decimalLatitude": 23.299337, "decimalLongitude": -106.443388, "eventDate": "2021-08-29T22:27:03Z", "countryCode": "MX" }, "geometry": { "type": "Point", "coordinates": [ -106.443388, 23.299337 ] } },
{ "type": "Feature", "properties": { "decimalLatitude": 23.299564, "decimalLongitude": -106.443466, "eventDate": "2021-08-12T17:48:00Z", "countryCode": "MX" }, "geometry": { "type": "Point", "coordinates": [ -106.443466, 23.299564 ] } },
{ "type": "Feature", "properties": { "decimalLatitude": 23.196201, "decimalLongitude": -106.417534, "eventDate": "2021-08-20T18:04:01Z", "countryCode": "MX" }, "geometry": { "type": "Point", "coordinates": [ -106.417534, 23.196201 ] } },
{ "type": "Feature", "properties": { "decimalLatitude": 25.791053, "decimalLongitude": -109.003427, "eventDate": "2021-08-19T16:33:00Z", "countryCode": "MX" }, "geometry": { "type": "Point", "coordinates": [ -109.003427, 25.791053 ] } },
{ "type": "Feature", "properties": { "decimalLatitude": 23.299, "decimalLongitude": -106.443, "eventDate": "2021-09-02T08:44:00Z", "countryCode": "MX" }, "geometry": { "type": "Point", "coordinates": [ -106.443, 23.299 ] } },
{ "type": "Feature", "properties": { "decimalLatitude": -15.85659, "decimalLongitude": -47.799105, "eventDate": "2021-09-04T13:35:00Z", "countryCode": "BR" }, "geometry": { "type": "Point", "coordinates": [ -47.799105, -15.85659 ] } },
{ "type": "Feature", "properties": { "decimalLatitude": 23.299, "decimalLongitude": -106.443, "eventDate": "2021-09-12T08:35:00Z", "countryCode": "MX" }, "geometry": { "type": "Point", "coordinates": [ -106.443, 23.299 ] } },
{ "type": "Feature", "properties": { "decimalLatitude": 15.741648, "decimalLongitude": -96.133498, "eventDate": "2021-09-15T09:31:10Z", "countryCode": "MX" }, "geometry": { "type": "Point", "coordinates": [ -96.133498, 15.741648 ] } },
{ "type": "Feature", "properties": { "decimalLatitude": 19.478056, "decimalLongitude": -96.563333, "eventDate": "2021-09-19T10:17:56Z", "countryCode": "MX" }, "geometry": { "type": "Point", "coordinates": [ -96.563333, 19.478056 ] } },
{ "type": "Feature", "properties": { "decimalLatitude": 19.443245, "decimalLongitude": -105.029441, "eventDate": "2021-09-28T10:21:00Z", "countryCode": "MX" }, "geometry": { "type": "Point", "coordinates": [ -105.029441, 19.443245 ] } },
{ "type": "Feature", "properties": { "decimalLatitude": 25.613889, "decimalLongitude": -109.065, "eventDate": "2021-10-23T16:10:11Z", "countryCode": "MX" }, "geometry": { "type": "Point", "coordinates": [ -109.065, 25.613889 ] } },
{ "type": "Feature", "properties": { "decimalLatitude": 1.1021, "decimalLongitude": -76.630663, "eventDate": "2021-10-24T04:26:00Z", "countryCode": "CO" }, "geometry": { "type": "Point", "coordinates": [ -76.630663, 1.1021 ] } },
{ "type": "Feature", "properties": { "decimalLatitude": 19.111295, "decimalLongitude": -104.403797, "eventDate": "2021-10-31T10:09:01Z", "countryCode": "MX" }, "geometry": { "type": "Point", "coordinates": [ -104.403797, 19.111295 ] } },
{ "type": "Feature", "properties": { "decimalLatitude": 23.299, "decimalLongitude": -106.443, "eventDate": "2021-10-23T09:58:00Z", "countryCode": "MX" }, "geometry": { "type": "Point", "coordinates": [ -106.443, 23.299 ] } },
{ "type": "Feature", "properties": { "decimalLatitude": 23.29893, "decimalLongitude": -106.441792, "eventDate": "2021-10-23T13:51:00Z", "countryCode": "MX" }, "geometry": { "type": "Point", "coordinates": [ -106.441792, 23.29893 ] } },
{ "type": "Feature", "properties": { "decimalLatitude": 1.082314, "decimalLongitude": -76.627989, "eventDate": "2021-10-16T11:36:00Z", "countryCode": "CO" }, "geometry": { "type": "Point", "coordinates": [ -76.627989, 1.082314 ] } },
{ "type": "Feature", "properties": { "decimalLatitude": 20.969514, "decimalLongitude": -97.35335, "eventDate": "2021-11-13T12:01:00Z", "countryCode": "MX" }, "geometry": { "type": "Point", "coordinates": [ -97.35335, 20.969514 ] } },
{ "type": "Feature", "properties": { "decimalLatitude": 17.628191, "decimalLongitude": -101.539326, "eventDate": "2021-11-17T08:37:00Z", "countryCode": "MX" }, "geometry": { "type": "Point", "coordinates": [ -101.539326, 17.628191 ] } },
{ "type": "Feature", "properties": { "decimalLatitude": 21.578995, "decimalLongitude": -105.238817, "eventDate": "2021-11-29T09:21:01Z", "countryCode": "MX" }, "geometry": { "type": "Point", "coordinates": [ -105.238817, 21.578995 ] } },
{ "type": "Feature", "properties": { "decimalLatitude": 16.050503, "decimalLongitude": -97.63636, "eventDate": "2021-11-27T09:35:00Z", "countryCode": "MX" }, "geometry": { "type": "Point", "coordinates": [ -97.63636, 16.050503 ] } },
{ "type": "Feature", "properties": { "decimalLatitude": -12.909463, "decimalLongitude": -71.429493, "eventDate": "2021-11-17T13:07:00Z", "countryCode": "PE" }, "geometry": { "type": "Point", "coordinates": [ -71.429493, -12.909463 ] } },
{ "type": "Feature", "properties": { "decimalLatitude": 21.347717, "decimalLongitude": -105.244652, "eventDate": "2021-12-15T22:50:35Z", "countryCode": "MX" }, "geometry": { "type": "Point", "coordinates": [ -105.244652, 21.347717 ] } },
{ "type": "Feature", "properties": { "decimalLatitude": 19.44812, "decimalLongitude": -104.94022, "eventDate": "2021-12-27T14:43:00Z", "countryCode": "MX" }, "geometry": { "type": "Point", "coordinates": [ -104.94022, 19.44812 ] } },
{ "type": "Feature", "properties": { "decimalLatitude": 6.0494, "decimalLongitude": -74.2617, "eventDate": "2022-01-20T07:19:00Z", "countryCode": "CO" }, "geometry": { "type": "Point", "coordinates": [ -74.2617, 6.0494 ] } },
{ "type": "Feature", "properties": { "decimalLatitude": 24.624555, "decimalLongitude": -107.465065, "eventDate": "2022-02-05T12:04:00Z", "countryCode": "MX" }, "geometry": { "type": "Point", "coordinates": [ -107.465065, 24.624555 ] } },
{ "type": "Feature", "properties": { "decimalLatitude": 21.563849, "decimalLongitude": -88.081932, "eventDate": "2022-02-09T14:39:00Z", "countryCode": "MX" }, "geometry": { "type": "Point", "coordinates": [ -88.081932, 21.563849 ] } },
{ "type": "Feature", "properties": { "decimalLatitude": 10.76387, "decimalLongitude": -85.3784, "eventDate": "2022-02-10T00:00:00Z", "countryCode": "CR" }, "geometry": { "type": "Point", "coordinates": [ -85.3784, 10.76387 ] } },
{ "type": "Feature", "properties": { "decimalLatitude": 10.85761, "decimalLongitude": -85.24738, "eventDate": "2022-02-04T00:00:00Z", "countryCode": "CR" }, "geometry": { "type": "Point", "coordinates": [ -85.24738, 10.85761 ] } },
{ "type": "Feature", "properties": { "decimalLatitude": 10.85761, "decimalLongitude": -85.24738, "eventDate": "2022-02-03T00:00:00Z", "countryCode": "CR" }, "geometry": { "type": "Point", "coordinates": [ -85.24738, 10.85761 ] } },
{ "type": "Feature", "properties": { "decimalLatitude": 10.85761, "decimalLongitude": -85.24738, "eventDate": "2022-02-18T00:00:00Z", "countryCode": "CR" }, "geometry": { "type": "Point", "coordinates": [ -85.24738, 10.85761 ] } },
{ "type": "Feature", "properties": { "decimalLatitude": 23.299345, "decimalLongitude": -106.443337, "eventDate": "2022-03-05T16:55:37Z", "countryCode": "MX" }, "geometry": { "type": "Point", "coordinates": [ -106.443337, 23.299345 ] } },
{ "type": "Feature", "properties": { "decimalLatitude": 15.742428, "decimalLongitude": -96.149403, "eventDate": "2022-03-26T09:34:00Z", "countryCode": "MX" }, "geometry": { "type": "Point", "coordinates": [ -96.149403, 15.742428 ] } },
{ "type": "Feature", "properties": { "decimalLatitude": 10.76387, "decimalLongitude": -85.3784, "eventDate": "2022-03-04T00:00:00Z", "countryCode": "CR" }, "geometry": { "type": "Point", "coordinates": [ -85.3784, 10.76387 ] } },
{ "type": "Feature", "properties": { "decimalLatitude": 24.573197, "decimalLongitude": -81.74871, "eventDate": "2022-04-24T00:00:00Z", "countryCode": "US" }, "geometry": { "type": "Point", "coordinates": [ -81.74871, 24.573197 ] } },
{ "type": "Feature", "properties": { "decimalLatitude": 11.01227, "decimalLongitude": -85.34929, "eventDate": "2022-06-23T00:00:00Z", "countryCode": "CR" }, "geometry": { "type": "Point", "coordinates": [ -85.34929, 11.01227 ] } },
{ "type": "Feature", "properties": { "decimalLatitude": 20.547925, "decimalLongitude": -97.084798, "eventDate": "2022-07-31T23:49:00Z", "countryCode": "MX" }, "geometry": { "type": "Point", "coordinates": [ -97.084798, 20.547925 ] } },
{ "type": "Feature", "properties": { "decimalLatitude": 21.138636, "decimalLongitude": -86.814129, "eventDate": "2022-07-19T16:44:00Z", "countryCode": "MX" }, "geometry": { "type": "Point", "coordinates": [ -86.814129, 21.138636 ] } },
{ "type": "Feature", "properties": { "decimalLatitude": 10.85761, "decimalLongitude": -85.24738, "eventDate": "2022-07-16T00:00:00Z", "countryCode": "CR" }, "geometry": { "type": "Point", "coordinates": [ -85.24738, 10.85761 ] } },
{ "type": "Feature", "properties": { "decimalLatitude": 10.90528, "decimalLongitude": -85.27882, "eventDate": "2022-07-11T00:00:00Z", "countryCode": "CR" }, "geometry": { "type": "Point", "coordinates": [ -85.27882, 10.90528 ] } },
{ "type": "Feature", "properties": { "decimalLatitude": 19.286472, "decimalLongitude": -104.785828, "eventDate": "2022-08-15T17:45:50Z", "countryCode": "MX" }, "geometry": { "type": "Point", "coordinates": [ -104.785828, 19.286472 ] } },
{ "type": "Feature", "properties": { "decimalLatitude": 20.952959, "decimalLongitude": -97.325128, "eventDate": "2022-08-04T22:02:00Z", "countryCode": "MX" }, "geometry": { "type": "Point", "coordinates": [ -97.325128, 20.952959 ] } },
{ "type": "Feature", "properties": { "decimalLatitude": 10.85761, "decimalLongitude": -85.24738, "eventDate": "2022-08-13T00:00:00Z", "countryCode": "CR" }, "geometry": { "type": "Point", "coordinates": [ -85.24738, 10.85761 ] } },
{ "type": "Feature", "properties": { "decimalLatitude": 23.299, "decimalLongitude": -106.443, "eventDate": "2022-09-11T09:09:00Z", "countryCode": "MX" }, "geometry": { "type": "Point", "coordinates": [ -106.443, 23.299 ] } },
{ "type": "Feature", "properties": { "decimalLatitude": 23.299388, "decimalLongitude": -106.443537, "eventDate": "2022-09-11T08:30:00Z", "countryCode": "MX" }, "geometry": { "type": "Point", "coordinates": [ -106.443537, 23.299388 ] } },
{ "type": "Feature", "properties": { "decimalLatitude": 23.299, "decimalLongitude": -106.443, "eventDate": "2022-09-22T08:57:00Z", "countryCode": "MX" }, "geometry": { "type": "Point", "coordinates": [ -106.443, 23.299 ] } },
{ "type": "Feature", "properties": { "decimalLatitude": 19.479169, "decimalLongitude": -88.054845, "eventDate": "2022-09-27T08:11:00Z", "countryCode": "MX" }, "geometry": { "type": "Point", "coordinates": [ -88.054845, 19.479169 ] } },
{ "type": "Feature", "properties": { "decimalLatitude": 20.951957, "decimalLongitude": -97.325727, "eventDate": "2022-10-03T11:06:23Z", "countryCode": "MX" }, "geometry": { "type": "Point", "coordinates": [ -97.325727, 20.951957 ] } },
{ "type": "Feature", "properties": { "decimalLatitude": 23.299172, "decimalLongitude": -106.44348, "eventDate": "2022-10-10T10:30:00Z", "countryCode": "MX" }, "geometry": { "type": "Point", "coordinates": [ -106.44348, 23.299172 ] } },
{ "type": "Feature", "properties": { "decimalLatitude": 19.670751, "decimalLongitude": -96.415891, "eventDate": "2022-10-18T10:23:04Z", "countryCode": "MX" }, "geometry": { "type": "Point", "coordinates": [ -96.415891, 19.670751 ] } },
{ "type": "Feature", "properties": { "decimalLatitude": 27.853075, "decimalLongitude": -80.451683, "eventDate": "2022-10-26T00:00:00Z", "countryCode": "US" }, "geometry": { "type": "Point", "coordinates": [ -80.451683, 27.853075 ] } },
{ "type": "Feature", "properties": { "decimalLatitude": 25.687955, "decimalLongitude": -107.061599, "eventDate": "2022-10-30T10:24:00Z", "countryCode": "MX" }, "geometry": { "type": "Point", "coordinates": [ -107.061599, 25.687955 ] } },
{ "type": "Feature", "properties": { "decimalLatitude": 3.88057, "decimalLongitude": -67.881139, "eventDate": "2022-11-17T07:26:00Z", "countryCode": "CO" }, "geometry": { "type": "Point", "coordinates": [ -67.881139, 3.88057 ] } },
{ "type": "Feature", "properties": { "decimalLatitude": 20.954156, "decimalLongitude": -97.322429, "eventDate": "2022-11-08T00:13:00Z", "countryCode": "MX" }, "geometry": { "type": "Point", "coordinates": [ -97.322429, 20.954156 ] } },
{ "type": "Feature", "properties": { "decimalLatitude": 20.858101, "decimalLongitude": -105.448289, "eventDate": "2022-12-16T11:38:00Z", "countryCode": "MX" }, "geometry": { "type": "Point", "coordinates": [ -105.448289, 20.858101 ] } },
{ "type": "Feature", "properties": { "decimalLatitude": 20.858099, "decimalLongitude": -105.448295, "eventDate": "2022-12-16T12:09:00Z", "countryCode": "MX" }, "geometry": { "type": "Point", "coordinates": [ -105.448295, 20.858099 ] } },
{ "type": "Feature", "properties": { "decimalLatitude": 20.8581, "decimalLongitude": -105.448294, "eventDate": "2022-12-16T12:41:00Z", "countryCode": "MX" }, "geometry": { "type": "Point", "coordinates": [ -105.448294, 20.8581 ] } },
{ "type": "Feature", "properties": { "decimalLatitude": 10.85761, "decimalLongitude": -85.24738, "eventDate": "2022-12-28T00:00:00Z", "countryCode": "CR" }, "geometry": { "type": "Point", "coordinates": [ -85.24738, 10.85761 ] } },
{ "type": "Feature", "properties": { "decimalLatitude": 10.85761, "decimalLongitude": -85.24738, "eventDate": "2022-12-25T00:00:00Z", "countryCode": "CR" }, "geometry": { "type": "Point", "coordinates": [ -85.24738, 10.85761 ] } },
{ "type": "Feature", "properties": { "decimalLatitude": 19.865316, "decimalLongitude": -90.496622, "eventDate": "2023-01-18T15:38:58Z", "countryCode": "MX" }, "geometry": { "type": "Point", "coordinates": [ -90.496622, 19.865316 ] } },
{ "type": "Feature", "properties": { "decimalLatitude": 27.209046, "decimalLongitude": -80.187765, "eventDate": "2023-01-08T00:00:00Z", "countryCode": "US" }, "geometry": { "type": "Point", "coordinates": [ -80.187765, 27.209046 ] } },
{ "type": "Feature", "properties": { "decimalLatitude": 20.970581, "decimalLongitude": -97.353678, "eventDate": "2023-01-29T00:40:00Z", "countryCode": "MX" }, "geometry": { "type": "Point", "coordinates": [ -97.353678, 20.970581 ] } },
{ "type": "Feature", "properties": { "decimalLatitude": 9.255506, "decimalLongitude": -82.145374, "eventDate": "2023-02-04T11:51:29Z", "countryCode": "PA" }, "geometry": { "type": "Point", "coordinates": [ -82.145374, 9.255506 ] } },
{ "type": "Feature", "properties": { "decimalLatitude": 9.255476, "decimalLongitude": -82.145413, "eventDate": "2023-02-13T13:45:45Z", "countryCode": "PA" }, "geometry": { "type": "Point", "coordinates": [ -82.145413, 9.255476 ] } },
{ "type": "Feature", "properties": { "decimalLatitude": 20.285644, "decimalLongitude": -87.377039, "eventDate": "2023-02-27T10:49:56Z", "countryCode": "MX" }, "geometry": { "type": "Point", "coordinates": [ -87.377039, 20.285644 ] } },
{ "type": "Feature", "properties": { "decimalLatitude": 20.940204, "decimalLongitude": -86.83831, "eventDate": "2023-02-01T10:39:15Z", "countryCode": "MX" }, "geometry": { "type": "Point", "coordinates": [ -86.83831, 20.940204 ] } },
{ "type": "Feature", "properties": { "decimalLatitude": 21.536036, "decimalLongitude": -105.286724, "eventDate": "2023-02-27T06:49:00Z", "countryCode": "MX" }, "geometry": { "type": "Point", "coordinates": [ -105.286724, 21.536036 ] } },
{ "type": "Feature", "properties": { "decimalLatitude": 21.536372, "decimalLongitude": -105.286606, "eventDate": "2023-02-27T00:00:00Z", "countryCode": "MX" }, "geometry": { "type": "Point", "coordinates": [ -105.286606, 21.536372 ] } },
{ "type": "Feature", "properties": { "decimalLatitude": 15.795569, "decimalLongitude": -92.542741, "eventDate": "2023-03-13T20:38:00Z", "countryCode": "MX" }, "geometry": { "type": "Point", "coordinates": [ -92.542741, 15.795569 ] } },
{ "type": "Feature", "properties": { "decimalLatitude": 18.952286, "decimalLongitude": -101.892753, "eventDate": "2023-03-29T12:10:00Z", "countryCode": "MX" }, "geometry": { "type": "Point", "coordinates": [ -101.892753, 18.952286 ] } },
{ "type": "Feature", "properties": { "decimalLatitude": 23.195266, "decimalLongitude": -106.425618, "eventDate": "2023-04-15T00:00:00Z", "countryCode": "MX" }, "geometry": { "type": "Point", "coordinates": [ -106.425618, 23.195266 ] } },
{ "type": "Feature", "properties": { "decimalLatitude": 5.189837, "decimalLongitude": -75.995061, "eventDate": "2023-04-25T00:00:00Z", "countryCode": "CO" }, "geometry": { "type": "Point", "coordinates": [ -75.995061, 5.189837 ] } },
{ "type": "Feature", "properties": { "decimalLatitude": -21.627199, "decimalLongitude": -42.178833, "eventDate": "2023-06-29T09:21:03Z", "countryCode": "BR" }, "geometry": { "type": "Point", "coordinates": [ -42.178833, -21.627199 ] } },
{ "type": "Feature", "properties": { "decimalLatitude": 6.304024, "decimalLongitude": -75.587471, "eventDate": "2023-07-28T11:06:00Z", "countryCode": "CO" }, "geometry": { "type": "Point", "coordinates": [ -75.587471, 6.304024 ] } },
{ "type": "Feature", "properties": { "decimalLatitude": 11.482146, "decimalLongitude": -86.152044, "eventDate": "2023-08-08T07:16:00Z", "countryCode": "NI" }, "geometry": { "type": "Point", "coordinates": [ -86.152044, 11.482146 ] } },
{ "type": "Feature", "properties": { "decimalLatitude": 11.481718, "decimalLongitude": -86.150224, "eventDate": "2023-08-08T07:15:00Z", "countryCode": "NI" }, "geometry": { "type": "Point", "coordinates": [ -86.150224, 11.481718 ] } },
{ "type": "Feature", "properties": { "decimalLatitude": 5.140027, "decimalLongitude": -76.106873, "eventDate": "2023-08-19T08:55:00Z", "countryCode": "CO" }, "geometry": { "type": "Point", "coordinates": [ -76.106873, 5.140027 ] } },
{ "type": "Feature", "properties": { "decimalLatitude": 5.234722, "decimalLongitude": -76.089722, "eventDate": "2023-08-19T09:35:00Z", "countryCode": "CO" }, "geometry": { "type": "Point", "coordinates": [ -76.089722, 5.234722 ] } },
{ "type": "Feature", "properties": { "decimalLatitude": 21.198228, "decimalLongitude": -86.822827, "eventDate": "2023-08-28T14:16:00Z", "countryCode": "MX" }, "geometry": { "type": "Point", "coordinates": [ -86.822827, 21.198228 ] } },
{ "type": "Feature", "properties": { "decimalLatitude": 4.207222, "decimalLongitude": -73.793611, "eventDate": "2023-09-07T09:47:00Z", "countryCode": "CO" }, "geometry": { "type": "Point", "coordinates": [ -73.793611, 4.207222 ] } },
{ "type": "Feature", "properties": { "decimalLatitude": 10.306688, "decimalLongitude": -84.807441, "eventDate": "2023-09-07T09:14:01Z", "countryCode": "CR" }, "geometry": { "type": "Point", "coordinates": [ -84.807441, 10.306688 ] } },
{ "type": "Feature", "properties": { "decimalLatitude": 13.995722, "decimalLongitude": -86.989495, "eventDate": "2023-09-27T09:12:00Z", "countryCode": "HN" }, "geometry": { "type": "Point", "coordinates": [ -86.989495, 13.995722 ] } },
{ "type": "Feature", "properties": { "decimalLatitude": 23.299484, "decimalLongitude": -106.443588, "eventDate": "2023-09-26T08:49:22Z", "countryCode": "MX" }, "geometry": { "type": "Point", "coordinates": [ -106.443588, 23.299484 ] } },
{ "type": "Feature", "properties": { "decimalLatitude": 15.769623, "decimalLongitude": -96.194378, "eventDate": "2023-10-18T08:11:00Z", "countryCode": "MX" }, "geometry": { "type": "Point", "coordinates": [ -96.194378, 15.769623 ] } },
{ "type": "Feature", "properties": { "decimalLatitude": 15.769606, "decimalLongitude": -96.194374, "eventDate": "2023-10-18T08:04:00Z", "countryCode": "MX" }, "geometry": { "type": "Point", "coordinates": [ -96.194374, 15.769606 ] } },
{ "type": "Feature", "properties": { "decimalLatitude": 23.299675, "decimalLongitude": -106.443345, "eventDate": "2023-10-11T10:53:39Z", "countryCode": "MX" }, "geometry": { "type": "Point", "coordinates": [ -106.443345, 23.299675 ] } },
{ "type": "Feature", "properties": { "decimalLatitude": 10.438742, "decimalLongitude": -85.789658, "eventDate": "2023-11-09T10:22:34Z", "countryCode": "CR" }, "geometry": { "type": "Point", "coordinates": [ -85.789658, 10.438742 ] } },
{ "type": "Feature", "properties": { "decimalLatitude": 20.152131, "decimalLongitude": -87.457838, "eventDate": "2023-11-10T14:54:09Z", "countryCode": "MX" }, "geometry": { "type": "Point", "coordinates": [ -87.457838, 20.152131 ] } },
{ "type": "Feature", "properties": { "decimalLatitude": 23.299, "decimalLongitude": -106.443, "eventDate": "2023-11-20T08:54:00Z", "countryCode": "MX" }, "geometry": { "type": "Point", "coordinates": [ -106.443, 23.299 ] } },
{ "type": "Feature", "properties": { "decimalLatitude": 20.59612, "decimalLongitude": -105.236855, "eventDate": "2023-11-30T14:26:00Z", "countryCode": "MX" }, "geometry": { "type": "Point", "coordinates": [ -105.236855, 20.59612 ] } },
{ "type": "Feature", "properties": { "decimalLatitude": 21.540806, "decimalLongitude": -105.288397, "eventDate": "2024-01-09T12:56:00Z", "countryCode": "MX" }, "geometry": { "type": "Point", "coordinates": [ -105.288397, 21.540806 ] } },
{ "type": "Feature", "properties": { "decimalLatitude": 20.465318, "decimalLongitude": -105.292002, "eventDate": "2024-01-12T12:57:00Z", "countryCode": "MX" }, "geometry": { "type": "Point", "coordinates": [ -105.292002, 20.465318 ] } },
{ "type": "Feature", "properties": { "decimalLatitude": 28.675049, "decimalLongitude": -80.762695, "eventDate": "2024-03-20T00:00:00Z", "countryCode": "US" }, "geometry": { "type": "Point", "coordinates": [ -80.762695, 28.675049 ] } },
{ "type": "Feature", "properties": { "decimalLatitude": 24.573176, "decimalLongitude": -81.748672, "eventDate": "2024-03-25T00:00:00Z", "countryCode": "US" }, "geometry": { "type": "Point", "coordinates": [ -81.748672, 24.573176 ] } },
{ "type": "Feature", "properties": { "decimalLatitude": 20.665005, "decimalLongitude": -105.244193, "eventDate": "2024-03-21T15:32:00Z", "countryCode": "MX" }, "geometry": { "type": "Point", "coordinates": [ -105.244193, 20.665005 ] } },
{ "type": "Feature", "properties": { "decimalLatitude": -0.396197, "decimalLongitude": -76.124655, "eventDate": "2024-03-14T10:17:56Z", "countryCode": "EC" }, "geometry": { "type": "Point", "coordinates": [ -76.124655, -0.396197 ] } },
{ "type": "Feature", "properties": { "decimalLatitude": 24.241589, "decimalLongitude": -107.330735, "eventDate": "2024-04-22T12:35:00Z", "countryCode": "MX" }, "geometry": { "type": "Point", "coordinates": [ -107.330735, 24.241589 ] } },
{ "type": "Feature", "properties": { "decimalLatitude": 27.622679, "decimalLongitude": -82.713753, "eventDate": "2024-04-19T00:00:00Z", "countryCode": "US" }, "geometry": { "type": "Point", "coordinates": [ -82.713753, 27.622679 ] } },
{ "type": "Feature", "properties": { "decimalLatitude": 19.189075, "decimalLongitude": -104.353673, "eventDate": "2024-05-02T12:31:00Z", "countryCode": "MX" }, "geometry": { "type": "Point", "coordinates": [ -104.353673, 19.189075 ] } },
{ "type": "Feature", "properties": { "decimalLatitude": 20.90176, "decimalLongitude": -105.41232, "eventDate": "2024-05-14T10:11:22Z", "countryCode": "MX" }, "geometry": { "type": "Point", "coordinates": [ -105.41232, 20.90176 ] } },
{ "type": "Feature", "properties": { "decimalLatitude": 20.315327, "decimalLongitude": -96.859679, "eventDate": "2024-05-25T00:00:00Z", "countryCode": "MX" }, "geometry": { "type": "Point", "coordinates": [ -96.859679, 20.315327 ] } },
{ "type": "Feature", "properties": { "decimalLatitude": 21.010616, "decimalLongitude": -97.339595, "eventDate": "2024-06-06T10:05:00Z", "countryCode": "MX" }, "geometry": { "type": "Point", "coordinates": [ -97.339595, 21.010616 ] } },
{ "type": "Feature", "properties": { "decimalLatitude": -15.78635, "decimalLongitude": -48.065032, "eventDate": "2024-07-02T16:09:00Z", "countryCode": "BR" }, "geometry": { "type": "Point", "coordinates": [ -48.065032, -15.78635 ] } },
{ "type": "Feature", "properties": { "decimalLatitude": 27.633795, "decimalLongitude": -82.720963, "eventDate": "2024-07-20T00:00:00Z", "countryCode": "US" }, "geometry": { "type": "Point", "coordinates": [ -82.720963, 27.633795 ] } },
{ "type": "Feature", "properties": { "decimalLatitude": -23.201987, "decimalLongitude": -45.95003, "eventDate": "2024-07-06T10:04:04Z", "countryCode": "BR" }, "geometry": { "type": "Point", "coordinates": [ -45.95003, -23.201987 ] } },
{ "type": "Feature", "properties": { "decimalLatitude": 20.970232, "decimalLongitude": -97.354956, "eventDate": "2024-07-07T13:27:00Z", "countryCode": "MX" }, "geometry": { "type": "Point", "coordinates": [ -97.354956, 20.970232 ] } },
{ "type": "Feature", "properties": { "decimalLatitude": -22.780992, "decimalLongitude": -47.312284, "eventDate": "2024-07-21T10:54:01Z", "countryCode": "BR" }, "geometry": { "type": "Point", "coordinates": [ -47.312284, -22.780992 ] } },
{ "type": "Feature", "properties": { "decimalLatitude": 20.952848, "decimalLongitude": -97.324653, "eventDate": "2024-08-06T10:33:47Z", "countryCode": "MX" }, "geometry": { "type": "Point", "coordinates": [ -97.324653, 20.952848 ] } },
{ "type": "Feature", "properties": { "decimalLatitude": 20.953601, "decimalLongitude": -97.323646, "eventDate": "2024-08-12T13:48:11Z", "countryCode": "MX" }, "geometry": { "type": "Point", "coordinates": [ -97.323646, 20.953601 ] } },
{ "type": "Feature", "properties": { "decimalLatitude": 15.966703, "decimalLongitude": -97.688084, "eventDate": "2024-08-19T08:18:00Z", "countryCode": "MX" }, "geometry": { "type": "Point", "coordinates": [ -97.688084, 15.966703 ] } },
{ "type": "Feature", "properties": { "decimalLatitude": 15.966695, "decimalLongitude": -97.688083, "eventDate": "2024-08-19T07:37:00Z", "countryCode": "MX" }, "geometry": { "type": "Point", "coordinates": [ -97.688083, 15.966695 ] } },
{ "type": "Feature", "properties": { "decimalLatitude": 9.478167, "decimalLongitude": -84.265981, "eventDate": "2024-08-13T06:10:00Z", "countryCode": "CR" }, "geometry": { "type": "Point", "coordinates": [ -84.265981, 9.478167 ] } },
{ "type": "Feature", "properties": { "decimalLatitude": 15.966692, "decimalLongitude": -97.688071, "eventDate": "2024-08-22T09:26:00Z", "countryCode": "MX" }, "geometry": { "type": "Point", "coordinates": [ -97.688071, 15.966692 ] } },
{ "type": "Feature", "properties": { "decimalLatitude": 20.435124, "decimalLongitude": -87.318315, "eventDate": "2024-09-06T17:26:19Z", "countryCode": "MX" }, "geometry": { "type": "Point", "coordinates": [ -87.318315, 20.435124 ] } },
{ "type": "Feature", "properties": { "decimalLatitude": 16.802753, "decimalLongitude": -95.078022, "eventDate": "2024-09-07T08:21:00Z", "countryCode": "MX" }, "geometry": { "type": "Point", "coordinates": [ -95.078022, 16.802753 ] } },
{ "type": "Feature", "properties": { "decimalLatitude": 16.802753, "decimalLongitude": -95.078022, "eventDate": "2024-09-07T08:21:00Z", "countryCode": "MX" }, "geometry": { "type": "Point", "coordinates": [ -95.078022, 16.802753 ] } },
{ "type": "Feature", "properties": { "decimalLatitude": 16.802753, "decimalLongitude": -95.078022, "eventDate": "2024-09-07T08:21:00Z", "countryCode": "MX" }, "geometry": { "type": "Point", "coordinates": [ -95.078022, 16.802753 ] } },
{ "type": "Feature", "properties": { "decimalLatitude": 23.299, "decimalLongitude": -106.443, "eventDate": "2024-09-16T09:14:00Z", "countryCode": "MX" }, "geometry": { "type": "Point", "coordinates": [ -106.443, 23.299 ] } },
{ "type": "Feature", "properties": { "decimalLatitude": 23.298297, "decimalLongitude": -106.476258, "eventDate": "2024-10-06T07:05:44Z", "countryCode": "MX" }, "geometry": { "type": "Point", "coordinates": [ -106.476258, 23.298297 ] } },
{ "type": "Feature", "properties": { "decimalLatitude": -7.97302, "decimalLongitude": -34.834188, "eventDate": "2024-10-02T12:53:46Z", "countryCode": "BR" }, "geometry": { "type": "Point", "coordinates": [ -34.834188, -7.97302 ] } },
{ "type": "Feature", "properties": { "decimalLatitude": 17.563883, "decimalLongitude": -101.431496, "eventDate": "2024-10-23T14:49:17Z", "countryCode": "MX" }, "geometry": { "type": "Point", "coordinates": [ -101.431496, 17.563883 ] } },
{ "type": "Feature", "properties": { "decimalLatitude": 22.601188, "decimalLongitude": -105.579964, "eventDate": "2024-10-03T09:30:00Z", "countryCode": "MX" }, "geometry": { "type": "Point", "coordinates": [ -105.579964, 22.601188 ] } },
{ "type": "Feature", "properties": { "decimalLatitude": 26.366869, "decimalLongitude": -80.070526, "eventDate": "2024-11-06T00:00:00Z", "countryCode": "US" }, "geometry": { "type": "Point", "coordinates": [ -80.070526, 26.366869 ] } },
{ "type": "Feature", "properties": { "decimalLatitude": 16.453039, "decimalLongitude": -94.962038, "eventDate": "2024-11-10T10:26:00Z", "countryCode": "MX" }, "geometry": { "type": "Point", "coordinates": [ -94.962038, 16.453039 ] } },
{ "type": "Feature", "properties": { "decimalLatitude": 19.19006, "decimalLongitude": -104.682276, "eventDate": "2024-11-16T09:18:11Z", "countryCode": "MX" }, "geometry": { "type": "Point", "coordinates": [ -104.682276, 19.19006 ] } },
{ "type": "Feature", "properties": { "decimalLatitude": -29.644873, "decimalLongitude": -53.586123, "eventDate": "2024-12-22T15:26:14Z", "countryCode": "BR" }, "geometry": { "type": "Point", "coordinates": [ -53.586123, -29.644873 ] } },
{ "type": "Feature", "properties": { "decimalLatitude": 21.185281, "decimalLongitude": -89.978563, "eventDate": "2025-01-16T09:44:53Z", "countryCode": "MX" }, "geometry": { "type": "Point", "coordinates": [ -89.978563, 21.185281 ] } },
{ "type": "Feature", "properties": { "decimalLatitude": 15.733911, "decimalLongitude": -96.465684, "eventDate": "2025-01-15T10:44:00Z", "countryCode": "MX" }, "geometry": { "type": "Point", "coordinates": [ -96.465684, 15.733911 ] } },
{ "type": "Feature", "properties": { "decimalLatitude": -25.631573, "decimalLongitude": -54.446715, "eventDate": "2025-01-09T10:06:00Z", "countryCode": "BR" }, "geometry": { "type": "Point", "coordinates": [ -54.446715, -25.631573 ] } },
{ "type": "Feature", "properties": { "decimalLatitude": 4.898979, "decimalLongitude": -73.303531, "eventDate": "2025-01-28T12:23:00Z", "countryCode": "CO" }, "geometry": { "type": "Point", "coordinates": [ -73.303531, 4.898979 ] } },
{ "type": "Feature", "properties": { "decimalLatitude": 21.511086, "decimalLongitude": -87.656197, "eventDate": "2025-02-02T15:48:22Z", "countryCode": "MX" }, "geometry": { "type": "Point", "coordinates": [ -87.656197, 21.511086 ] } },
{ "type": "Feature", "properties": { "decimalLatitude": -0.980319, "decimalLongitude": -77.896118, "eventDate": "2025-02-05T10:10:00Z", "countryCode": "EC" }, "geometry": { "type": "Point", "coordinates": [ -77.896118, -0.980319 ] } },
{ "type": "Feature", "properties": { "decimalLatitude": 10.2161, "decimalLongitude": -75.5446, "eventDate": "2025-02-04T00:00:00Z", "countryCode": "CO" }, "geometry": { "type": "Point", "coordinates": [ -75.5446, 10.2161 ] } },
{ "type": "Feature", "properties": { "decimalLatitude": 26.448052, "decimalLongitude": -82.114772, "eventDate": "2025-03-08T00:00:00Z", "countryCode": "US" }, "geometry": { "type": "Point", "coordinates": [ -82.114772, 26.448052 ] } },
{ "type": "Feature", "properties": { "decimalLatitude": 4.215912, "decimalLongitude": -73.81363, "eventDate": "2025-03-03T11:12:06Z", "countryCode": "CO" }, "geometry": { "type": "Point", "coordinates": [ -73.81363, 4.215912 ] } },
{ "type": "Feature", "properties": { "decimalLatitude": 25.500316, "decimalLongitude": -80.182829, "eventDate": "2025-03-24T00:00:00Z", "countryCode": "US" }, "geometry": { "type": "Point", "coordinates": [ -80.182829, 25.500316 ] } },
{ "type": "Feature", "properties": { "decimalLatitude": 25.813828, "decimalLongitude": -81.362724, "eventDate": "2025-04-01T00:00:00Z", "countryCode": "US" }, "geometry": { "type": "Point", "coordinates": [ -81.362724, 25.813828 ] } },
{ "type": "Feature", "properties": { "decimalLatitude": 20.553874, "decimalLongitude": -97.436857, "eventDate": "2025-04-02T15:13:12Z", "countryCode": "MX" }, "geometry": { "type": "Point", "coordinates": [ -97.436857, 20.553874 ] } },
{ "type": "Feature", "properties": { "decimalLatitude": -22.866436, "decimalLongitude": -45.922621, "eventDate": "2025-04-16T08:37:59Z", "countryCode": "BR" }, "geometry": { "type": "Point", "coordinates": [ -45.922621, -22.866436 ] } },
{ "type": "Feature", "properties": { "decimalLatitude": -23.456003, "decimalLongitude": -46.629819, "eventDate": "2025-04-26T11:13:00Z", "countryCode": "BR" }, "geometry": { "type": "Point", "coordinates": [ -46.629819, -23.456003 ] } },
{ "type": "Feature", "properties": { "decimalLatitude": -14.774554, "decimalLongitude": -64.963595, "eventDate": "2025-04-25T08:32:11Z", "countryCode": "BO" }, "geometry": { "type": "Point", "coordinates": [ -64.963595, -14.774554 ] } },
{ "type": "Feature", "properties": { "decimalLatitude": 27.811617, "decimalLongitude": -80.426674, "eventDate": "2025-04-05T00:00:00Z", "countryCode": "US" }, "geometry": { "type": "Point", "coordinates": [ -80.426674, 27.811617 ] } },
{ "type": "Feature", "properties": { "decimalLatitude": 27.811617, "decimalLongitude": -80.426674, "eventDate": "2025-04-05T00:00:00Z", "countryCode": "US" }, "geometry": { "type": "Point", "coordinates": [ -80.426674, 27.811617 ] } },
{ "type": "Feature", "properties": { "decimalLatitude": 19.596322, "decimalLongitude": -96.383183, "eventDate": "2025-05-17T00:42:58Z", "countryCode": "MX" }, "geometry": { "type": "Point", "coordinates": [ -96.383183, 19.596322 ] } },
{ "type": "Feature", "properties": { "decimalLatitude": -1.402258, "decimalLongitude": -78.280729, "eventDate": "2025-05-18T11:55:30Z", "countryCode": "EC" }, "geometry": { "type": "Point", "coordinates": [ -78.280729, -1.402258 ] } },
{ "type": "Feature", "properties": { "decimalLatitude": -24.512317, "decimalLongitude": -48.546249, "eventDate": "2025-07-22T14:16:00Z", "countryCode": "BR" }, "geometry": { "type": "Point", "coordinates": [ -48.546249, -24.512317 ] } },
{ "type": "Feature", "properties": { "decimalLatitude": 17.683368, "decimalLongitude": -101.642941, "eventDate": "2025-07-29T10:16:35Z", "countryCode": "MX" }, "geometry": { "type": "Point", "coordinates": [ -101.642941, 17.683368 ] } },
{ "type": "Feature", "properties": { "decimalLatitude": 20.970329, "decimalLongitude": -97.354836, "eventDate": "2025-09-21T11:01:00Z", "countryCode": "MX" }, "geometry": { "type": "Point", "coordinates": [ -97.354836, 20.970329 ] } },
{ "type": "Feature", "properties": { "decimalLatitude": 20.953023, "decimalLongitude": -97.324576, "eventDate": "2025-10-06T11:17:00Z", "countryCode": "MX" }, "geometry": { "type": "Point", "coordinates": [ -97.324576, 20.953023 ] } },
{ "type": "Feature", "properties": { "decimalLatitude": 20.954197, "decimalLongitude": -97.321981, "eventDate": "2025-10-06T11:57:00Z", "countryCode": "MX" }, "geometry": { "type": "Point", "coordinates": [ -97.321981, 20.954197 ] } },
{ "type": "Feature", "properties": { "decimalLatitude": 20.970093, "decimalLongitude": -97.353294, "eventDate": "2025-10-03T11:11:00Z", "countryCode": "MX" }, "geometry": { "type": "Point", "coordinates": [ -97.353294, 20.970093 ] } },
{ "type": "Feature", "properties": { "decimalLatitude": 17.030481, "decimalLongitude": -97.933505, "eventDate": "2025-10-18T09:34:00Z", "countryCode": "MX" }, "geometry": { "type": "Point", "coordinates": [ -97.933505, 17.030481 ] } },
{ "type": "Feature", "properties": { "decimalLatitude": 20.636877, "decimalLongitude": -105.220055, "eventDate": "2025-10-19T12:53:53Z", "countryCode": "MX" }, "geometry": { "type": "Point", "coordinates": [ -105.220055, 20.636877 ] } },
{ "type": "Feature", "properties": { "decimalLatitude": 19.590514, "decimalLongitude": -96.380256, "eventDate": "2025-10-30T14:25:00Z", "countryCode": "MX" }, "geometry": { "type": "Point", "coordinates": [ -96.380256, 19.590514 ] } },
{ "type": "Feature", "properties": { "decimalLatitude": 23.364343, "decimalLongitude": -106.338122, "eventDate": "2025-10-26T08:51:17Z", "countryCode": "MX" }, "geometry": { "type": "Point", "coordinates": [ -106.338122, 23.364343 ] } },
{ "type": "Feature", "properties": { "decimalLatitude": 17.678622, "decimalLongitude": -101.620773, "eventDate": "2025-11-15T10:24:02Z", "countryCode": "MX" }, "geometry": { "type": "Point", "coordinates": [ -101.620773, 17.678622 ] } },
{ "type": "Feature", "properties": { "decimalLatitude": 22.601113, "decimalLongitude": -105.579964, "eventDate": "2025-11-26T11:32:40Z", "countryCode": "MX" }, "geometry": { "type": "Point", "coordinates": [ -105.579964, 22.601113 ] } },
{ "type": "Feature", "properties": { "decimalLatitude": 22.616673, "decimalLongitude": -105.604797, "eventDate": "2025-11-29T09:06:50Z", "countryCode": "MX" }, "geometry": { "type": "Point", "coordinates": [ -105.604797, 22.616673 ] } },
{ "type": "Feature", "properties": { "decimalLatitude": 23.280314, "decimalLongitude": -106.21331, "eventDate": "2025-11-30T09:18:52Z", "countryCode": "MX" }, "geometry": { "type": "Point", "coordinates": [ -106.21331, 23.280314 ] } },
{ "type": "Feature", "properties": { "decimalLatitude": 15.739306, "decimalLongitude": -96.1478, "eventDate": "2025-11-28T09:49:00Z", "countryCode": "MX" }, "geometry": { "type": "Point", "coordinates": [ -96.1478, 15.739306 ] } },
{ "type": "Feature", "properties": { "decimalLatitude": 21.21102, "decimalLongitude": -86.80359, "eventDate": "2025-12-14T14:27:13Z", "countryCode": "MX" }, "geometry": { "type": "Point", "coordinates": [ -86.80359, 21.21102 ] } },
{ "type": "Feature", "properties": { "decimalLatitude": 24.759304, "decimalLongitude": -107.46422, "eventDate": "2025-12-21T13:25:47Z", "countryCode": "MX" }, "geometry": { "type": "Point", "coordinates": [ -107.46422, 24.759304 ] } },
{ "type": "Feature", "properties": { "decimalLatitude": 24.573207, "decimalLongitude": -107.79945, "eventDate": "2025-12-27T09:50:05Z", "countryCode": "MX" }, "geometry": { "type": "Point", "coordinates": [ -107.79945, 24.573207 ] } },
{ "type": "Feature", "properties": { "decimalLatitude": 24.759594, "decimalLongitude": -107.465083, "eventDate": "2025-12-21T13:34:00Z", "countryCode": "MX" }, "geometry": { "type": "Point", "coordinates": [ -107.465083, 24.759594 ] } },
{ "type": "Feature", "properties": { "decimalLatitude": 24.573207, "decimalLongitude": -107.79945, "eventDate": "2025-12-27T09:59:26Z", "countryCode": "MX" }, "geometry": { "type": "Point", "coordinates": [ -107.79945, 24.573207 ] } }
]
}
