{
"type": "FeatureCollection",
"name": "polyura-jalysus-gbif",
"crs": { "type": "name", "properties": { "name": "urn:ogc:def:crs:OGC:1.3:CRS84" } },
"features": [
{ "type": "Feature", "properties": { "decimalLatitude": 16.460087, "decimalLongitude": 101.655746, "eventDate": "2015-06-10T11:09:00Z", "countryCode": "TH" }, "geometry": { "type": "Point", "coordinates": [ 101.655746, 16.460087 ] } },
{ "type": "Feature", "properties": { "decimalLatitude": 11.598947, "decimalLongitude": 103.119655, "eventDate": "2015-12-12T13:24:00Z", "countryCode": "KH" }, "geometry": { "type": "Point", "coordinates": [ 103.119655, 11.598947 ] } },
{ "type": "Feature", "properties": { "decimalLatitude": 3.984568, "decimalLongitude": 101.646667, "eventDate": "2016-07-05T13:21:00Z", "countryCode": "MY" }, "geometry": { "type": "Point", "coordinates": [ 101.646667, 3.984568 ] } },
{ "type": "Feature", "properties": { "decimalLatitude": 4.388823, "decimalLongitude": 102.407279, "eventDate": "2016-07-27T11:11:00Z", "countryCode": "MY" }, "geometry": { "type": "Point", "coordinates": [ 102.407279, 4.388823 ] } },
{ "type": "Feature", "properties": { "decimalLatitude": 5.806408, "decimalLongitude": 101.070622, "eventDate": "2016-12-15T11:05:00Z", "countryCode": "TH" }, "geometry": { "type": "Point", "coordinates": [ 101.070622, 5.806408 ] } },
{ "type": "Feature", "properties": { "decimalLatitude": 19.410806, "decimalLongitude": 98.922873, "eventDate": "2017-03-01T23:06:00Z", "countryCode": "TH" }, "geometry": { "type": "Point", "coordinates": [ 98.922873, 19.410806 ] } },
{ "type": "Feature", "properties": { "decimalLatitude": 4.54736, "decimalLongitude": 100.783172, "eventDate": "2017-04-03T14:13:00Z", "countryCode": "MY" }, "geometry": { "type": "Point", "coordinates": [ 100.783172, 4.54736 ] } },
{ "type": "Feature", "properties": { "decimalLatitude": 4.537693, "decimalLongitude": 101.002665, "eventDate": "2018-05-20T12:48:00Z", "countryCode": "MY" }, "geometry": { "type": "Point", "coordinates": [ 101.002665, 4.537693 ] } },
{ "type": "Feature", "properties": { "decimalLatitude": 14.057409, "decimalLongitude": 102.30876, "eventDate": "2018-06-26T12:27:42Z", "countryCode": "TH" }, "geometry": { "type": "Point", "coordinates": [ 102.30876, 14.057409 ] } },
{ "type": "Feature", "properties": { "decimalLatitude": 1.414883, "decimalLongitude": 111.997475, "eventDate": "2019-03-12T12:12:51Z", "countryCode": "MY" }, "geometry": { "type": "Point", "coordinates": [ 111.997475, 1.414883 ] } },
{ "type": "Feature", "properties": { "decimalLatitude": 4.391658, "decimalLongitude": 102.39915, "eventDate": "2019-06-25T09:29:00Z", "countryCode": "MY" }, "geometry": { "type": "Point", "coordinates": [ 102.39915, 4.391658 ] } },
{ "type": "Feature", "properties": { "decimalLatitude": 3.518308, "decimalLongitude": 98.123955, "eventDate": "2019-07-11T06:13:00Z", "countryCode": "ID" }, "geometry": { "type": "Point", "coordinates": [ 98.123955, 3.518308 ] } },
{ "type": "Feature", "properties": { "decimalLatitude": 18.807005, "decimalLongitude": 98.916091, "eventDate": "2019-10-09T13:20:00Z", "countryCode": "TH" }, "geometry": { "type": "Point", "coordinates": [ 98.916091, 18.807005 ] } },
{ "type": "Feature", "properties": { "decimalLatitude": 18.961679, "decimalLongitude": 104.809935, "eventDate": "2020-03-07T09:26:29Z", "countryCode": "VN" }, "geometry": { "type": "Point", "coordinates": [ 104.809935, 18.961679 ] } },
{ "type": "Feature", "properties": { "decimalLatitude": 4.507578, "decimalLongitude": 101.407653, "eventDate": "2020-07-19T13:56:41Z", "countryCode": "MY" }, "geometry": { "type": "Point", "coordinates": [ 101.407653, 4.507578 ] } },
{ "type": "Feature", "properties": { "decimalLatitude": 3.170754, "decimalLongitude": 101.770645, "eventDate": "2020-09-19T12:03:00Z", "countryCode": "MY" }, "geometry": { "type": "Point", "coordinates": [ 101.770645, 3.170754 ] } },
{ "type": "Feature", "properties": { "decimalLatitude": 12.780383, "decimalLongitude": 99.565599, "eventDate": "2020-11-26T10:27:00Z", "countryCode": "TH" }, "geometry": { "type": "Point", "coordinates": [ 99.565599, 12.780383 ] } },
{ "type": "Feature", "properties": { "decimalLatitude": 18.799403, "decimalLongitude": 98.934147, "eventDate": "2021-01-17T12:54:16Z", "countryCode": "TH" }, "geometry": { "type": "Point", "coordinates": [ 98.934147, 18.799403 ] } },
{ "type": "Feature", "properties": { "decimalLatitude": 18.816802, "decimalLongitude": 98.924115, "eventDate": "2021-01-21T12:36:55Z", "countryCode": "TH" }, "geometry": { "type": "Point", "coordinates": [ 98.924115, 18.816802 ] } },
{ "type": "Feature", "properties": { "decimalLatitude": 18.812254, "decimalLongitude": 98.941641, "eventDate": "2021-02-01T12:16:00Z", "countryCode": "TH" }, "geometry": { "type": "Point", "coordinates": [ 98.941641, 18.812254 ] } },
{ "type": "Feature", "properties": { "decimalLatitude": 18.812254, "decimalLongitude": 98.941641, "eventDate": "2021-02-22T11:58:00Z", "countryCode": "TH" }, "geometry": { "type": "Point", "coordinates": [ 98.941641, 18.812254 ] } },
{ "type": "Feature", "properties": { "decimalLatitude": 18.812259, "decimalLongitude": 98.941641, "eventDate": "2021-02-02T12:45:52Z", "countryCode": "TH" }, "geometry": { "type": "Point", "coordinates": [ 98.941641, 18.812259 ] } },
{ "type": "Feature", "properties": { "decimalLatitude": 18.812254, "decimalLongitude": 98.941641, "eventDate": "2021-03-14T11:05:00Z", "countryCode": "TH" }, "geometry": { "type": "Point", "coordinates": [ 98.941641, 18.812254 ] } },
{ "type": "Feature", "properties": { "decimalLatitude": 12.884783, "decimalLongitude": 99.63272, "eventDate": "2021-06-17T11:54:00Z", "countryCode": "TH" }, "geometry": { "type": "Point", "coordinates": [ 99.63272, 12.884783 ] } },
{ "type": "Feature", "properties": { "decimalLatitude": 18.816802, "decimalLongitude": 98.924115, "eventDate": "2021-10-26T09:45:58Z", "countryCode": "TH" }, "geometry": { "type": "Point", "coordinates": [ 98.924115, 18.816802 ] } },
{ "type": "Feature", "properties": { "decimalLatitude": 18.816797, "decimalLongitude": 98.924115, "eventDate": "2021-11-01T12:12:00Z", "countryCode": "TH" }, "geometry": { "type": "Point", "coordinates": [ 98.924115, 18.816797 ] } },
{ "type": "Feature", "properties": { "decimalLatitude": 18.816802, "decimalLongitude": 98.924115, "eventDate": "2021-11-14T11:32:55Z", "countryCode": "TH" }, "geometry": { "type": "Point", "coordinates": [ 98.924115, 18.816802 ] } },
{ "type": "Feature", "properties": { "decimalLatitude": 18.812254, "decimalLongitude": 98.941641, "eventDate": "2022-01-06T14:03:00Z", "countryCode": "TH" }, "geometry": { "type": "Point", "coordinates": [ 98.941641, 18.812254 ] } },
{ "type": "Feature", "properties": { "decimalLatitude": 19.414155, "decimalLongitude": 98.914868, "eventDate": "2022-01-03T12:14:00Z", "countryCode": "TH" }, "geometry": { "type": "Point", "coordinates": [ 98.914868, 19.414155 ] } },
{ "type": "Feature", "properties": { "decimalLatitude": 18.812254, "decimalLongitude": 98.941641, "eventDate": "2022-02-18T13:22:00Z", "countryCode": "TH" }, "geometry": { "type": "Point", "coordinates": [ 98.941641, 18.812254 ] } },
{ "type": "Feature", "properties": { "decimalLatitude": 17.640848, "decimalLongitude": 99.532041, "eventDate": "2022-03-01T12:56:00Z", "countryCode": "TH" }, "geometry": { "type": "Point", "coordinates": [ 99.532041, 17.640848 ] } },
{ "type": "Feature", "properties": { "decimalLatitude": 19.17671, "decimalLongitude": 99.031908, "eventDate": "2022-03-31T14:17:00Z", "countryCode": "TH" }, "geometry": { "type": "Point", "coordinates": [ 99.031908, 19.17671 ] } },
{ "type": "Feature", "properties": { "decimalLatitude": 12.92227, "decimalLongitude": 102.242456, "eventDate": "2022-03-28T14:18:00Z", "countryCode": "TH" }, "geometry": { "type": "Point", "coordinates": [ 102.242456, 12.92227 ] } },
{ "type": "Feature", "properties": { "decimalLatitude": 19.17671, "decimalLongitude": 99.031908, "eventDate": "2022-03-31T13:49:00Z", "countryCode": "TH" }, "geometry": { "type": "Point", "coordinates": [ 99.031908, 19.17671 ] } },
{ "type": "Feature", "properties": { "decimalLatitude": 17.638219, "decimalLongitude": 99.542153, "eventDate": "2022-03-01T12:55:00Z", "countryCode": "TH" }, "geometry": { "type": "Point", "coordinates": [ 99.542153, 17.638219 ] } },
{ "type": "Feature", "properties": { "decimalLatitude": 19.258569, "decimalLongitude": 99.129727, "eventDate": "2022-03-31T13:54:00Z", "countryCode": "TH" }, "geometry": { "type": "Point", "coordinates": [ 99.129727, 19.258569 ] } },
{ "type": "Feature", "properties": { "decimalLatitude": 19.258673, "decimalLongitude": 99.129538, "eventDate": "2022-03-31T14:14:00Z", "countryCode": "TH" }, "geometry": { "type": "Point", "coordinates": [ 99.129538, 19.258673 ] } },
{ "type": "Feature", "properties": { "decimalLatitude": 19.258673, "decimalLongitude": 99.129538, "eventDate": "2022-03-31T14:44:00Z", "countryCode": "TH" }, "geometry": { "type": "Point", "coordinates": [ 99.129538, 19.258673 ] } },
{ "type": "Feature", "properties": { "decimalLatitude": 14.043045, "decimalLongitude": 102.231905, "eventDate": "2022-06-03T12:37:00Z", "countryCode": "TH" }, "geometry": { "type": "Point", "coordinates": [ 102.231905, 14.043045 ] } },
{ "type": "Feature", "properties": { "decimalLatitude": 14.42185, "decimalLongitude": 105.250381, "eventDate": "2022-06-07T12:40:00Z", "countryCode": "TH" }, "geometry": { "type": "Point", "coordinates": [ 105.250381, 14.42185 ] } },
{ "type": "Feature", "properties": { "decimalLatitude": 12.793709, "decimalLongitude": 99.45979, "eventDate": "2022-06-05T10:27:00Z", "countryCode": "TH" }, "geometry": { "type": "Point", "coordinates": [ 99.45979, 12.793709 ] } },
{ "type": "Feature", "properties": { "decimalLatitude": 14.043045, "decimalLongitude": 102.231905, "eventDate": "2022-07-05T13:01:00Z", "countryCode": "TH" }, "geometry": { "type": "Point", "coordinates": [ 102.231905, 14.043045 ] } },
{ "type": "Feature", "properties": { "decimalLatitude": 18.816797, "decimalLongitude": 98.924115, "eventDate": "2022-10-17T12:44:00Z", "countryCode": "TH" }, "geometry": { "type": "Point", "coordinates": [ 98.924115, 18.816797 ] } },
{ "type": "Feature", "properties": { "decimalLatitude": 19.414587, "decimalLongitude": 98.91429, "eventDate": "2022-10-31T14:28:00Z", "countryCode": "TH" }, "geometry": { "type": "Point", "coordinates": [ 98.91429, 19.414587 ] } },
{ "type": "Feature", "properties": { "decimalLatitude": 18.812254, "decimalLongitude": 98.941641, "eventDate": "2023-02-05T12:54:00Z", "countryCode": "TH" }, "geometry": { "type": "Point", "coordinates": [ 98.941641, 18.812254 ] } },
{ "type": "Feature", "properties": { "decimalLatitude": 18.812254, "decimalLongitude": 98.941641, "eventDate": "2023-02-08T13:57:00Z", "countryCode": "TH" }, "geometry": { "type": "Point", "coordinates": [ 98.941641, 18.812254 ] } },
{ "type": "Feature", "properties": { "decimalLatitude": 18.812254, "decimalLongitude": 98.941641, "eventDate": "2023-02-15T13:10:00Z", "countryCode": "TH" }, "geometry": { "type": "Point", "coordinates": [ 98.941641, 18.812254 ] } },
{ "type": "Feature", "properties": { "decimalLatitude": 2.79049, "decimalLongitude": 102.156903, "eventDate": "2023-02-12T12:13:00Z", "countryCode": "MY" }, "geometry": { "type": "Point", "coordinates": [ 102.156903, 2.79049 ] } },
{ "type": "Feature", "properties": { "decimalLatitude": 16.433988, "decimalLongitude": 101.597725, "eventDate": "2023-03-10T14:48:00Z", "countryCode": "TH" }, "geometry": { "type": "Point", "coordinates": [ 101.597725, 16.433988 ] } },
{ "type": "Feature", "properties": { "decimalLatitude": 16.434049, "decimalLongitude": 101.597694, "eventDate": "2023-03-10T14:49:00Z", "countryCode": "TH" }, "geometry": { "type": "Point", "coordinates": [ 101.597694, 16.434049 ] } },
{ "type": "Feature", "properties": { "decimalLatitude": 16.43403, "decimalLongitude": 101.597748, "eventDate": "2023-03-10T14:52:00Z", "countryCode": "TH" }, "geometry": { "type": "Point", "coordinates": [ 101.597748, 16.43403 ] } },
{ "type": "Feature", "properties": { "decimalLatitude": 19.259444, "decimalLongitude": 99.128333, "eventDate": "2023-03-28T10:45:00Z", "countryCode": "TH" }, "geometry": { "type": "Point", "coordinates": [ 99.128333, 19.259444 ] } },
{ "type": "Feature", "properties": { "decimalLatitude": 19.25982, "decimalLongitude": 99.128067, "eventDate": "2023-03-28T10:48:00Z", "countryCode": "TH" }, "geometry": { "type": "Point", "coordinates": [ 99.128067, 19.25982 ] } },
{ "type": "Feature", "properties": { "decimalLatitude": 4.466833, "decimalLongitude": 101.223, "eventDate": "2023-04-22T12:44:41Z", "countryCode": "MY" }, "geometry": { "type": "Point", "coordinates": [ 101.223, 4.466833 ] } },
{ "type": "Feature", "properties": { "decimalLatitude": 3.509247, "decimalLongitude": 101.524806, "eventDate": "2023-06-10T17:35:00Z", "countryCode": "MY" }, "geometry": { "type": "Point", "coordinates": [ 101.524806, 3.509247 ] } },
{ "type": "Feature", "properties": { "decimalLatitude": 14.043045, "decimalLongitude": 102.231905, "eventDate": "2023-06-23T11:10:00Z", "countryCode": "TH" }, "geometry": { "type": "Point", "coordinates": [ 102.231905, 14.043045 ] } },
{ "type": "Feature", "properties": { "decimalLatitude": 4.500638, "decimalLongitude": 101.250324, "eventDate": "2023-06-13T11:57:00Z", "countryCode": "MY" }, "geometry": { "type": "Point", "coordinates": [ 101.250324, 4.500638 ] } },
{ "type": "Feature", "properties": { "decimalLatitude": 14.365114, "decimalLongitude": 105.208649, "eventDate": "2023-07-04T12:07:00Z", "countryCode": "TH" }, "geometry": { "type": "Point", "coordinates": [ 105.208649, 14.365114 ] } },
{ "type": "Feature", "properties": { "decimalLatitude": 14.427008, "decimalLongitude": 105.269325, "eventDate": "2023-07-04T11:59:00Z", "countryCode": "TH" }, "geometry": { "type": "Point", "coordinates": [ 105.269325, 14.427008 ] } },
{ "type": "Feature", "properties": { "decimalLatitude": 18.798675, "decimalLongitude": 98.933495, "eventDate": "2023-08-11T12:48:00Z", "countryCode": "TH" }, "geometry": { "type": "Point", "coordinates": [ 98.933495, 18.798675 ] } },
{ "type": "Feature", "properties": { "decimalLatitude": 18.871024, "decimalLongitude": 98.930168, "eventDate": "2023-09-01T10:54:00Z", "countryCode": "TH" }, "geometry": { "type": "Point", "coordinates": [ 98.930168, 18.871024 ] } },
{ "type": "Feature", "properties": { "decimalLatitude": 18.816797, "decimalLongitude": 98.924115, "eventDate": "2023-10-15T12:09:00Z", "countryCode": "TH" }, "geometry": { "type": "Point", "coordinates": [ 98.924115, 18.816797 ] } },
{ "type": "Feature", "properties": { "decimalLatitude": 16.038267, "decimalLongitude": 99.233879, "eventDate": "2023-10-21T12:11:49Z", "countryCode": "TH" }, "geometry": { "type": "Point", "coordinates": [ 99.233879, 16.038267 ] } },
{ "type": "Feature", "properties": { "decimalLatitude": 19.414772, "decimalLongitude": 98.891603, "eventDate": "2023-11-16T10:52:00Z", "countryCode": "TH" }, "geometry": { "type": "Point", "coordinates": [ 98.891603, 19.414772 ] } },
{ "type": "Feature", "properties": { "decimalLatitude": 19.414772, "decimalLongitude": 98.891603, "eventDate": "2023-11-14T13:48:00Z", "countryCode": "TH" }, "geometry": { "type": "Point", "coordinates": [ 98.891603, 19.414772 ] } },
{ "type": "Feature", "properties": { "decimalLatitude": 19.414772, "decimalLongitude": 98.891603, "eventDate": "2023-11-15T12:23:00Z", "countryCode": "TH" }, "geometry": { "type": "Point", "coordinates": [ 98.891603, 19.414772 ] } },
{ "type": "Feature", "properties": { "decimalLatitude": 19.414772, "decimalLongitude": 98.891603, "eventDate": "2023-11-14T13:43:00Z", "countryCode": "TH" }, "geometry": { "type": "Point", "coordinates": [ 98.891603, 19.414772 ] } },
{ "type": "Feature", "properties": { "decimalLatitude": 19.414772, "decimalLongitude": 98.891603, "eventDate": "2023-11-17T10:56:00Z", "countryCode": "TH" }, "geometry": { "type": "Point", "coordinates": [ 98.891603, 19.414772 ] } },
{ "type": "Feature", "properties": { "decimalLatitude": 19.414772, "decimalLongitude": 98.891603, "eventDate": "2023-11-17T10:56:00Z", "countryCode": "TH" }, "geometry": { "type": "Point", "coordinates": [ 98.891603, 19.414772 ] } },
{ "type": "Feature", "properties": { "decimalLatitude": 19.414772, "decimalLongitude": 98.891603, "eventDate": "2023-11-16T10:52:00Z", "countryCode": "TH" }, "geometry": { "type": "Point", "coordinates": [ 98.891603, 19.414772 ] } },
{ "type": "Feature", "properties": { "decimalLatitude": 19.414772, "decimalLongitude": 98.891603, "eventDate": "2023-11-15T12:23:00Z", "countryCode": "TH" }, "geometry": { "type": "Point", "coordinates": [ 98.891603, 19.414772 ] } },
{ "type": "Feature", "properties": { "decimalLatitude": 3.223143, "decimalLongitude": 101.768945, "eventDate": "2023-12-21T11:42:00Z", "countryCode": "MY" }, "geometry": { "type": "Point", "coordinates": [ 101.768945, 3.223143 ] } },
{ "type": "Feature", "properties": { "decimalLatitude": 18.816797, "decimalLongitude": 98.924115, "eventDate": "2023-12-31T13:13:00Z", "countryCode": "TH" }, "geometry": { "type": "Point", "coordinates": [ 98.924115, 18.816797 ] } },
{ "type": "Feature", "properties": { "decimalLatitude": 19.299653, "decimalLongitude": 98.903218, "eventDate": "2023-12-16T22:42:00Z", "countryCode": "TH" }, "geometry": { "type": "Point", "coordinates": [ 98.903218, 19.299653 ] } },
{ "type": "Feature", "properties": { "decimalLatitude": 18.812053, "decimalLongitude": 98.941217, "eventDate": "2024-01-14T13:37:00Z", "countryCode": "TH" }, "geometry": { "type": "Point", "coordinates": [ 98.941217, 18.812053 ] } },
{ "type": "Feature", "properties": { "decimalLatitude": 18.816797, "decimalLongitude": 98.924115, "eventDate": "2024-01-27T14:49:56Z", "countryCode": "TH" }, "geometry": { "type": "Point", "coordinates": [ 98.924115, 18.816797 ] } },
{ "type": "Feature", "properties": { "decimalLatitude": 18.812254, "decimalLongitude": 98.941641, "eventDate": "2024-02-08T12:49:00Z", "countryCode": "TH" }, "geometry": { "type": "Point", "coordinates": [ 98.941641, 18.812254 ] } },
{ "type": "Feature", "properties": { "decimalLatitude": 18.812255, "decimalLongitude": 98.941641, "eventDate": "2024-02-21T12:21:16Z", "countryCode": "TH" }, "geometry": { "type": "Point", "coordinates": [ 98.941641, 18.812255 ] } },
{ "type": "Feature", "properties": { "decimalLatitude": 19.415143, "decimalLongitude": 98.912529, "eventDate": "2024-03-17T13:58:00Z", "countryCode": "TH" }, "geometry": { "type": "Point", "coordinates": [ 98.912529, 19.415143 ] } },
{ "type": "Feature", "properties": { "decimalLatitude": 20.63365, "decimalLongitude": 102.604511, "eventDate": "2024-03-03T11:03:29Z", "countryCode": "LA" }, "geometry": { "type": "Point", "coordinates": [ 102.604511, 20.63365 ] } },
{ "type": "Feature", "properties": { "decimalLatitude": 19.367814, "decimalLongitude": 98.964902, "eventDate": "2024-04-17T14:47:00Z", "countryCode": "TH" }, "geometry": { "type": "Point", "coordinates": [ 98.964902, 19.367814 ] } },
{ "type": "Feature", "properties": { "decimalLatitude": 3.106845, "decimalLongitude": 101.72592, "eventDate": "2024-05-01T11:45:00Z", "countryCode": "MY" }, "geometry": { "type": "Point", "coordinates": [ 101.72592, 3.106845 ] } },
{ "type": "Feature", "properties": { "decimalLatitude": 3.22236, "decimalLongitude": 101.864802, "eventDate": "2024-07-06T15:30:00Z", "countryCode": "MY" }, "geometry": { "type": "Point", "coordinates": [ 101.864802, 3.22236 ] } },
{ "type": "Feature", "properties": { "decimalLatitude": 13.996579, "decimalLongitude": 102.202153, "eventDate": "2024-08-16T11:25:00Z", "countryCode": "TH" }, "geometry": { "type": "Point", "coordinates": [ 102.202153, 13.996579 ] } },
{ "type": "Feature", "properties": { "decimalLatitude": 11.580138, "decimalLongitude": 103.111167, "eventDate": "2024-08-25T10:35:00Z", "countryCode": "KH" }, "geometry": { "type": "Point", "coordinates": [ 103.111167, 11.580138 ] } },
{ "type": "Feature", "properties": { "decimalLatitude": 19.414281, "decimalLongitude": 98.914981, "eventDate": "2024-09-27T14:16:33Z", "countryCode": "TH" }, "geometry": { "type": "Point", "coordinates": [ 98.914981, 19.414281 ] } },
{ "type": "Feature", "properties": { "decimalLatitude": 18.809496, "decimalLongitude": 98.936822, "eventDate": "2024-09-01T15:05:17Z", "countryCode": "TH" }, "geometry": { "type": "Point", "coordinates": [ 98.936822, 18.809496 ] } },
{ "type": "Feature", "properties": { "decimalLatitude": 3.09362, "decimalLongitude": 101.778551, "eventDate": "2024-09-01T13:28:00Z", "countryCode": "MY" }, "geometry": { "type": "Point", "coordinates": [ 101.778551, 3.09362 ] } },
{ "type": "Feature", "properties": { "decimalLatitude": 4.344549, "decimalLongitude": 101.195717, "eventDate": "2024-10-16T13:38:00Z", "countryCode": "MY" }, "geometry": { "type": "Point", "coordinates": [ 101.195717, 4.344549 ] } },
{ "type": "Feature", "properties": { "decimalLatitude": 4.697516, "decimalLongitude": 100.745158, "eventDate": "2024-10-19T14:11:00Z", "countryCode": "MY" }, "geometry": { "type": "Point", "coordinates": [ 100.745158, 4.697516 ] } },
{ "type": "Feature", "properties": { "decimalLatitude": 18.38401, "decimalLongitude": 98.578522, "eventDate": "2024-11-10T14:10:00Z", "countryCode": "TH" }, "geometry": { "type": "Point", "coordinates": [ 98.578522, 18.38401 ] } },
{ "type": "Feature", "properties": { "decimalLatitude": 4.308235, "decimalLongitude": 101.168918, "eventDate": "2024-11-30T00:00:00Z", "countryCode": "MY" }, "geometry": { "type": "Point", "coordinates": [ 101.168918, 4.308235 ] } },
{ "type": "Feature", "properties": { "decimalLatitude": 18.384006, "decimalLongitude": 98.578696, "eventDate": "2024-11-10T12:25:00Z", "countryCode": "TH" }, "geometry": { "type": "Point", "coordinates": [ 98.578696, 18.384006 ] } },
{ "type": "Feature", "properties": { "decimalLatitude": 4.308115, "decimalLongitude": 101.168758, "eventDate": "2024-11-03T13:10:00Z", "countryCode": "MY" }, "geometry": { "type": "Point", "coordinates": [ 101.168758, 4.308115 ] } },
{ "type": "Feature", "properties": { "decimalLatitude": 4.495765, "decimalLongitude": 101.17917, "eventDate": "2024-11-06T10:57:00Z", "countryCode": "MY" }, "geometry": { "type": "Point", "coordinates": [ 101.17917, 4.495765 ] } },
{ "type": "Feature", "properties": { "decimalLatitude": 18.816797, "decimalLongitude": 98.924115, "eventDate": "2024-11-01T11:34:00Z", "countryCode": "TH" }, "geometry": { "type": "Point", "coordinates": [ 98.924115, 18.816797 ] } },
{ "type": "Feature", "properties": { "decimalLatitude": 18.533868, "decimalLongitude": 98.447361, "eventDate": "2024-11-09T13:06:00Z", "countryCode": "TH" }, "geometry": { "type": "Point", "coordinates": [ 98.447361, 18.533868 ] } },
{ "type": "Feature", "properties": { "decimalLatitude": 4.310641, "decimalLongitude": 101.17147, "eventDate": "2024-12-18T00:00:00Z", "countryCode": "MY" }, "geometry": { "type": "Point", "coordinates": [ 101.17147, 4.310641 ] } },
{ "type": "Feature", "properties": { "decimalLatitude": 4.30749, "decimalLongitude": 101.169035, "eventDate": "2024-12-18T00:00:00Z", "countryCode": "MY" }, "geometry": { "type": "Point", "coordinates": [ 101.169035, 4.30749 ] } },
{ "type": "Feature", "properties": { "decimalLatitude": 4.308115, "decimalLongitude": 101.168758, "eventDate": "2024-12-14T12:56:00Z", "countryCode": "MY" }, "geometry": { "type": "Point", "coordinates": [ 101.168758, 4.308115 ] } },
{ "type": "Feature", "properties": { "decimalLatitude": 4.308031, "decimalLongitude": 101.169004, "eventDate": "2024-12-18T00:00:00Z", "countryCode": "MY" }, "geometry": { "type": "Point", "coordinates": [ 101.169004, 4.308031 ] } },
{ "type": "Feature", "properties": { "decimalLatitude": 4.307624, "decimalLongitude": 101.168944, "eventDate": "2024-12-18T00:00:00Z", "countryCode": "MY" }, "geometry": { "type": "Point", "coordinates": [ 101.168944, 4.307624 ] } },
{ "type": "Feature", "properties": { "decimalLatitude": 19.414128, "decimalLongitude": 98.914965, "eventDate": "2024-12-21T14:56:00Z", "countryCode": "TH" }, "geometry": { "type": "Point", "coordinates": [ 98.914965, 19.414128 ] } },
{ "type": "Feature", "properties": { "decimalLatitude": 19.171488, "decimalLongitude": 99.408282, "eventDate": "2025-02-02T13:40:00Z", "countryCode": "TH" }, "geometry": { "type": "Point", "coordinates": [ 99.408282, 19.171488 ] } },
{ "type": "Feature", "properties": { "decimalLatitude": 4.3791, "decimalLongitude": 101.174443, "eventDate": "2025-04-26T14:19:00Z", "countryCode": "MY" }, "geometry": { "type": "Point", "coordinates": [ 101.174443, 4.3791 ] } },
{ "type": "Feature", "properties": { "decimalLatitude": 13.997537, "decimalLongitude": 102.20378, "eventDate": "2025-05-16T15:15:58Z", "countryCode": "TH" }, "geometry": { "type": "Point", "coordinates": [ 102.20378, 13.997537 ] } },
{ "type": "Feature", "properties": { "decimalLatitude": 13.997812, "decimalLongitude": 102.203737, "eventDate": "2025-05-16T13:20:56Z", "countryCode": "TH" }, "geometry": { "type": "Point", "coordinates": [ 102.203737, 13.997812 ] } },
{ "type": "Feature", "properties": { "decimalLatitude": 3.217419, "decimalLongitude": 101.840019, "eventDate": "2025-05-21T00:00:00Z", "countryCode": "MY" }, "geometry": { "type": "Point", "coordinates": [ 101.840019, 3.217419 ] } },
{ "type": "Feature", "properties": { "decimalLatitude": 3.733218, "decimalLongitude": 101.698516, "eventDate": "2025-06-05T00:00:00Z", "countryCode": "MY" }, "geometry": { "type": "Point", "coordinates": [ 101.698516, 3.733218 ] } },
{ "type": "Feature", "properties": { "decimalLatitude": 4.308093, "decimalLongitude": 101.168848, "eventDate": "2025-06-14T00:00:00Z", "countryCode": "MY" }, "geometry": { "type": "Point", "coordinates": [ 101.168848, 4.308093 ] } },
{ "type": "Feature", "properties": { "decimalLatitude": 5.413941, "decimalLongitude": 100.782157, "eventDate": "2025-06-11T00:00:00Z", "countryCode": "MY" }, "geometry": { "type": "Point", "coordinates": [ 100.782157, 5.413941 ] } },
{ "type": "Feature", "properties": { "decimalLatitude": 4.30791, "decimalLongitude": 101.168741, "eventDate": "2025-06-14T00:00:00Z", "countryCode": "MY" }, "geometry": { "type": "Point", "coordinates": [ 101.168741, 4.30791 ] } },
{ "type": "Feature", "properties": { "decimalLatitude": 5.413274, "decimalLongitude": 100.780715, "eventDate": "2025-06-11T15:19:00Z", "countryCode": "MY" }, "geometry": { "type": "Point", "coordinates": [ 100.780715, 5.413274 ] } },
{ "type": "Feature", "properties": { "decimalLatitude": 18.816821, "decimalLongitude": 98.925877, "eventDate": "2025-06-21T22:14:00Z", "countryCode": "TH" }, "geometry": { "type": "Point", "coordinates": [ 98.925877, 18.816821 ] } },
{ "type": "Feature", "properties": { "decimalLatitude": 4.30816, "decimalLongitude": 101.168867, "eventDate": "2025-06-25T00:00:00Z", "countryCode": "MY" }, "geometry": { "type": "Point", "coordinates": [ 101.168867, 4.30816 ] } },
{ "type": "Feature", "properties": { "decimalLatitude": 4.3069, "decimalLongitude": 101.167723, "eventDate": "2025-06-25T00:00:00Z", "countryCode": "MY" }, "geometry": { "type": "Point", "coordinates": [ 101.167723, 4.3069 ] } },
{ "type": "Feature", "properties": { "decimalLatitude": 4.308115, "decimalLongitude": 101.168758, "eventDate": "2025-07-08T13:01:00Z", "countryCode": "MY" }, "geometry": { "type": "Point", "coordinates": [ 101.168758, 4.308115 ] } },
{ "type": "Feature", "properties": { "decimalLatitude": 18.736641, "decimalLongitude": 98.91274, "eventDate": "2025-07-09T11:19:00Z", "countryCode": "TH" }, "geometry": { "type": "Point", "coordinates": [ 98.91274, 18.736641 ] } },
{ "type": "Feature", "properties": { "decimalLatitude": 4.309729, "decimalLongitude": 101.169147, "eventDate": "2025-07-08T13:07:00Z", "countryCode": "MY" }, "geometry": { "type": "Point", "coordinates": [ 101.169147, 4.309729 ] } },
{ "type": "Feature", "properties": { "decimalLatitude": 3.820825, "decimalLongitude": 102.497627, "eventDate": "2025-07-23T12:46:00Z", "countryCode": "MY" }, "geometry": { "type": "Point", "coordinates": [ 102.497627, 3.820825 ] } },
{ "type": "Feature", "properties": { "decimalLatitude": 3.271719, "decimalLongitude": 101.882988, "eventDate": "2025-08-05T13:37:00Z", "countryCode": "MY" }, "geometry": { "type": "Point", "coordinates": [ 101.882988, 3.271719 ] } },
{ "type": "Feature", "properties": { "decimalLatitude": 3.815315, "decimalLongitude": 102.149565, "eventDate": "2025-08-09T14:57:00Z", "countryCode": "MY" }, "geometry": { "type": "Point", "coordinates": [ 102.149565, 3.815315 ] } },
{ "type": "Feature", "properties": { "decimalLatitude": 4.306158, "decimalLongitude": 101.155369, "eventDate": "2025-08-13T14:15:11Z", "countryCode": "MY" }, "geometry": { "type": "Point", "coordinates": [ 101.155369, 4.306158 ] } },
{ "type": "Feature", "properties": { "decimalLatitude": 4.242946, "decimalLongitude": 101.32264, "eventDate": "2025-08-12T21:25:00Z", "countryCode": "MY" }, "geometry": { "type": "Point", "coordinates": [ 101.32264, 4.242946 ] } },
{ "type": "Feature", "properties": { "decimalLatitude": 3.64015, "decimalLongitude": 101.785348, "eventDate": "2025-08-03T14:55:00Z", "countryCode": "MY" }, "geometry": { "type": "Point", "coordinates": [ 101.785348, 3.64015 ] } },
{ "type": "Feature", "properties": { "decimalLatitude": 4.308812, "decimalLongitude": 101.169704, "eventDate": "2025-08-22T00:00:00Z", "countryCode": "MY" }, "geometry": { "type": "Point", "coordinates": [ 101.169704, 4.308812 ] } },
{ "type": "Feature", "properties": { "decimalLatitude": 3.820047, "decimalLongitude": 102.169852, "eventDate": "2025-08-09T16:26:00Z", "countryCode": "MY" }, "geometry": { "type": "Point", "coordinates": [ 102.169852, 3.820047 ] } },
{ "type": "Feature", "properties": { "decimalLatitude": 3.679034, "decimalLongitude": 101.667833, "eventDate": "2025-08-05T14:13:00Z", "countryCode": "MY" }, "geometry": { "type": "Point", "coordinates": [ 101.667833, 3.679034 ] } },
{ "type": "Feature", "properties": { "decimalLatitude": 3.759172, "decimalLongitude": 101.744086, "eventDate": "2025-08-03T15:51:00Z", "countryCode": "MY" }, "geometry": { "type": "Point", "coordinates": [ 101.744086, 3.759172 ] } },
{ "type": "Feature", "properties": { "decimalLatitude": 4.305426, "decimalLongitude": 101.157794, "eventDate": "2025-08-13T13:09:00Z", "countryCode": "MY" }, "geometry": { "type": "Point", "coordinates": [ 101.157794, 4.305426 ] } },
{ "type": "Feature", "properties": { "decimalLatitude": 3.999221, "decimalLongitude": 101.391943, "eventDate": "2025-08-15T12:26:00Z", "countryCode": "MY" }, "geometry": { "type": "Point", "coordinates": [ 101.391943, 3.999221 ] } },
{ "type": "Feature", "properties": { "decimalLatitude": 3.714133, "decimalLongitude": 101.773101, "eventDate": "2025-08-05T12:15:00Z", "countryCode": "MY" }, "geometry": { "type": "Point", "coordinates": [ 101.773101, 3.714133 ] } },
{ "type": "Feature", "properties": { "decimalLatitude": 3.714117, "decimalLongitude": 101.773096, "eventDate": "2025-08-05T12:18:00Z", "countryCode": "MY" }, "geometry": { "type": "Point", "coordinates": [ 101.773096, 3.714117 ] } },
{ "type": "Feature", "properties": { "decimalLatitude": 3.713481, "decimalLongitude": 101.773142, "eventDate": "2025-08-05T15:42:00Z", "countryCode": "MY" }, "geometry": { "type": "Point", "coordinates": [ 101.773142, 3.713481 ] } },
{ "type": "Feature", "properties": { "decimalLatitude": 3.71248, "decimalLongitude": 101.771638, "eventDate": "2025-08-05T12:38:00Z", "countryCode": "MY" }, "geometry": { "type": "Point", "coordinates": [ 101.771638, 3.71248 ] } },
{ "type": "Feature", "properties": { "decimalLatitude": 4.308156, "decimalLongitude": 101.169, "eventDate": "2025-09-09T00:00:00Z", "countryCode": "MY" }, "geometry": { "type": "Point", "coordinates": [ 101.169, 4.308156 ] } },
{ "type": "Feature", "properties": { "decimalLatitude": 5.413426, "decimalLongitude": 100.781915, "eventDate": "2025-10-27T00:00:00Z", "countryCode": "MY" }, "geometry": { "type": "Point", "coordinates": [ 100.781915, 5.413426 ] } },
{ "type": "Feature", "properties": { "decimalLatitude": 16.085587, "decimalLongitude": 108.046709, "eventDate": "2025-10-20T12:23:00Z", "countryCode": "VN" }, "geometry": { "type": "Point", "coordinates": [ 108.046709, 16.085587 ] } },
{ "type": "Feature", "properties": { "decimalLatitude": 16.085587, "decimalLongitude": 108.046709, "eventDate": "2025-10-20T12:29:00Z", "countryCode": "VN" }, "geometry": { "type": "Point", "coordinates": [ 108.046709, 16.085587 ] } },
{ "type": "Feature", "properties": { "decimalLatitude": 4.308738, "decimalLongitude": 101.169332, "eventDate": "2025-11-06T00:00:00Z", "countryCode": "MY" }, "geometry": { "type": "Point", "coordinates": [ 101.169332, 4.308738 ] } },
{ "type": "Feature", "properties": { "decimalLatitude": 4.308886, "decimalLongitude": 101.169603, "eventDate": "2025-11-06T00:00:00Z", "countryCode": "MY" }, "geometry": { "type": "Point", "coordinates": [ 101.169603, 4.308886 ] } },
{ "type": "Feature", "properties": { "decimalLatitude": 18.812393, "decimalLongitude": 98.941445, "eventDate": "2025-12-02T12:56:00Z", "countryCode": "TH" }, "geometry": { "type": "Point", "coordinates": [ 98.941445, 18.812393 ] } }
]
}
