{
"type": "FeatureCollection",
"name": "prepona-deiphile-gbif",
"crs": { "type": "name", "properties": { "name": "urn:ogc:def:crs:OGC:1.3:CRS84" } },
"features": [
{ "type": "Feature", "properties": { "decimalLatitude": -69.41124, "decimalLongitude": -147.65625, "eventDate": "2017-03-23T00:00:00Z", "countryCode": "AQ" }, "geometry": { "type": "Point", "coordinates": [ -147.65625, -69.41124 ] } },
{ "type": "Feature", "properties": { "decimalLatitude": -15.935355, "decimalLongitude": -67.612629, "eventDate": "2018-12-11T00:00:00Z", "countryCode": "BO" }, "geometry": { "type": "Point", "coordinates": [ -67.612629, -15.935355 ] } },
{ "type": "Feature", "properties": { "decimalLatitude": 14.4305, "decimalLongitude": -90.749, "eventDate": "2021-03-07T00:00:00Z", "countryCode": "GT" }, "geometry": { "type": "Point", "coordinates": [ -90.749, 14.4305 ] } },
{ "type": "Feature", "properties": { "decimalLatitude": -13.036578, "decimalLongitude": -71.50428, "eventDate": "2021-11-16T12:17:00Z", "countryCode": "PE" }, "geometry": { "type": "Point", "coordinates": [ -71.50428, -13.036578 ] } },
{ "type": "Feature", "properties": { "decimalLatitude": -13.044708, "decimalLongitude": -71.532036, "eventDate": "2023-09-04T09:42:00Z", "countryCode": "PE" }, "geometry": { "type": "Point", "coordinates": [ -71.532036, -13.044708 ] } },
{ "type": "Feature", "properties": { "decimalLatitude": -13.044708, "decimalLongitude": -71.532036, "eventDate": "2023-09-04T10:15:00Z", "countryCode": "PE" }, "geometry": { "type": "Point", "coordinates": [ -71.532036, -13.044708 ] } },
{ "type": "Feature", "properties": { "decimalLatitude": 19.551048, "decimalLongitude": -96.931025, "eventDate": "2024-08-10T16:04:43Z", "countryCode": "MX" }, "geometry": { "type": "Point", "coordinates": [ -96.931025, 19.551048 ] } },
{ "type": "Feature", "properties": { "decimalLatitude": 10.308167, "decimalLongitude": -84.806861, "eventDate": "2025-07-16T22:24:45Z", "countryCode": "CR" }, "geometry": { "type": "Point", "coordinates": [ -84.806861, 10.308167 ] } },
{ "type": "Feature", "properties": { "decimalLatitude": 19.166495, "decimalLongitude": -100.142975, "eventDate": "2025-10-13T13:34:30Z", "countryCode": "MX" }, "geometry": { "type": "Point", "coordinates": [ -100.142975, 19.166495 ] } },
{ "type": "Feature", "properties": { "decimalLatitude": -13.036764, "decimalLongitude": -71.512806, "eventDate": "2015-11-19T00:00:00Z", "countryCode": "PE" }, "geometry": { "type": "Point", "coordinates": [ -71.512806, -13.036764 ] } },
{ "type": "Feature", "properties": { "decimalLatitude": 20.248548, "decimalLongitude": -97.939317, "eventDate": "2016-07-05T16:31:00Z", "countryCode": "MX" }, "geometry": { "type": "Point", "coordinates": [ -97.939317, 20.248548 ] } }
]
}
