{
"type": "FeatureCollection",
"name": "satyrium-calanus-gbif",
"crs": { "type": "name", "properties": { "name": "urn:ogc:def:crs:OGC:1.3:CRS84" } },
"features": [
{ "type": "Feature", "properties": { "decimalLatitude": 28.600223, "decimalLongitude": -82.376468, "eventDate": "2025-04-23T00:00:00Z", "countryCode": "US" }, "geometry": { "type": "Point", "coordinates": [ -82.376468, 28.600223 ] } },
{ "type": "Feature", "properties": { "decimalLatitude": 28.67767, "decimalLongitude": -82.45252, "eventDate": "2025-04-12T13:49:00Z", "countryCode": "US" }, "geometry": { "type": "Point", "coordinates": [ -82.45252, 28.67767 ] } },
{ "type": "Feature", "properties": { "decimalLatitude": 28.75446, "decimalLongitude": -82.333746, "eventDate": "2025-04-13T17:14:00Z", "countryCode": "US" }, "geometry": { "type": "Point", "coordinates": [ -82.333746, 28.75446 ] } },
{ "type": "Feature", "properties": { "decimalLatitude": 28.706517, "decimalLongitude": -82.396171, "eventDate": "2025-04-13T17:28:00Z", "countryCode": "US" }, "geometry": { "type": "Point", "coordinates": [ -82.396171, 28.706517 ] } },
{ "type": "Feature", "properties": { "decimalLatitude": 29.211212, "decimalLongitude": -82.123771, "eventDate": "2025-04-15T08:19:40Z", "countryCode": "US" }, "geometry": { "type": "Point", "coordinates": [ -82.123771, 29.211212 ] } },
{ "type": "Feature", "properties": { "decimalLatitude": 36.4786, "decimalLongitude": -84.8601, "eventDate": "2025-04-17T09:02:00Z", "countryCode": "US" }, "geometry": { "type": "Point", "coordinates": [ -84.8601, 36.4786 ] } },
{ "type": "Feature", "properties": { "decimalLatitude": 30.774208, "decimalLongitude": -96.300957, "eventDate": "2025-04-16T15:10:00Z", "countryCode": "US" }, "geometry": { "type": "Point", "coordinates": [ -96.300957, 30.774208 ] } },
{ "type": "Feature", "properties": { "decimalLatitude": 28.489208, "decimalLongitude": -82.407352, "eventDate": "2025-04-20T11:34:00Z", "countryCode": "US" }, "geometry": { "type": "Point", "coordinates": [ -82.407352, 28.489208 ] } },
{ "type": "Feature", "properties": { "decimalLatitude": 29.778531, "decimalLongitude": -82.779534, "eventDate": "2025-04-19T10:05:15Z", "countryCode": "US" }, "geometry": { "type": "Point", "coordinates": [ -82.779534, 29.778531 ] } },
{ "type": "Feature", "properties": { "decimalLatitude": 28.590382, "decimalLongitude": -82.495418, "eventDate": "2025-04-19T14:19:00Z", "countryCode": "US" }, "geometry": { "type": "Point", "coordinates": [ -82.495418, 28.590382 ] } },
{ "type": "Feature", "properties": { "decimalLatitude": 29.196917, "decimalLongitude": -82.035362, "eventDate": "2025-04-17T17:04:19Z", "countryCode": "US" }, "geometry": { "type": "Point", "coordinates": [ -82.035362, 29.196917 ] } },
{ "type": "Feature", "properties": { "decimalLatitude": 28.489208, "decimalLongitude": -82.407352, "eventDate": "2025-04-21T15:24:00Z", "countryCode": "US" }, "geometry": { "type": "Point", "coordinates": [ -82.407352, 28.489208 ] } },
{ "type": "Feature", "properties": { "decimalLatitude": 28.489208, "decimalLongitude": -82.407352, "eventDate": "2025-04-21T15:23:00Z", "countryCode": "US" }, "geometry": { "type": "Point", "coordinates": [ -82.407352, 28.489208 ] } },
{ "type": "Feature", "properties": { "decimalLatitude": 28.697185, "decimalLongitude": -82.404064, "eventDate": "2025-04-21T11:46:00Z", "countryCode": "US" }, "geometry": { "type": "Point", "coordinates": [ -82.404064, 28.697185 ] } },
{ "type": "Feature", "properties": { "decimalLatitude": 28.489208, "decimalLongitude": -82.407352, "eventDate": "2025-04-20T12:38:00Z", "countryCode": "US" }, "geometry": { "type": "Point", "coordinates": [ -82.407352, 28.489208 ] } },
{ "type": "Feature", "properties": { "decimalLatitude": 30.775326, "decimalLongitude": -96.300943, "eventDate": "2025-04-21T15:40:00Z", "countryCode": "US" }, "geometry": { "type": "Point", "coordinates": [ -96.300943, 30.775326 ] } },
{ "type": "Feature", "properties": { "decimalLatitude": 30.29125, "decimalLongitude": -95.320541, "eventDate": "2025-04-28T00:00:00Z", "countryCode": "US" }, "geometry": { "type": "Point", "coordinates": [ -95.320541, 30.29125 ] } },
{ "type": "Feature", "properties": { "decimalLatitude": 28.599601, "decimalLongitude": -82.376375, "eventDate": "2025-04-23T14:53:00Z", "countryCode": "US" }, "geometry": { "type": "Point", "coordinates": [ -82.376375, 28.599601 ] } },
{ "type": "Feature", "properties": { "decimalLatitude": 29.645517, "decimalLongitude": -82.346263, "eventDate": "2025-04-25T10:07:12Z", "countryCode": "US" }, "geometry": { "type": "Point", "coordinates": [ -82.346263, 29.645517 ] } },
{ "type": "Feature", "properties": { "decimalLatitude": 29.205644, "decimalLongitude": -98.325874, "eventDate": "2025-04-28T23:50:18Z", "countryCode": "US" }, "geometry": { "type": "Point", "coordinates": [ -98.325874, 29.205644 ] } },
{ "type": "Feature", "properties": { "decimalLatitude": 30.292389, "decimalLongitude": -95.320012, "eventDate": "2025-04-28T21:33:08Z", "countryCode": "US" }, "geometry": { "type": "Point", "coordinates": [ -95.320012, 30.292389 ] } },
{ "type": "Feature", "properties": { "decimalLatitude": 29.578821, "decimalLongitude": -82.484617, "eventDate": "2025-04-28T07:43:12Z", "countryCode": "US" }, "geometry": { "type": "Point", "coordinates": [ -82.484617, 29.578821 ] } },
{ "type": "Feature", "properties": { "decimalLatitude": 29.225922, "decimalLongitude": -82.623417, "eventDate": "2025-04-21T16:54:06Z", "countryCode": "US" }, "geometry": { "type": "Point", "coordinates": [ -82.623417, 29.225922 ] } },
{ "type": "Feature", "properties": { "decimalLatitude": 29.250905, "decimalLongitude": -98.206881, "eventDate": "2025-04-28T23:15:56Z", "countryCode": "US" }, "geometry": { "type": "Point", "coordinates": [ -98.206881, 29.250905 ] } },
{ "type": "Feature", "properties": { "decimalLatitude": 30.292462, "decimalLongitude": -95.319887, "eventDate": "2025-04-28T21:32:06Z", "countryCode": "US" }, "geometry": { "type": "Point", "coordinates": [ -95.319887, 30.292462 ] } },
{ "type": "Feature", "properties": { "decimalLatitude": 30.172592, "decimalLongitude": -97.25183, "eventDate": "2025-04-30T18:22:45Z", "countryCode": "US" }, "geometry": { "type": "Point", "coordinates": [ -97.25183, 30.172592 ] } },
{ "type": "Feature", "properties": { "decimalLatitude": 29.32174, "decimalLongitude": -97.927443, "eventDate": "2025-05-02T10:27:33Z", "countryCode": "US" }, "geometry": { "type": "Point", "coordinates": [ -97.927443, 29.32174 ] } },
{ "type": "Feature", "properties": { "decimalLatitude": 36.759247, "decimalLongitude": -78.726736, "eventDate": "2025-05-02T10:32:00Z", "countryCode": "US" }, "geometry": { "type": "Point", "coordinates": [ -78.726736, 36.759247 ] } },
{ "type": "Feature", "properties": { "decimalLatitude": 30.614879, "decimalLongitude": -92.057939, "eventDate": "2025-05-07T17:08:57Z", "countryCode": "US" }, "geometry": { "type": "Point", "coordinates": [ -92.057939, 30.614879 ] } },
{ "type": "Feature", "properties": { "decimalLatitude": 30.207838, "decimalLongitude": -97.654672, "eventDate": "2025-05-12T11:01:57Z", "countryCode": "US" }, "geometry": { "type": "Point", "coordinates": [ -97.654672, 30.207838 ] } },
{ "type": "Feature", "properties": { "decimalLatitude": 32.397302, "decimalLongitude": -81.24738, "eventDate": "2025-05-12T08:06:32Z", "countryCode": "US" }, "geometry": { "type": "Point", "coordinates": [ -81.24738, 32.397302 ] } },
{ "type": "Feature", "properties": { "decimalLatitude": 32.397265, "decimalLongitude": -81.247369, "eventDate": "2025-05-04T08:23:59Z", "countryCode": "US" }, "geometry": { "type": "Point", "coordinates": [ -81.247369, 32.397265 ] } },
{ "type": "Feature", "properties": { "decimalLatitude": 32.772587, "decimalLongitude": -96.632112, "eventDate": "2025-05-13T09:49:55Z", "countryCode": "US" }, "geometry": { "type": "Point", "coordinates": [ -96.632112, 32.772587 ] } },
{ "type": "Feature", "properties": { "decimalLatitude": 29.874183, "decimalLongitude": -98.48469, "eventDate": "2025-05-10T10:43:00Z", "countryCode": "US" }, "geometry": { "type": "Point", "coordinates": [ -98.48469, 29.874183 ] } },
{ "type": "Feature", "properties": { "decimalLatitude": 30.234727, "decimalLongitude": -97.640942, "eventDate": "2025-05-11T13:54:00Z", "countryCode": "US" }, "geometry": { "type": "Point", "coordinates": [ -97.640942, 30.234727 ] } },
{ "type": "Feature", "properties": { "decimalLatitude": 29.902049, "decimalLongitude": -82.693363, "eventDate": "2025-05-02T10:21:24Z", "countryCode": "US" }, "geometry": { "type": "Point", "coordinates": [ -82.693363, 29.902049 ] } },
{ "type": "Feature", "properties": { "decimalLatitude": 33.309945, "decimalLongitude": -86.75591, "eventDate": "2025-05-09T10:22:00Z", "countryCode": "US" }, "geometry": { "type": "Point", "coordinates": [ -86.75591, 33.309945 ] } },
{ "type": "Feature", "properties": { "decimalLatitude": 34.196433, "decimalLongitude": -80.202222, "eventDate": "2025-05-03T14:33:05Z", "countryCode": "US" }, "geometry": { "type": "Point", "coordinates": [ -80.202222, 34.196433 ] } },
{ "type": "Feature", "properties": { "decimalLatitude": 30.792497, "decimalLongitude": -92.275604, "eventDate": "2025-05-11T10:43:42Z", "countryCode": "US" }, "geometry": { "type": "Point", "coordinates": [ -92.275604, 30.792497 ] } },
{ "type": "Feature", "properties": { "decimalLatitude": 30.622218, "decimalLongitude": -87.077457, "eventDate": "2025-05-03T09:51:26Z", "countryCode": "US" }, "geometry": { "type": "Point", "coordinates": [ -87.077457, 30.622218 ] } },
{ "type": "Feature", "properties": { "decimalLatitude": 29.638053, "decimalLongitude": -82.349284, "eventDate": "2025-05-09T10:42:38Z", "countryCode": "US" }, "geometry": { "type": "Point", "coordinates": [ -82.349284, 29.638053 ] } },
{ "type": "Feature", "properties": { "decimalLatitude": 36.720883, "decimalLongitude": -78.614899, "eventDate": "2025-05-03T11:25:00Z", "countryCode": "US" }, "geometry": { "type": "Point", "coordinates": [ -78.614899, 36.720883 ] } },
{ "type": "Feature", "properties": { "decimalLatitude": 29.947207, "decimalLongitude": -82.62225, "eventDate": "2025-05-01T19:05:14Z", "countryCode": "US" }, "geometry": { "type": "Point", "coordinates": [ -82.62225, 29.947207 ] } },
{ "type": "Feature", "properties": { "decimalLatitude": 31.099935, "decimalLongitude": -81.409517, "eventDate": "2025-05-04T07:27:00Z", "countryCode": "US" }, "geometry": { "type": "Point", "coordinates": [ -81.409517, 31.099935 ] } },
{ "type": "Feature", "properties": { "decimalLatitude": 30.234777, "decimalLongitude": -97.641048, "eventDate": "2025-05-11T13:53:00Z", "countryCode": "US" }, "geometry": { "type": "Point", "coordinates": [ -97.641048, 30.234777 ] } },
{ "type": "Feature", "properties": { "decimalLatitude": 30.234955, "decimalLongitude": -97.641048, "eventDate": "2025-05-11T13:39:00Z", "countryCode": "US" }, "geometry": { "type": "Point", "coordinates": [ -97.641048, 30.234955 ] } },
{ "type": "Feature", "properties": { "decimalLatitude": 31.455379, "decimalLongitude": -98.578612, "eventDate": "2025-05-14T11:47:44Z", "countryCode": "US" }, "geometry": { "type": "Point", "coordinates": [ -98.578612, 31.455379 ] } },
{ "type": "Feature", "properties": { "decimalLatitude": 37.775487, "decimalLongitude": -78.724037, "eventDate": "2025-05-15T23:20:00Z", "countryCode": "US" }, "geometry": { "type": "Point", "coordinates": [ -78.724037, 37.775487 ] } },
{ "type": "Feature", "properties": { "decimalLatitude": 38.897225, "decimalLongitude": -77.064237, "eventDate": "2025-05-26T14:46:00Z", "countryCode": "US" }, "geometry": { "type": "Point", "coordinates": [ -77.064237, 38.897225 ] } },
{ "type": "Feature", "properties": { "decimalLatitude": 38.896956, "decimalLongitude": -77.065268, "eventDate": "2025-05-20T14:14:00Z", "countryCode": "US" }, "geometry": { "type": "Point", "coordinates": [ -77.065268, 38.896956 ] } },
{ "type": "Feature", "properties": { "decimalLatitude": 37.283553, "decimalLongitude": -78.393125, "eventDate": "2025-05-17T03:43:32Z", "countryCode": "US" }, "geometry": { "type": "Point", "coordinates": [ -78.393125, 37.283553 ] } },
{ "type": "Feature", "properties": { "decimalLatitude": 34.103269, "decimalLongitude": -118.672397, "eventDate": "2025-05-23T14:08:25Z", "countryCode": "US" }, "geometry": { "type": "Point", "coordinates": [ -118.672397, 34.103269 ] } },
{ "type": "Feature", "properties": { "decimalLatitude": 35.489933, "decimalLongitude": -92.104217, "eventDate": "2025-05-19T13:48:24Z", "countryCode": "US" }, "geometry": { "type": "Point", "coordinates": [ -92.104217, 35.489933 ] } },
{ "type": "Feature", "properties": { "decimalLatitude": 37.608799, "decimalLongitude": -77.628543, "eventDate": "2025-05-20T09:49:00Z", "countryCode": "US" }, "geometry": { "type": "Point", "coordinates": [ -77.628543, 37.608799 ] } },
{ "type": "Feature", "properties": { "decimalLatitude": 31.432233, "decimalLongitude": -81.609125, "eventDate": "2025-05-18T07:34:00Z", "countryCode": "US" }, "geometry": { "type": "Point", "coordinates": [ -81.609125, 31.432233 ] } },
{ "type": "Feature", "properties": { "decimalLatitude": 34.122709, "decimalLongitude": -118.628945, "eventDate": "2025-05-23T14:50:29Z", "countryCode": "US" }, "geometry": { "type": "Point", "coordinates": [ -118.628945, 34.122709 ] } },
{ "type": "Feature", "properties": { "decimalLatitude": 36.625923, "decimalLongitude": -88.30954, "eventDate": "2025-05-27T09:30:03Z", "countryCode": "US" }, "geometry": { "type": "Point", "coordinates": [ -88.30954, 36.625923 ] } },
{ "type": "Feature", "properties": { "decimalLatitude": 32.613716, "decimalLongitude": -93.732885, "eventDate": "2025-05-18T15:22:03Z", "countryCode": "US" }, "geometry": { "type": "Point", "coordinates": [ -93.732885, 32.613716 ] } },
{ "type": "Feature", "properties": { "decimalLatitude": 34.346035, "decimalLongitude": -118.543472, "eventDate": "2025-05-12T13:10:00Z", "countryCode": "US" }, "geometry": { "type": "Point", "coordinates": [ -118.543472, 34.346035 ] } },
{ "type": "Feature", "properties": { "decimalLatitude": 38.897178, "decimalLongitude": -77.064109, "eventDate": "2025-05-26T14:48:00Z", "countryCode": "US" }, "geometry": { "type": "Point", "coordinates": [ -77.064109, 38.897178 ] } },
{ "type": "Feature", "properties": { "decimalLatitude": 32.84129, "decimalLongitude": -116.632558, "eventDate": "2025-05-26T11:37:00Z", "countryCode": "US" }, "geometry": { "type": "Point", "coordinates": [ -116.632558, 32.84129 ] } },
{ "type": "Feature", "properties": { "decimalLatitude": 35.513163, "decimalLongitude": -93.326342, "eventDate": "2025-05-13T17:20:00Z", "countryCode": "US" }, "geometry": { "type": "Point", "coordinates": [ -93.326342, 35.513163 ] } },
{ "type": "Feature", "properties": { "decimalLatitude": 38.299427, "decimalLongitude": -76.515045, "eventDate": "2025-05-26T07:11:12Z", "countryCode": "US" }, "geometry": { "type": "Point", "coordinates": [ -76.515045, 38.299427 ] } },
{ "type": "Feature", "properties": { "decimalLatitude": 31.455401, "decimalLongitude": -98.578611, "eventDate": "2025-05-14T11:48:01Z", "countryCode": "US" }, "geometry": { "type": "Point", "coordinates": [ -98.578611, 31.455401 ] } },
{ "type": "Feature", "properties": { "decimalLatitude": 36.147214, "decimalLongitude": -121.194446, "eventDate": "2025-05-24T11:00:00Z", "countryCode": "US" }, "geometry": { "type": "Point", "coordinates": [ -121.194446, 36.147214 ] } },
{ "type": "Feature", "properties": { "decimalLatitude": 35.988976, "decimalLongitude": -121.359401, "eventDate": "2025-05-22T16:15:00Z", "countryCode": "US" }, "geometry": { "type": "Point", "coordinates": [ -121.359401, 35.988976 ] } },
{ "type": "Feature", "properties": { "decimalLatitude": 36.082145, "decimalLongitude": -80.120658, "eventDate": "2025-05-23T17:21:27Z", "countryCode": "US" }, "geometry": { "type": "Point", "coordinates": [ -80.120658, 36.082145 ] } },
{ "type": "Feature", "properties": { "decimalLatitude": 32.749947, "decimalLongitude": -116.455899, "eventDate": "2025-05-26T16:55:55Z", "countryCode": "US" }, "geometry": { "type": "Point", "coordinates": [ -116.455899, 32.749947 ] } },
{ "type": "Feature", "properties": { "decimalLatitude": 37.173844, "decimalLongitude": -121.869911, "eventDate": "2025-05-23T10:13:00Z", "countryCode": "US" }, "geometry": { "type": "Point", "coordinates": [ -121.869911, 37.173844 ] } },
{ "type": "Feature", "properties": { "decimalLatitude": 37.335295, "decimalLongitude": -79.173679, "eventDate": "2025-05-17T13:37:27Z", "countryCode": "US" }, "geometry": { "type": "Point", "coordinates": [ -79.173679, 37.335295 ] } },
{ "type": "Feature", "properties": { "decimalLatitude": 36.134768, "decimalLongitude": -78.839775, "eventDate": "2025-05-23T14:24:38Z", "countryCode": "US" }, "geometry": { "type": "Point", "coordinates": [ -78.839775, 36.134768 ] } },
{ "type": "Feature", "properties": { "decimalLatitude": 36.901713, "decimalLongitude": -88.036103, "eventDate": "2025-05-24T13:08:32Z", "countryCode": "US" }, "geometry": { "type": "Point", "coordinates": [ -88.036103, 36.901713 ] } },
{ "type": "Feature", "properties": { "decimalLatitude": 38.970817, "decimalLongitude": -77.201019, "eventDate": "2025-05-25T11:33:00Z", "countryCode": "US" }, "geometry": { "type": "Point", "coordinates": [ -77.201019, 38.970817 ] } },
{ "type": "Feature", "properties": { "decimalLatitude": 35.217047, "decimalLongitude": -97.466597, "eventDate": "2025-05-26T15:31:55Z", "countryCode": "US" }, "geometry": { "type": "Point", "coordinates": [ -97.466597, 35.217047 ] } },
{ "type": "Feature", "properties": { "decimalLatitude": 34.207008, "decimalLongitude": -96.642578, "eventDate": "2025-05-20T11:20:14Z", "countryCode": "US" }, "geometry": { "type": "Point", "coordinates": [ -96.642578, 34.207008 ] } },
{ "type": "Feature", "properties": { "decimalLatitude": 36.794677, "decimalLongitude": -80.115314, "eventDate": "2025-05-27T19:29:34Z", "countryCode": "US" }, "geometry": { "type": "Point", "coordinates": [ -80.115314, 36.794677 ] } },
{ "type": "Feature", "properties": { "decimalLatitude": 33.591961, "decimalLongitude": -116.440906, "eventDate": "2025-05-24T11:52:33Z", "countryCode": "US" }, "geometry": { "type": "Point", "coordinates": [ -116.440906, 33.591961 ] } },
{ "type": "Feature", "properties": { "decimalLatitude": 34.79333, "decimalLongitude": -87.384157, "eventDate": "2025-05-23T14:47:00Z", "countryCode": "US" }, "geometry": { "type": "Point", "coordinates": [ -87.384157, 34.79333 ] } },
{ "type": "Feature", "properties": { "decimalLatitude": 37.484554, "decimalLongitude": -88.780632, "eventDate": "2025-05-29T16:34:24Z", "countryCode": "US" }, "geometry": { "type": "Point", "coordinates": [ -88.780632, 37.484554 ] } },
{ "type": "Feature", "properties": { "decimalLatitude": 38.305535, "decimalLongitude": -77.810593, "eventDate": "2025-05-29T16:33:00Z", "countryCode": "US" }, "geometry": { "type": "Point", "coordinates": [ -77.810593, 38.305535 ] } },
{ "type": "Feature", "properties": { "decimalLatitude": 33.604636, "decimalLongitude": -116.439099, "eventDate": "2025-05-26T14:23:53Z", "countryCode": "US" }, "geometry": { "type": "Point", "coordinates": [ -116.439099, 33.604636 ] } },
{ "type": "Feature", "properties": { "decimalLatitude": 35.942726, "decimalLongitude": -82.891306, "eventDate": "2025-05-31T10:47:00Z", "countryCode": "US" }, "geometry": { "type": "Point", "coordinates": [ -82.891306, 35.942726 ] } },
{ "type": "Feature", "properties": { "decimalLatitude": 39.39358, "decimalLongitude": -76.984211, "eventDate": "2025-05-31T16:38:53Z", "countryCode": "US" }, "geometry": { "type": "Point", "coordinates": [ -76.984211, 39.39358 ] } },
{ "type": "Feature", "properties": { "decimalLatitude": 33.604719, "decimalLongitude": -116.439058, "eventDate": "2025-05-27T12:42:09Z", "countryCode": "US" }, "geometry": { "type": "Point", "coordinates": [ -116.439058, 33.604719 ] } },
{ "type": "Feature", "properties": { "decimalLatitude": 38.864779, "decimalLongitude": -77.123652, "eventDate": "2025-05-29T15:57:19Z", "countryCode": "US" }, "geometry": { "type": "Point", "coordinates": [ -77.123652, 38.864779 ] } },
{ "type": "Feature", "properties": { "decimalLatitude": 36.010761, "decimalLongitude": -75.663301, "eventDate": "2025-05-31T12:03:00Z", "countryCode": "US" }, "geometry": { "type": "Point", "coordinates": [ -75.663301, 36.010761 ] } },
{ "type": "Feature", "properties": { "decimalLatitude": 45.81684, "decimalLongitude": -121.152056, "eventDate": "2025-05-30T12:08:22Z", "countryCode": "US" }, "geometry": { "type": "Point", "coordinates": [ -121.152056, 45.81684 ] } },
{ "type": "Feature", "properties": { "decimalLatitude": 33.555055, "decimalLongitude": -94.462949, "eventDate": "2025-05-31T11:26:15Z", "countryCode": "US" }, "geometry": { "type": "Point", "coordinates": [ -94.462949, 33.555055 ] } },
{ "type": "Feature", "properties": { "decimalLatitude": 33.604878, "decimalLongitude": -116.439364, "eventDate": "2025-05-28T07:45:41Z", "countryCode": "US" }, "geometry": { "type": "Point", "coordinates": [ -116.439364, 33.604878 ] } },
{ "type": "Feature", "properties": { "decimalLatitude": 33.604836, "decimalLongitude": -116.4392, "eventDate": "2025-05-28T07:50:44Z", "countryCode": "US" }, "geometry": { "type": "Point", "coordinates": [ -116.4392, 33.604836 ] } },
{ "type": "Feature", "properties": { "decimalLatitude": 34.834198, "decimalLongitude": -86.142477, "eventDate": "2025-05-28T09:27:55Z", "countryCode": "US" }, "geometry": { "type": "Point", "coordinates": [ -86.142477, 34.834198 ] } },
{ "type": "Feature", "properties": { "decimalLatitude": 34.459829, "decimalLongitude": -78.111821, "eventDate": "2025-05-31T08:50:00Z", "countryCode": "US" }, "geometry": { "type": "Point", "coordinates": [ -78.111821, 34.459829 ] } },
{ "type": "Feature", "properties": { "decimalLatitude": 39.255154, "decimalLongitude": -77.286783, "eventDate": "2025-05-29T14:52:00Z", "countryCode": "US" }, "geometry": { "type": "Point", "coordinates": [ -77.286783, 39.255154 ] } },
{ "type": "Feature", "properties": { "decimalLatitude": 35.529003, "decimalLongitude": -80.422438, "eventDate": "2025-05-29T09:52:31Z", "countryCode": "US" }, "geometry": { "type": "Point", "coordinates": [ -80.422438, 35.529003 ] } },
{ "type": "Feature", "properties": { "decimalLatitude": 33.604717, "decimalLongitude": -116.439051, "eventDate": "2025-05-27T09:09:33Z", "countryCode": "US" }, "geometry": { "type": "Point", "coordinates": [ -116.439051, 33.604717 ] } },
{ "type": "Feature", "properties": { "decimalLatitude": 34.921635, "decimalLongitude": -85.408186, "eventDate": "2025-05-29T10:32:03Z", "countryCode": "US" }, "geometry": { "type": "Point", "coordinates": [ -85.408186, 34.921635 ] } },
{ "type": "Feature", "properties": { "decimalLatitude": 38.742935, "decimalLongitude": -93.740967, "eventDate": "2025-05-30T12:50:19Z", "countryCode": "US" }, "geometry": { "type": "Point", "coordinates": [ -93.740967, 38.742935 ] } },
{ "type": "Feature", "properties": { "decimalLatitude": 34.79333, "decimalLongitude": -87.384157, "eventDate": "2025-05-21T14:51:00Z", "countryCode": "US" }, "geometry": { "type": "Point", "coordinates": [ -87.384157, 34.79333 ] } },
{ "type": "Feature", "properties": { "decimalLatitude": 36.358611, "decimalLongitude": -121.549553, "eventDate": "2025-05-30T13:57:00Z", "countryCode": "US" }, "geometry": { "type": "Point", "coordinates": [ -121.549553, 36.358611 ] } },
{ "type": "Feature", "properties": { "decimalLatitude": 39.164924, "decimalLongitude": -96.543365, "eventDate": "2025-05-22T13:08:29Z", "countryCode": "US" }, "geometry": { "type": "Point", "coordinates": [ -96.543365, 39.164924 ] } },
{ "type": "Feature", "properties": { "decimalLatitude": 37.525122, "decimalLongitude": -77.474772, "eventDate": "2025-05-16T09:25:00Z", "countryCode": "US" }, "geometry": { "type": "Point", "coordinates": [ -77.474772, 37.525122 ] } },
{ "type": "Feature", "properties": { "decimalLatitude": 38.64443, "decimalLongitude": -77.236809, "eventDate": "2025-05-16T09:26:00Z", "countryCode": "US" }, "geometry": { "type": "Point", "coordinates": [ -77.236809, 38.64443 ] } },
{ "type": "Feature", "properties": { "decimalLatitude": 32.963514, "decimalLongitude": -79.790069, "eventDate": "2025-05-29T00:00:00Z", "countryCode": "US" }, "geometry": { "type": "Point", "coordinates": [ -79.790069, 32.963514 ] } },
{ "type": "Feature", "properties": { "decimalLatitude": 38.406688, "decimalLongitude": -76.629087, "eventDate": "2025-05-31T15:01:08Z", "countryCode": "US" }, "geometry": { "type": "Point", "coordinates": [ -76.629087, 38.406688 ] } },
{ "type": "Feature", "properties": { "decimalLatitude": 45.799894, "decimalLongitude": -121.185793, "eventDate": "2025-05-30T00:00:00Z", "countryCode": "US" }, "geometry": { "type": "Point", "coordinates": [ -121.185793, 45.799894 ] } },
{ "type": "Feature", "properties": { "decimalLatitude": 45.803437, "decimalLongitude": -121.178543, "eventDate": "2025-05-30T00:00:00Z", "countryCode": "US" }, "geometry": { "type": "Point", "coordinates": [ -121.178543, 45.803437 ] } },
{ "type": "Feature", "properties": { "decimalLatitude": 45.794231, "decimalLongitude": -121.197663, "eventDate": "2025-05-30T12:07:00Z", "countryCode": "US" }, "geometry": { "type": "Point", "coordinates": [ -121.197663, 45.794231 ] } },
{ "type": "Feature", "properties": { "decimalLatitude": 45.79583, "decimalLongitude": -121.19325, "eventDate": "2025-05-30T11:22:00Z", "countryCode": "US" }, "geometry": { "type": "Point", "coordinates": [ -121.19325, 45.79583 ] } },
{ "type": "Feature", "properties": { "decimalLatitude": 36.036844, "decimalLongitude": -79.043408, "eventDate": "2025-06-01T11:15:49Z", "countryCode": "US" }, "geometry": { "type": "Point", "coordinates": [ -79.043408, 36.036844 ] } },
{ "type": "Feature", "properties": { "decimalLatitude": 39.482923, "decimalLongitude": -76.239292, "eventDate": "2025-06-02T11:41:00Z", "countryCode": "US" }, "geometry": { "type": "Point", "coordinates": [ -76.239292, 39.482923 ] } },
{ "type": "Feature", "properties": { "decimalLatitude": 32.624695, "decimalLongitude": -116.632662, "eventDate": "2025-06-01T12:55:33Z", "countryCode": "US" }, "geometry": { "type": "Point", "coordinates": [ -116.632662, 32.624695 ] } },
{ "type": "Feature", "properties": { "decimalLatitude": 34.83126, "decimalLongitude": -85.293837, "eventDate": "2025-06-03T13:18:54Z", "countryCode": "US" }, "geometry": { "type": "Point", "coordinates": [ -85.293837, 34.83126 ] } },
{ "type": "Feature", "properties": { "decimalLatitude": 39.122167, "decimalLongitude": -77.235144, "eventDate": "2025-06-03T10:04:47Z", "countryCode": "US" }, "geometry": { "type": "Point", "coordinates": [ -77.235144, 39.122167 ] } },
{ "type": "Feature", "properties": { "decimalLatitude": 38.962305, "decimalLongitude": -94.93519, "eventDate": "2025-06-08T08:25:00Z", "countryCode": "US" }, "geometry": { "type": "Point", "coordinates": [ -94.93519, 38.962305 ] } },
{ "type": "Feature", "properties": { "decimalLatitude": 36.378892, "decimalLongitude": -121.563605, "eventDate": "2025-06-07T13:51:23Z", "countryCode": "US" }, "geometry": { "type": "Point", "coordinates": [ -121.563605, 36.378892 ] } },
{ "type": "Feature", "properties": { "decimalLatitude": 39.073117, "decimalLongitude": -77.465653, "eventDate": "2025-06-06T12:58:06Z", "countryCode": "US" }, "geometry": { "type": "Point", "coordinates": [ -77.465653, 39.073117 ] } },
{ "type": "Feature", "properties": { "decimalLatitude": 36.277103, "decimalLongitude": -121.555498, "eventDate": "2025-06-08T09:29:00Z", "countryCode": "US" }, "geometry": { "type": "Point", "coordinates": [ -121.555498, 36.277103 ] } },
{ "type": "Feature", "properties": { "decimalLatitude": 40.719837, "decimalLongitude": -79.577268, "eventDate": "2025-06-06T13:09:07Z", "countryCode": "US" }, "geometry": { "type": "Point", "coordinates": [ -79.577268, 40.719837 ] } },
{ "type": "Feature", "properties": { "decimalLatitude": 38.826347, "decimalLongitude": -77.547703, "eventDate": "2025-06-03T17:21:00Z", "countryCode": "US" }, "geometry": { "type": "Point", "coordinates": [ -77.547703, 38.826347 ] } },
{ "type": "Feature", "properties": { "decimalLatitude": 37.240479, "decimalLongitude": -96.902373, "eventDate": "2025-06-02T11:56:51Z", "countryCode": "US" }, "geometry": { "type": "Point", "coordinates": [ -96.902373, 37.240479 ] } },
{ "type": "Feature", "properties": { "decimalLatitude": 36.66938, "decimalLongitude": -92.907596, "eventDate": "2025-06-07T13:06:21Z", "countryCode": "US" }, "geometry": { "type": "Point", "coordinates": [ -92.907596, 36.66938 ] } },
{ "type": "Feature", "properties": { "decimalLatitude": 39.29708, "decimalLongitude": -84.391474, "eventDate": "2025-06-06T09:59:00Z", "countryCode": "US" }, "geometry": { "type": "Point", "coordinates": [ -84.391474, 39.29708 ] } },
{ "type": "Feature", "properties": { "decimalLatitude": 34.957117, "decimalLongitude": -92.409291, "eventDate": "2025-06-03T10:49:00Z", "countryCode": "US" }, "geometry": { "type": "Point", "coordinates": [ -92.409291, 34.957117 ] } },
{ "type": "Feature", "properties": { "decimalLatitude": 36.362362, "decimalLongitude": -121.566763, "eventDate": "2025-06-07T10:08:15Z", "countryCode": "US" }, "geometry": { "type": "Point", "coordinates": [ -121.566763, 36.362362 ] } },
{ "type": "Feature", "properties": { "decimalLatitude": 34.957082, "decimalLongitude": -92.409087, "eventDate": "2025-06-03T11:31:00Z", "countryCode": "US" }, "geometry": { "type": "Point", "coordinates": [ -92.409087, 34.957082 ] } },
{ "type": "Feature", "properties": { "decimalLatitude": 36.106352, "decimalLongitude": -82.854458, "eventDate": "2025-06-09T18:31:33Z", "countryCode": "US" }, "geometry": { "type": "Point", "coordinates": [ -82.854458, 36.106352 ] } },
{ "type": "Feature", "properties": { "decimalLatitude": 34.957187, "decimalLongitude": -92.408936, "eventDate": "2025-06-03T10:30:00Z", "countryCode": "US" }, "geometry": { "type": "Point", "coordinates": [ -92.408936, 34.957187 ] } },
{ "type": "Feature", "properties": { "decimalLatitude": 34.957079, "decimalLongitude": -92.409029, "eventDate": "2025-06-03T10:56:00Z", "countryCode": "US" }, "geometry": { "type": "Point", "coordinates": [ -92.409029, 34.957079 ] } },
{ "type": "Feature", "properties": { "decimalLatitude": 34.95731, "decimalLongitude": -92.411001, "eventDate": "2025-06-03T11:03:00Z", "countryCode": "US" }, "geometry": { "type": "Point", "coordinates": [ -92.411001, 34.95731 ] } },
{ "type": "Feature", "properties": { "decimalLatitude": 36.376275, "decimalLongitude": -121.552475, "eventDate": "2025-06-07T14:39:25Z", "countryCode": "US" }, "geometry": { "type": "Point", "coordinates": [ -121.552475, 36.376275 ] } },
{ "type": "Feature", "properties": { "decimalLatitude": 40.549446, "decimalLongitude": -75.073387, "eventDate": "2025-06-10T16:10:08Z", "countryCode": "US" }, "geometry": { "type": "Point", "coordinates": [ -75.073387, 40.549446 ] } },
{ "type": "Feature", "properties": { "decimalLatitude": 37.76482, "decimalLongitude": -84.619358, "eventDate": "2025-06-07T13:01:00Z", "countryCode": "US" }, "geometry": { "type": "Point", "coordinates": [ -84.619358, 37.76482 ] } },
{ "type": "Feature", "properties": { "decimalLatitude": 39.278132, "decimalLongitude": -84.567238, "eventDate": "2025-06-08T13:43:32Z", "countryCode": "US" }, "geometry": { "type": "Point", "coordinates": [ -84.567238, 39.278132 ] } },
{ "type": "Feature", "properties": { "decimalLatitude": 37.811467, "decimalLongitude": -84.760545, "eventDate": "2025-06-06T10:25:01Z", "countryCode": "US" }, "geometry": { "type": "Point", "coordinates": [ -84.760545, 37.811467 ] } },
{ "type": "Feature", "properties": { "decimalLatitude": 34.957377, "decimalLongitude": -92.410306, "eventDate": "2025-06-03T10:58:00Z", "countryCode": "US" }, "geometry": { "type": "Point", "coordinates": [ -92.410306, 34.957377 ] } },
{ "type": "Feature", "properties": { "decimalLatitude": 35.736697, "decimalLongitude": -86.721497, "eventDate": "2025-06-05T13:49:08Z", "countryCode": "US" }, "geometry": { "type": "Point", "coordinates": [ -86.721497, 35.736697 ] } },
{ "type": "Feature", "properties": { "decimalLatitude": 40.240811, "decimalLongitude": -75.791892, "eventDate": "2025-06-06T11:55:57Z", "countryCode": "US" }, "geometry": { "type": "Point", "coordinates": [ -75.791892, 40.240811 ] } },
{ "type": "Feature", "properties": { "decimalLatitude": 39.329475, "decimalLongitude": -76.369413, "eventDate": "2025-06-05T11:53:41Z", "countryCode": "US" }, "geometry": { "type": "Point", "coordinates": [ -76.369413, 39.329475 ] } },
{ "type": "Feature", "properties": { "decimalLatitude": 37.894905, "decimalLongitude": -84.512275, "eventDate": "2025-06-08T10:18:57Z", "countryCode": "US" }, "geometry": { "type": "Point", "coordinates": [ -84.512275, 37.894905 ] } },
{ "type": "Feature", "properties": { "decimalLatitude": 33.574783, "decimalLongitude": -116.500744, "eventDate": "2025-06-04T08:55:15Z", "countryCode": "US" }, "geometry": { "type": "Point", "coordinates": [ -116.500744, 33.574783 ] } },
{ "type": "Feature", "properties": { "decimalLatitude": 35.04277, "decimalLongitude": -85.04153, "eventDate": "2025-06-06T16:10:28Z", "countryCode": "US" }, "geometry": { "type": "Point", "coordinates": [ -85.04153, 35.04277 ] } },
{ "type": "Feature", "properties": { "decimalLatitude": 39.177948, "decimalLongitude": -76.650479, "eventDate": "2025-06-05T08:42:00Z", "countryCode": "US" }, "geometry": { "type": "Point", "coordinates": [ -76.650479, 39.177948 ] } },
{ "type": "Feature", "properties": { "decimalLatitude": 34.921617, "decimalLongitude": -85.408128, "eventDate": "2025-06-05T10:37:10Z", "countryCode": "US" }, "geometry": { "type": "Point", "coordinates": [ -85.408128, 34.921617 ] } },
{ "type": "Feature", "properties": { "decimalLatitude": 35.653171, "decimalLongitude": -97.526971, "eventDate": "2025-06-06T18:50:00Z", "countryCode": "US" }, "geometry": { "type": "Point", "coordinates": [ -97.526971, 35.653171 ] } },
{ "type": "Feature", "properties": { "decimalLatitude": 39.738688, "decimalLongitude": -75.726555, "eventDate": "2025-06-09T15:17:23Z", "countryCode": "US" }, "geometry": { "type": "Point", "coordinates": [ -75.726555, 39.738688 ] } },
{ "type": "Feature", "properties": { "decimalLatitude": 38.912178, "decimalLongitude": -77.104988, "eventDate": "2025-06-05T14:40:56Z", "countryCode": "US" }, "geometry": { "type": "Point", "coordinates": [ -77.104988, 38.912178 ] } },
{ "type": "Feature", "properties": { "decimalLatitude": 35.598989, "decimalLongitude": -90.683859, "eventDate": "2025-06-01T00:00:00Z", "countryCode": "US" }, "geometry": { "type": "Point", "coordinates": [ -90.683859, 35.598989 ] } },
{ "type": "Feature", "properties": { "decimalLatitude": 37.013619, "decimalLongitude": -79.909325, "eventDate": "2025-06-08T17:01:36Z", "countryCode": "US" }, "geometry": { "type": "Point", "coordinates": [ -79.909325, 37.013619 ] } },
{ "type": "Feature", "properties": { "decimalLatitude": 40.912547, "decimalLongitude": -74.416712, "eventDate": "2025-06-11T11:01:02Z", "countryCode": "US" }, "geometry": { "type": "Point", "coordinates": [ -74.416712, 40.912547 ] } },
{ "type": "Feature", "properties": { "decimalLatitude": 35.182312, "decimalLongitude": -83.381543, "eventDate": "2025-06-11T00:00:00Z", "countryCode": "US" }, "geometry": { "type": "Point", "coordinates": [ -83.381543, 35.182312 ] } },
{ "type": "Feature", "properties": { "decimalLatitude": 37.899103, "decimalLongitude": -84.362397, "eventDate": "2025-06-13T14:03:05Z", "countryCode": "US" }, "geometry": { "type": "Point", "coordinates": [ -84.362397, 37.899103 ] } },
{ "type": "Feature", "properties": { "decimalLatitude": 37.664028, "decimalLongitude": -84.317039, "eventDate": "2025-06-16T17:21:58Z", "countryCode": "US" }, "geometry": { "type": "Point", "coordinates": [ -84.317039, 37.664028 ] } },
{ "type": "Feature", "properties": { "decimalLatitude": 38.48078, "decimalLongitude": -90.82898, "eventDate": "2025-06-13T15:07:41Z", "countryCode": "US" }, "geometry": { "type": "Point", "coordinates": [ -90.82898, 38.48078 ] } },
{ "type": "Feature", "properties": { "decimalLatitude": 35.219585, "decimalLongitude": -93.252192, "eventDate": "2025-06-08T21:40:01Z", "countryCode": "US" }, "geometry": { "type": "Point", "coordinates": [ -93.252192, 35.219585 ] } },
{ "type": "Feature", "properties": { "decimalLatitude": 40.067792, "decimalLongitude": -75.718712, "eventDate": "2025-06-16T11:08:22Z", "countryCode": "US" }, "geometry": { "type": "Point", "coordinates": [ -75.718712, 40.067792 ] } },
{ "type": "Feature", "properties": { "decimalLatitude": 36.34433, "decimalLongitude": -82.255135, "eventDate": "2025-06-17T12:25:00Z", "countryCode": "US" }, "geometry": { "type": "Point", "coordinates": [ -82.255135, 36.34433 ] } },
{ "type": "Feature", "properties": { "decimalLatitude": 39.489025, "decimalLongitude": -86.918707, "eventDate": "2025-06-16T14:06:00Z", "countryCode": "US" }, "geometry": { "type": "Point", "coordinates": [ -86.918707, 39.489025 ] } },
{ "type": "Feature", "properties": { "decimalLatitude": 36.362358, "decimalLongitude": -121.566777, "eventDate": "2025-06-07T10:11:00Z", "countryCode": "US" }, "geometry": { "type": "Point", "coordinates": [ -121.566777, 36.362358 ] } },
{ "type": "Feature", "properties": { "decimalLatitude": 40.458796, "decimalLongitude": -78.197477, "eventDate": "2025-06-17T14:11:00Z", "countryCode": "US" }, "geometry": { "type": "Point", "coordinates": [ -78.197477, 40.458796 ] } },
{ "type": "Feature", "properties": { "decimalLatitude": 40.909973, "decimalLongitude": -73.255342, "eventDate": "2025-06-13T12:05:59Z", "countryCode": "US" }, "geometry": { "type": "Point", "coordinates": [ -73.255342, 40.909973 ] } },
{ "type": "Feature", "properties": { "decimalLatitude": 35.547431, "decimalLongitude": -97.210182, "eventDate": "2025-06-12T19:27:12Z", "countryCode": "US" }, "geometry": { "type": "Point", "coordinates": [ -97.210182, 35.547431 ] } },
{ "type": "Feature", "properties": { "decimalLatitude": 39.462538, "decimalLongitude": -88.155319, "eventDate": "2025-06-16T11:16:01Z", "countryCode": "US" }, "geometry": { "type": "Point", "coordinates": [ -88.155319, 39.462538 ] } },
{ "type": "Feature", "properties": { "decimalLatitude": 40.917028, "decimalLongitude": -72.874397, "eventDate": "2025-06-16T12:49:37Z", "countryCode": "US" }, "geometry": { "type": "Point", "coordinates": [ -72.874397, 40.917028 ] } },
{ "type": "Feature", "properties": { "decimalLatitude": 40.795281, "decimalLongitude": -77.879937, "eventDate": "2025-06-13T14:49:00Z", "countryCode": "US" }, "geometry": { "type": "Point", "coordinates": [ -77.879937, 40.795281 ] } },
{ "type": "Feature", "properties": { "decimalLatitude": 41.60498, "decimalLongitude": -83.812389, "eventDate": "2025-06-15T11:22:00Z", "countryCode": "US" }, "geometry": { "type": "Point", "coordinates": [ -83.812389, 41.60498 ] } },
{ "type": "Feature", "properties": { "decimalLatitude": 39.141614, "decimalLongitude": -86.536255, "eventDate": "2025-06-15T12:49:42Z", "countryCode": "US" }, "geometry": { "type": "Point", "coordinates": [ -86.536255, 39.141614 ] } },
{ "type": "Feature", "properties": { "decimalLatitude": 40.69687, "decimalLongitude": -74.501403, "eventDate": "2025-06-11T16:10:00Z", "countryCode": "US" }, "geometry": { "type": "Point", "coordinates": [ -74.501403, 40.69687 ] } },
{ "type": "Feature", "properties": { "decimalLatitude": 36.344019, "decimalLongitude": -82.25432, "eventDate": "2025-06-17T12:57:00Z", "countryCode": "US" }, "geometry": { "type": "Point", "coordinates": [ -82.25432, 36.344019 ] } },
{ "type": "Feature", "properties": { "decimalLatitude": 33.990812, "decimalLongitude": -83.49341, "eventDate": "2025-06-13T04:41:00Z", "countryCode": "US" }, "geometry": { "type": "Point", "coordinates": [ -83.49341, 33.990812 ] } },
{ "type": "Feature", "properties": { "decimalLatitude": 45.817067, "decimalLongitude": -121.152572, "eventDate": "2025-06-11T11:10:00Z", "countryCode": "US" }, "geometry": { "type": "Point", "coordinates": [ -121.152572, 45.817067 ] } },
{ "type": "Feature", "properties": { "decimalLatitude": 36.298595, "decimalLongitude": -121.475371, "eventDate": "2025-06-07T10:45:00Z", "countryCode": "US" }, "geometry": { "type": "Point", "coordinates": [ -121.475371, 36.298595 ] } },
{ "type": "Feature", "properties": { "decimalLatitude": 38.305535, "decimalLongitude": -77.810593, "eventDate": "2025-06-08T05:36:00Z", "countryCode": "US" }, "geometry": { "type": "Point", "coordinates": [ -77.810593, 38.305535 ] } },
{ "type": "Feature", "properties": { "decimalLatitude": 36.289127, "decimalLongitude": -121.472159, "eventDate": "2025-06-07T10:43:00Z", "countryCode": "US" }, "geometry": { "type": "Point", "coordinates": [ -121.472159, 36.289127 ] } },
{ "type": "Feature", "properties": { "decimalLatitude": 39.437845, "decimalLongitude": -88.144675, "eventDate": "2025-06-17T11:03:59Z", "countryCode": "US" }, "geometry": { "type": "Point", "coordinates": [ -88.144675, 39.437845 ] } },
{ "type": "Feature", "properties": { "decimalLatitude": 37.5396, "decimalLongitude": -84.228769, "eventDate": "2025-06-12T14:37:07Z", "countryCode": "US" }, "geometry": { "type": "Point", "coordinates": [ -84.228769, 37.5396 ] } },
{ "type": "Feature", "properties": { "decimalLatitude": 38.496444, "decimalLongitude": -86.465536, "eventDate": "2025-06-13T17:31:00Z", "countryCode": "US" }, "geometry": { "type": "Point", "coordinates": [ -86.465536, 38.496444 ] } },
{ "type": "Feature", "properties": { "decimalLatitude": 32.867118, "decimalLongitude": -116.41904, "eventDate": "2025-06-10T16:27:00Z", "countryCode": "US" }, "geometry": { "type": "Point", "coordinates": [ -116.41904, 32.867118 ] } },
{ "type": "Feature", "properties": { "decimalLatitude": 36.378832, "decimalLongitude": -121.563605, "eventDate": "2025-06-07T13:51:00Z", "countryCode": "US" }, "geometry": { "type": "Point", "coordinates": [ -121.563605, 36.378832 ] } },
{ "type": "Feature", "properties": { "decimalLatitude": 37.824858, "decimalLongitude": -84.739853, "eventDate": "2025-06-10T15:03:24Z", "countryCode": "US" }, "geometry": { "type": "Point", "coordinates": [ -84.739853, 37.824858 ] } },
{ "type": "Feature", "properties": { "decimalLatitude": 36.619212, "decimalLongitude": -82.746139, "eventDate": "2025-06-11T16:37:53Z", "countryCode": "US" }, "geometry": { "type": "Point", "coordinates": [ -82.746139, 36.619212 ] } },
{ "type": "Feature", "properties": { "decimalLatitude": 35.349409, "decimalLongitude": -83.190503, "eventDate": "2025-06-12T12:37:00Z", "countryCode": "US" }, "geometry": { "type": "Point", "coordinates": [ -83.190503, 35.349409 ] } },
{ "type": "Feature", "properties": { "decimalLatitude": 41.066464, "decimalLongitude": -85.150855, "eventDate": "2025-06-17T12:36:53Z", "countryCode": "US" }, "geometry": { "type": "Point", "coordinates": [ -85.150855, 41.066464 ] } },
{ "type": "Feature", "properties": { "decimalLatitude": 43.229237, "decimalLongitude": -84.448117, "eventDate": "2025-06-23T00:00:00Z", "countryCode": "US" }, "geometry": { "type": "Point", "coordinates": [ -84.448117, 43.229237 ] } },
{ "type": "Feature", "properties": { "decimalLatitude": 42.241581, "decimalLongitude": -85.831291, "eventDate": "2025-06-20T00:00:00Z", "countryCode": "US" }, "geometry": { "type": "Point", "coordinates": [ -85.831291, 42.241581 ] } },
{ "type": "Feature", "properties": { "decimalLatitude": 41.545639, "decimalLongitude": -74.512028, "eventDate": "2025-06-23T00:00:00Z", "countryCode": "US" }, "geometry": { "type": "Point", "coordinates": [ -74.512028, 41.545639 ] } },
{ "type": "Feature", "properties": { "decimalLatitude": 41.214057, "decimalLongitude": -74.455861, "eventDate": "2025-06-18T00:00:00Z", "countryCode": "US" }, "geometry": { "type": "Point", "coordinates": [ -74.455861, 41.214057 ] } },
{ "type": "Feature", "properties": { "decimalLatitude": 41.018765, "decimalLongitude": -74.7369, "eventDate": "2025-06-21T00:00:00Z", "countryCode": "US" }, "geometry": { "type": "Point", "coordinates": [ -74.7369, 41.018765 ] } },
{ "type": "Feature", "properties": { "decimalLatitude": 34.040405, "decimalLongitude": -116.941605, "eventDate": "2025-06-20T00:00:00Z", "countryCode": "US" }, "geometry": { "type": "Point", "coordinates": [ -116.941605, 34.040405 ] } },
{ "type": "Feature", "properties": { "decimalLatitude": 42.110486, "decimalLongitude": -74.032507, "eventDate": "2025-06-25T00:00:00Z", "countryCode": "US" }, "geometry": { "type": "Point", "coordinates": [ -74.032507, 42.110486 ] } },
{ "type": "Feature", "properties": { "decimalLatitude": 41.658227, "decimalLongitude": -87.92456, "eventDate": "2025-06-24T00:00:00Z", "countryCode": "US" }, "geometry": { "type": "Point", "coordinates": [ -87.92456, 41.658227 ] } },
{ "type": "Feature", "properties": { "decimalLatitude": 37.435757, "decimalLongitude": -79.91425, "eventDate": "2025-06-28T00:00:00Z", "countryCode": "US" }, "geometry": { "type": "Point", "coordinates": [ -79.91425, 37.435757 ] } },
{ "type": "Feature", "properties": { "decimalLatitude": 41.617752, "decimalLongitude": -74.426708, "eventDate": "2025-06-29T00:00:00Z", "countryCode": "US" }, "geometry": { "type": "Point", "coordinates": [ -74.426708, 41.617752 ] } },
{ "type": "Feature", "properties": { "decimalLatitude": 41.608672, "decimalLongitude": -70.545766, "eventDate": "2025-06-29T00:00:00Z", "countryCode": "US" }, "geometry": { "type": "Point", "coordinates": [ -70.545766, 41.608672 ] } },
{ "type": "Feature", "properties": { "decimalLatitude": 34.040405, "decimalLongitude": -116.941605, "eventDate": "2025-06-20T00:00:00Z", "countryCode": "US" }, "geometry": { "type": "Point", "coordinates": [ -116.941605, 34.040405 ] } },
{ "type": "Feature", "properties": { "decimalLatitude": 41.981857, "decimalLongitude": -73.918344, "eventDate": "2025-06-28T00:00:00Z", "countryCode": "US" }, "geometry": { "type": "Point", "coordinates": [ -73.918344, 41.981857 ] } },
{ "type": "Feature", "properties": { "decimalLatitude": 41.482003, "decimalLongitude": -73.45475, "eventDate": "2025-06-21T09:21:33Z", "countryCode": "US" }, "geometry": { "type": "Point", "coordinates": [ -73.45475, 41.482003 ] } },
{ "type": "Feature", "properties": { "decimalLatitude": 39.540337, "decimalLongitude": -81.326637, "eventDate": "2025-06-18T13:42:07Z", "countryCode": "US" }, "geometry": { "type": "Point", "coordinates": [ -81.326637, 39.540337 ] } },
{ "type": "Feature", "properties": { "decimalLatitude": 41.622658, "decimalLongitude": -72.650266, "eventDate": "2025-06-19T15:49:14Z", "countryCode": "US" }, "geometry": { "type": "Point", "coordinates": [ -72.650266, 41.622658 ] } },
{ "type": "Feature", "properties": { "decimalLatitude": 41.449694, "decimalLongitude": -72.990508, "eventDate": "2025-06-20T11:48:00Z", "countryCode": "US" }, "geometry": { "type": "Point", "coordinates": [ -72.990508, 41.449694 ] } },
{ "type": "Feature", "properties": { "decimalLatitude": 34.901897, "decimalLongitude": -119.854783, "eventDate": "2025-06-14T15:11:39Z", "countryCode": "US" }, "geometry": { "type": "Point", "coordinates": [ -119.854783, 34.901897 ] } },
{ "type": "Feature", "properties": { "decimalLatitude": 39.395263, "decimalLongitude": -88.157403, "eventDate": "2025-06-20T10:20:51Z", "countryCode": "US" }, "geometry": { "type": "Point", "coordinates": [ -88.157403, 39.395263 ] } },
{ "type": "Feature", "properties": { "decimalLatitude": 41.334268, "decimalLongitude": -73.111996, "eventDate": "2025-06-19T11:27:00Z", "countryCode": "US" }, "geometry": { "type": "Point", "coordinates": [ -73.111996, 41.334268 ] } },
{ "type": "Feature", "properties": { "decimalLatitude": 40.739915, "decimalLongitude": -73.740891, "eventDate": "2025-06-20T09:01:00Z", "countryCode": "US" }, "geometry": { "type": "Point", "coordinates": [ -73.740891, 40.739915 ] } },
{ "type": "Feature", "properties": { "decimalLatitude": 39.137842, "decimalLongitude": -84.316589, "eventDate": "2025-06-19T13:41:00Z", "countryCode": "US" }, "geometry": { "type": "Point", "coordinates": [ -84.316589, 39.137842 ] } },
{ "type": "Feature", "properties": { "decimalLatitude": 41.643288, "decimalLongitude": -71.428963, "eventDate": "2025-06-19T05:53:16Z", "countryCode": "US" }, "geometry": { "type": "Point", "coordinates": [ -71.428963, 41.643288 ] } },
{ "type": "Feature", "properties": { "decimalLatitude": 37.721124, "decimalLongitude": -84.330791, "eventDate": "2025-06-16T18:07:26Z", "countryCode": "US" }, "geometry": { "type": "Point", "coordinates": [ -84.330791, 37.721124 ] } },
{ "type": "Feature", "properties": { "decimalLatitude": 35.071153, "decimalLongitude": -85.369317, "eventDate": "2025-06-24T06:44:54Z", "countryCode": "US" }, "geometry": { "type": "Point", "coordinates": [ -85.369317, 35.071153 ] } },
{ "type": "Feature", "properties": { "decimalLatitude": 33.796245, "decimalLongitude": -116.776917, "eventDate": "2025-06-22T09:28:00Z", "countryCode": "US" }, "geometry": { "type": "Point", "coordinates": [ -116.776917, 33.796245 ] } },
{ "type": "Feature", "properties": { "decimalLatitude": 35.615292, "decimalLongitude": -82.550155, "eventDate": "2025-06-24T16:20:15Z", "countryCode": "US" }, "geometry": { "type": "Point", "coordinates": [ -82.550155, 35.615292 ] } },
{ "type": "Feature", "properties": { "decimalLatitude": 38.962381, "decimalLongitude": -77.048968, "eventDate": "2025-06-23T10:31:09Z", "countryCode": "US" }, "geometry": { "type": "Point", "coordinates": [ -77.048968, 38.962381 ] } },
{ "type": "Feature", "properties": { "decimalLatitude": 34.901895, "decimalLongitude": -119.853692, "eventDate": "2025-06-14T15:30:06Z", "countryCode": "US" }, "geometry": { "type": "Point", "coordinates": [ -119.853692, 34.901895 ] } },
{ "type": "Feature", "properties": { "decimalLatitude": 37.3619, "decimalLongitude": -80.173112, "eventDate": "2025-06-19T14:34:08Z", "countryCode": "US" }, "geometry": { "type": "Point", "coordinates": [ -80.173112, 37.3619 ] } },
{ "type": "Feature", "properties": { "decimalLatitude": 33.732712, "decimalLongitude": -116.754708, "eventDate": "2025-06-22T10:42:55Z", "countryCode": "US" }, "geometry": { "type": "Point", "coordinates": [ -116.754708, 33.732712 ] } },
{ "type": "Feature", "properties": { "decimalLatitude": 36.369129, "decimalLongitude": -121.565491, "eventDate": "2025-06-07T13:00:00Z", "countryCode": "US" }, "geometry": { "type": "Point", "coordinates": [ -121.565491, 36.369129 ] } },
{ "type": "Feature", "properties": { "decimalLatitude": 36.060272, "decimalLongitude": -79.067958, "eventDate": "2025-06-18T03:51:51Z", "countryCode": "US" }, "geometry": { "type": "Point", "coordinates": [ -79.067958, 36.060272 ] } },
{ "type": "Feature", "properties": { "decimalLatitude": 39.617951, "decimalLongitude": -84.1186, "eventDate": "2025-06-20T12:02:00Z", "countryCode": "US" }, "geometry": { "type": "Point", "coordinates": [ -84.1186, 39.617951 ] } },
{ "type": "Feature", "properties": { "decimalLatitude": 34.037017, "decimalLongitude": -116.944034, "eventDate": "2025-06-20T10:41:00Z", "countryCode": "US" }, "geometry": { "type": "Point", "coordinates": [ -116.944034, 34.037017 ] } },
{ "type": "Feature", "properties": { "decimalLatitude": 42.246676, "decimalLongitude": -85.83079, "eventDate": "2025-06-20T09:33:00Z", "countryCode": "US" }, "geometry": { "type": "Point", "coordinates": [ -85.83079, 42.246676 ] } },
{ "type": "Feature", "properties": { "decimalLatitude": 41.643172, "decimalLongitude": -71.42907, "eventDate": "2025-06-24T06:15:05Z", "countryCode": "US" }, "geometry": { "type": "Point", "coordinates": [ -71.42907, 41.643172 ] } },
{ "type": "Feature", "properties": { "decimalLatitude": 37.160571, "decimalLongitude": -121.898355, "eventDate": "2025-06-13T14:04:00Z", "countryCode": "US" }, "geometry": { "type": "Point", "coordinates": [ -121.898355, 37.160571 ] } },
{ "type": "Feature", "properties": { "decimalLatitude": 39.632896, "decimalLongitude": -77.711075, "eventDate": "2025-06-18T11:06:01Z", "countryCode": "US" }, "geometry": { "type": "Point", "coordinates": [ -77.711075, 39.632896 ] } },
{ "type": "Feature", "properties": { "decimalLatitude": 38.015266, "decimalLongitude": -84.376403, "eventDate": "2025-06-19T16:55:20Z", "countryCode": "US" }, "geometry": { "type": "Point", "coordinates": [ -84.376403, 38.015266 ] } },
{ "type": "Feature", "properties": { "decimalLatitude": 41.663483, "decimalLongitude": -70.361695, "eventDate": "2025-06-23T11:12:18Z", "countryCode": "US" }, "geometry": { "type": "Point", "coordinates": [ -70.361695, 41.663483 ] } },
{ "type": "Feature", "properties": { "decimalLatitude": 42.369605, "decimalLongitude": -71.144233, "eventDate": "2025-06-20T15:42:38Z", "countryCode": "US" }, "geometry": { "type": "Point", "coordinates": [ -71.144233, 42.369605 ] } },
{ "type": "Feature", "properties": { "decimalLatitude": 40.699624, "decimalLongitude": -73.856033, "eventDate": "2025-06-24T15:59:19Z", "countryCode": "US" }, "geometry": { "type": "Point", "coordinates": [ -73.856033, 40.699624 ] } },
{ "type": "Feature", "properties": { "decimalLatitude": 34.037902, "decimalLongitude": -116.943257, "eventDate": "2025-06-20T10:56:59Z", "countryCode": "US" }, "geometry": { "type": "Point", "coordinates": [ -116.943257, 34.037902 ] } },
{ "type": "Feature", "properties": { "decimalLatitude": 39.057782, "decimalLongitude": -78.057981, "eventDate": "2025-06-21T12:57:00Z", "countryCode": "US" }, "geometry": { "type": "Point", "coordinates": [ -78.057981, 39.057782 ] } },
{ "type": "Feature", "properties": { "decimalLatitude": 41.229793, "decimalLongitude": -73.382187, "eventDate": "2025-06-18T12:23:46Z", "countryCode": "US" }, "geometry": { "type": "Point", "coordinates": [ -73.382187, 41.229793 ] } },
{ "type": "Feature", "properties": { "decimalLatitude": 40.27295, "decimalLongitude": -76.393693, "eventDate": "2025-06-18T12:20:31Z", "countryCode": "US" }, "geometry": { "type": "Point", "coordinates": [ -76.393693, 40.27295 ] } },
{ "type": "Feature", "properties": { "decimalLatitude": 39.21824, "decimalLongitude": -84.408538, "eventDate": "2025-06-19T09:13:10Z", "countryCode": "US" }, "geometry": { "type": "Point", "coordinates": [ -84.408538, 39.21824 ] } },
{ "type": "Feature", "properties": { "decimalLatitude": 40.695113, "decimalLongitude": -74.521342, "eventDate": "2025-06-18T13:19:00Z", "countryCode": "US" }, "geometry": { "type": "Point", "coordinates": [ -74.521342, 40.695113 ] } },
{ "type": "Feature", "properties": { "decimalLatitude": 37.888233, "decimalLongitude": -84.398453, "eventDate": "2025-06-19T09:54:18Z", "countryCode": "US" }, "geometry": { "type": "Point", "coordinates": [ -84.398453, 37.888233 ] } },
{ "type": "Feature", "properties": { "decimalLatitude": 40.856598, "decimalLongitude": -75.298935, "eventDate": "2025-06-20T15:55:00Z", "countryCode": "US" }, "geometry": { "type": "Point", "coordinates": [ -75.298935, 40.856598 ] } },
{ "type": "Feature", "properties": { "decimalLatitude": 42.78396, "decimalLongitude": -71.624143, "eventDate": "2025-06-24T08:26:00Z", "countryCode": "US" }, "geometry": { "type": "Point", "coordinates": [ -71.624143, 42.78396 ] } },
{ "type": "Feature", "properties": { "decimalLatitude": 41.74903, "decimalLongitude": -72.489647, "eventDate": "2025-06-21T10:51:15Z", "countryCode": "US" }, "geometry": { "type": "Point", "coordinates": [ -72.489647, 41.74903 ] } },
{ "type": "Feature", "properties": { "decimalLatitude": 40.397982, "decimalLongitude": -79.95288, "eventDate": "2025-06-24T10:46:48Z", "countryCode": "US" }, "geometry": { "type": "Point", "coordinates": [ -79.95288, 40.397982 ] } },
{ "type": "Feature", "properties": { "decimalLatitude": 39.67345, "decimalLongitude": -84.007614, "eventDate": "2025-06-24T12:38:37Z", "countryCode": "US" }, "geometry": { "type": "Point", "coordinates": [ -84.007614, 39.67345 ] } },
{ "type": "Feature", "properties": { "decimalLatitude": 38.104449, "decimalLongitude": -85.009346, "eventDate": "2025-06-22T10:23:20Z", "countryCode": "US" }, "geometry": { "type": "Point", "coordinates": [ -85.009346, 38.104449 ] } },
{ "type": "Feature", "properties": { "decimalLatitude": 38.015289, "decimalLongitude": -84.37638, "eventDate": "2025-06-19T16:52:05Z", "countryCode": "US" }, "geometry": { "type": "Point", "coordinates": [ -84.37638, 38.015289 ] } },
{ "type": "Feature", "properties": { "decimalLatitude": 41.294424, "decimalLongitude": -73.969938, "eventDate": "2025-06-20T13:50:04Z", "countryCode": "US" }, "geometry": { "type": "Point", "coordinates": [ -73.969938, 41.294424 ] } },
{ "type": "Feature", "properties": { "decimalLatitude": 40.672305, "decimalLongitude": -74.621758, "eventDate": "2025-06-22T15:02:53Z", "countryCode": "US" }, "geometry": { "type": "Point", "coordinates": [ -74.621758, 40.672305 ] } },
{ "type": "Feature", "properties": { "decimalLatitude": 37.987523, "decimalLongitude": -84.297557, "eventDate": "2025-06-24T15:15:49Z", "countryCode": "US" }, "geometry": { "type": "Point", "coordinates": [ -84.297557, 37.987523 ] } },
{ "type": "Feature", "properties": { "decimalLatitude": 40.980712, "decimalLongitude": -72.856315, "eventDate": "2025-06-22T11:24:50Z", "countryCode": "US" }, "geometry": { "type": "Point", "coordinates": [ -72.856315, 40.980712 ] } },
{ "type": "Feature", "properties": { "decimalLatitude": 40.783561, "decimalLongitude": -74.571271, "eventDate": "2025-06-19T10:26:00Z", "countryCode": "US" }, "geometry": { "type": "Point", "coordinates": [ -74.571271, 40.783561 ] } },
{ "type": "Feature", "properties": { "decimalLatitude": 43.122045, "decimalLongitude": -89.673278, "eventDate": "2025-06-20T14:12:03Z", "countryCode": "US" }, "geometry": { "type": "Point", "coordinates": [ -89.673278, 43.122045 ] } },
{ "type": "Feature", "properties": { "decimalLatitude": 41.068583, "decimalLongitude": -74.301888, "eventDate": "2025-06-20T14:15:18Z", "countryCode": "US" }, "geometry": { "type": "Point", "coordinates": [ -74.301888, 41.068583 ] } },
{ "type": "Feature", "properties": { "decimalLatitude": 40.140505, "decimalLongitude": -83.023355, "eventDate": "2025-06-20T12:32:00Z", "countryCode": "US" }, "geometry": { "type": "Point", "coordinates": [ -83.023355, 40.140505 ] } },
{ "type": "Feature", "properties": { "decimalLatitude": 40.81302, "decimalLongitude": -74.640158, "eventDate": "2025-06-23T17:19:13Z", "countryCode": "US" }, "geometry": { "type": "Point", "coordinates": [ -74.640158, 40.81302 ] } },
{ "type": "Feature", "properties": { "decimalLatitude": 42.78396, "decimalLongitude": -71.624143, "eventDate": "2025-06-24T09:06:00Z", "countryCode": "US" }, "geometry": { "type": "Point", "coordinates": [ -71.624143, 42.78396 ] } },
{ "type": "Feature", "properties": { "decimalLatitude": 42.386724, "decimalLongitude": -89.002479, "eventDate": "2025-06-22T13:42:10Z", "countryCode": "US" }, "geometry": { "type": "Point", "coordinates": [ -89.002479, 42.386724 ] } },
{ "type": "Feature", "properties": { "decimalLatitude": 40.140506, "decimalLongitude": -83.023347, "eventDate": "2025-06-20T12:33:00Z", "countryCode": "US" }, "geometry": { "type": "Point", "coordinates": [ -83.023347, 40.140506 ] } },
{ "type": "Feature", "properties": { "decimalLatitude": 39.218292, "decimalLongitude": -85.740351, "eventDate": "2025-06-15T15:47:43Z", "countryCode": "US" }, "geometry": { "type": "Point", "coordinates": [ -85.740351, 39.218292 ] } },
{ "type": "Feature", "properties": { "decimalLatitude": 42.153247, "decimalLongitude": -84.053274, "eventDate": "2025-06-21T11:31:00Z", "countryCode": "US" }, "geometry": { "type": "Point", "coordinates": [ -84.053274, 42.153247 ] } },
{ "type": "Feature", "properties": { "decimalLatitude": 40.900078, "decimalLongitude": -73.891433, "eventDate": "2025-06-11T13:23:12Z", "countryCode": "US" }, "geometry": { "type": "Point", "coordinates": [ -73.891433, 40.900078 ] } },
{ "type": "Feature", "properties": { "decimalLatitude": 37.948189, "decimalLongitude": -84.599556, "eventDate": "2025-06-20T14:47:52Z", "countryCode": "US" }, "geometry": { "type": "Point", "coordinates": [ -84.599556, 37.948189 ] } },
{ "type": "Feature", "properties": { "decimalLatitude": 36.362323, "decimalLongitude": -121.566748, "eventDate": "2025-06-07T10:12:00Z", "countryCode": "US" }, "geometry": { "type": "Point", "coordinates": [ -121.566748, 36.362323 ] } },
{ "type": "Feature", "properties": { "decimalLatitude": 40.64933, "decimalLongitude": -74.489969, "eventDate": "2025-06-20T11:01:00Z", "countryCode": "US" }, "geometry": { "type": "Point", "coordinates": [ -74.489969, 40.64933 ] } },
{ "type": "Feature", "properties": { "decimalLatitude": 36.106383, "decimalLongitude": -82.85447, "eventDate": "2025-06-18T17:45:08Z", "countryCode": "US" }, "geometry": { "type": "Point", "coordinates": [ -82.85447, 36.106383 ] } },
{ "type": "Feature", "properties": { "decimalLatitude": 41.193192, "decimalLongitude": -73.357917, "eventDate": "2025-06-16T12:02:12Z", "countryCode": "US" }, "geometry": { "type": "Point", "coordinates": [ -73.357917, 41.193192 ] } },
{ "type": "Feature", "properties": { "decimalLatitude": 35.433525, "decimalLongitude": -82.37097, "eventDate": "2025-06-04T19:50:22Z", "countryCode": "US" }, "geometry": { "type": "Point", "coordinates": [ -82.37097, 35.433525 ] } },
{ "type": "Feature", "properties": { "decimalLatitude": 38.655809, "decimalLongitude": -82.334606, "eventDate": "2025-06-21T12:16:00Z", "countryCode": "US" }, "geometry": { "type": "Point", "coordinates": [ -82.334606, 38.655809 ] } },
{ "type": "Feature", "properties": { "decimalLatitude": 40.832295, "decimalLongitude": -83.653495, "eventDate": "2025-06-19T17:21:50Z", "countryCode": "US" }, "geometry": { "type": "Point", "coordinates": [ -83.653495, 40.832295 ] } },
{ "type": "Feature", "properties": { "decimalLatitude": 41.078009, "decimalLongitude": -75.131208, "eventDate": "2025-06-20T07:52:01Z", "countryCode": "US" }, "geometry": { "type": "Point", "coordinates": [ -75.131208, 41.078009 ] } },
{ "type": "Feature", "properties": { "decimalLatitude": 41.221153, "decimalLongitude": -73.643095, "eventDate": "2025-06-18T11:59:52Z", "countryCode": "US" }, "geometry": { "type": "Point", "coordinates": [ -73.643095, 41.221153 ] } },
{ "type": "Feature", "properties": { "decimalLatitude": 35.400181, "decimalLongitude": -82.222244, "eventDate": "2025-06-21T13:25:17Z", "countryCode": "US" }, "geometry": { "type": "Point", "coordinates": [ -82.222244, 35.400181 ] } },
{ "type": "Feature", "properties": { "decimalLatitude": 39.142644, "decimalLongitude": -76.83469, "eventDate": "2025-06-23T11:36:00Z", "countryCode": "US" }, "geometry": { "type": "Point", "coordinates": [ -76.83469, 39.142644 ] } },
{ "type": "Feature", "properties": { "decimalLatitude": 40.704527, "decimalLongitude": -73.848349, "eventDate": "2025-06-18T16:08:11Z", "countryCode": "US" }, "geometry": { "type": "Point", "coordinates": [ -73.848349, 40.704527 ] } },
{ "type": "Feature", "properties": { "decimalLatitude": 40.135957, "decimalLongitude": -83.028005, "eventDate": "2025-06-20T13:54:00Z", "countryCode": "US" }, "geometry": { "type": "Point", "coordinates": [ -83.028005, 40.135957 ] } },
{ "type": "Feature", "properties": { "decimalLatitude": 39.669105, "decimalLongitude": -76.713547, "eventDate": "2025-06-22T14:16:46Z", "countryCode": "US" }, "geometry": { "type": "Point", "coordinates": [ -76.713547, 39.669105 ] } },
{ "type": "Feature", "properties": { "decimalLatitude": 42.270428, "decimalLongitude": -87.917528, "eventDate": "2025-06-24T07:51:02Z", "countryCode": "US" }, "geometry": { "type": "Point", "coordinates": [ -87.917528, 42.270428 ] } },
{ "type": "Feature", "properties": { "decimalLatitude": 35.807498, "decimalLongitude": -92.318862, "eventDate": "2025-06-09T13:56:00Z", "countryCode": "US" }, "geometry": { "type": "Point", "coordinates": [ -92.318862, 35.807498 ] } },
{ "type": "Feature", "properties": { "decimalLatitude": 43.518271, "decimalLongitude": -71.411474, "eventDate": "2025-06-21T15:46:58Z", "countryCode": "US" }, "geometry": { "type": "Point", "coordinates": [ -71.411474, 43.518271 ] } },
{ "type": "Feature", "properties": { "decimalLatitude": 40.702715, "decimalLongitude": -73.85049, "eventDate": "2025-06-21T11:49:00Z", "countryCode": "US" }, "geometry": { "type": "Point", "coordinates": [ -73.85049, 40.702715 ] } },
{ "type": "Feature", "properties": { "decimalLatitude": 41.418557, "decimalLongitude": -83.854465, "eventDate": "2025-06-23T12:40:00Z", "countryCode": "US" }, "geometry": { "type": "Point", "coordinates": [ -83.854465, 41.418557 ] } },
{ "type": "Feature", "properties": { "decimalLatitude": 36.345771, "decimalLongitude": -82.244918, "eventDate": "2025-06-17T14:37:41Z", "countryCode": "US" }, "geometry": { "type": "Point", "coordinates": [ -82.244918, 36.345771 ] } },
{ "type": "Feature", "properties": { "decimalLatitude": 34.064392, "decimalLongitude": -116.982588, "eventDate": "2025-06-22T12:13:46Z", "countryCode": "US" }, "geometry": { "type": "Point", "coordinates": [ -116.982588, 34.064392 ] } },
{ "type": "Feature", "properties": { "decimalLatitude": 41.460236, "decimalLongitude": -73.260315, "eventDate": "2025-06-29T00:00:00Z", "countryCode": "US" }, "geometry": { "type": "Point", "coordinates": [ -73.260315, 41.460236 ] } },
{ "type": "Feature", "properties": { "decimalLatitude": 41.498863, "decimalLongitude": -73.227317, "eventDate": "2025-06-29T00:00:00Z", "countryCode": "US" }, "geometry": { "type": "Point", "coordinates": [ -73.227317, 41.498863 ] } },
{ "type": "Feature", "properties": { "decimalLatitude": 41.022448, "decimalLongitude": -74.259416, "eventDate": "2025-06-26T08:30:00Z", "countryCode": "US" }, "geometry": { "type": "Point", "coordinates": [ -74.259416, 41.022448 ] } },
{ "type": "Feature", "properties": { "decimalLatitude": 42.387164, "decimalLongitude": -71.146236, "eventDate": "2025-06-26T17:03:03Z", "countryCode": "US" }, "geometry": { "type": "Point", "coordinates": [ -71.146236, 42.387164 ] } },
{ "type": "Feature", "properties": { "decimalLatitude": 41.614488, "decimalLongitude": -83.806813, "eventDate": "2025-06-22T20:32:03Z", "countryCode": "US" }, "geometry": { "type": "Point", "coordinates": [ -83.806813, 41.614488 ] } },
{ "type": "Feature", "properties": { "decimalLatitude": 41.3268, "decimalLongitude": -72.024008, "eventDate": "2025-06-24T17:27:49Z", "countryCode": "US" }, "geometry": { "type": "Point", "coordinates": [ -72.024008, 41.3268 ] } },
{ "type": "Feature", "properties": { "decimalLatitude": 41.395737, "decimalLongitude": -70.570224, "eventDate": "2025-06-25T12:40:00Z", "countryCode": "US" }, "geometry": { "type": "Point", "coordinates": [ -70.570224, 41.395737 ] } },
{ "type": "Feature", "properties": { "decimalLatitude": 33.668783, "decimalLongitude": -116.699966, "eventDate": "2025-06-22T14:52:00Z", "countryCode": "US" }, "geometry": { "type": "Point", "coordinates": [ -116.699966, 33.668783 ] } },
{ "type": "Feature", "properties": { "decimalLatitude": 39.463172, "decimalLongitude": -88.155739, "eventDate": "2025-06-16T09:41:35Z", "countryCode": "US" }, "geometry": { "type": "Point", "coordinates": [ -88.155739, 39.463172 ] } },
{ "type": "Feature", "properties": { "decimalLatitude": 35.86377, "decimalLongitude": -83.556884, "eventDate": "2025-06-25T10:28:56Z", "countryCode": "US" }, "geometry": { "type": "Point", "coordinates": [ -83.556884, 35.86377 ] } },
{ "type": "Feature", "properties": { "decimalLatitude": 33.271653, "decimalLongitude": -116.642854, "eventDate": "2025-06-11T17:05:00Z", "countryCode": "US" }, "geometry": { "type": "Point", "coordinates": [ -116.642854, 33.271653 ] } },
{ "type": "Feature", "properties": { "decimalLatitude": 33.267879, "decimalLongitude": -116.637109, "eventDate": "2025-06-11T14:31:00Z", "countryCode": "US" }, "geometry": { "type": "Point", "coordinates": [ -116.637109, 33.267879 ] } },
{ "type": "Feature", "properties": { "decimalLatitude": 39.462659, "decimalLongitude": -88.155576, "eventDate": "2025-06-16T11:16:12Z", "countryCode": "US" }, "geometry": { "type": "Point", "coordinates": [ -88.155576, 39.462659 ] } },
{ "type": "Feature", "properties": { "decimalLatitude": 39.46268, "decimalLongitude": -88.155944, "eventDate": "2025-06-17T11:04:19Z", "countryCode": "US" }, "geometry": { "type": "Point", "coordinates": [ -88.155944, 39.46268 ] } },
{ "type": "Feature", "properties": { "decimalLatitude": 40.770051, "decimalLongitude": -74.670549, "eventDate": "2025-06-22T15:02:00Z", "countryCode": "US" }, "geometry": { "type": "Point", "coordinates": [ -74.670549, 40.770051 ] } },
{ "type": "Feature", "properties": { "decimalLatitude": 42.419838, "decimalLongitude": -71.210328, "eventDate": "2025-06-29T14:52:28Z", "countryCode": "US" }, "geometry": { "type": "Point", "coordinates": [ -71.210328, 42.419838 ] } },
{ "type": "Feature", "properties": { "decimalLatitude": 42.27998, "decimalLongitude": -85.130267, "eventDate": "2025-06-27T05:28:00Z", "countryCode": "US" }, "geometry": { "type": "Point", "coordinates": [ -85.130267, 42.27998 ] } },
{ "type": "Feature", "properties": { "decimalLatitude": 42.302737, "decimalLongitude": -83.657892, "eventDate": "2025-06-28T12:12:00Z", "countryCode": "US" }, "geometry": { "type": "Point", "coordinates": [ -83.657892, 42.302737 ] } },
{ "type": "Feature", "properties": { "decimalLatitude": 44.606192, "decimalLongitude": -87.844927, "eventDate": "2025-06-30T16:03:00Z", "countryCode": "US" }, "geometry": { "type": "Point", "coordinates": [ -87.844927, 44.606192 ] } },
{ "type": "Feature", "properties": { "decimalLatitude": 41.35935, "decimalLongitude": -70.633954, "eventDate": "2025-06-29T11:05:00Z", "countryCode": "US" }, "geometry": { "type": "Point", "coordinates": [ -70.633954, 41.35935 ] } },
{ "type": "Feature", "properties": { "decimalLatitude": 39.948738, "decimalLongitude": -82.924317, "eventDate": "2025-06-27T16:23:09Z", "countryCode": "US" }, "geometry": { "type": "Point", "coordinates": [ -82.924317, 39.948738 ] } },
{ "type": "Feature", "properties": { "decimalLatitude": 40.662908, "decimalLongitude": -81.342672, "eventDate": "2025-06-27T10:45:00Z", "countryCode": "US" }, "geometry": { "type": "Point", "coordinates": [ -81.342672, 40.662908 ] } },
{ "type": "Feature", "properties": { "decimalLatitude": 39.742959, "decimalLongitude": -76.727494, "eventDate": "2025-06-29T09:11:00Z", "countryCode": "US" }, "geometry": { "type": "Point", "coordinates": [ -76.727494, 39.742959 ] } },
{ "type": "Feature", "properties": { "decimalLatitude": 42.302737, "decimalLongitude": -83.657892, "eventDate": "2025-06-28T12:12:00Z", "countryCode": "US" }, "geometry": { "type": "Point", "coordinates": [ -83.657892, 42.302737 ] } }
]
}
