{
"type": "FeatureCollection",
"name": "symmachia-rubina-gbif",
"crs": { "type": "name", "properties": { "name": "urn:ogc:def:crs:OGC:1.3:CRS84" } },
"features": [
{ "type": "Feature", "properties": { "decimalLatitude": 11.01602, "decimalLongitude": -85.38053, "eventDate": "2015-07-22T00:00:00Z", "countryCode": "CR" }, "geometry": { "type": "Point", "coordinates": [ -85.38053, 11.01602 ] } },
{ "type": "Feature", "properties": { "decimalLatitude": 11.01602, "decimalLongitude": -85.38053, "eventDate": "2015-07-14T00:00:00Z", "countryCode": "CR" }, "geometry": { "type": "Point", "coordinates": [ -85.38053, 11.01602 ] } },
{ "type": "Feature", "properties": { "decimalLatitude": -12.04167, "decimalLongitude": -69.67098, "eventDate": "2017-10-01T00:00:00Z", "countryCode": "PE" }, "geometry": { "type": "Point", "coordinates": [ -69.67098, -12.04167 ] } },
{ "type": "Feature", "properties": { "decimalLatitude": -12.046711, "decimalLongitude": -69.6766, "eventDate": "2017-10-01T00:00:00Z", "countryCode": "PE" }, "geometry": { "type": "Point", "coordinates": [ -69.6766, -12.046711 ] } },
{ "type": "Feature", "properties": { "decimalLatitude": -12.046711, "decimalLongitude": -69.6766, "eventDate": "2017-10-08T00:00:00Z", "countryCode": "PE" }, "geometry": { "type": "Point", "coordinates": [ -69.6766, -12.046711 ] } },
{ "type": "Feature", "properties": { "decimalLatitude": -12.046711, "decimalLongitude": -69.6766, "eventDate": "2017-10-08T00:00:00Z", "countryCode": "PE" }, "geometry": { "type": "Point", "coordinates": [ -69.6766, -12.046711 ] } },
{ "type": "Feature", "properties": { "decimalLatitude": -12.046711, "decimalLongitude": -69.6766, "eventDate": "2017-10-09T00:00:00Z", "countryCode": "PE" }, "geometry": { "type": "Point", "coordinates": [ -69.6766, -12.046711 ] } },
{ "type": "Feature", "properties": { "decimalLatitude": -12.046711, "decimalLongitude": -69.6766, "eventDate": "2017-10-09T00:00:00Z", "countryCode": "PE" }, "geometry": { "type": "Point", "coordinates": [ -69.6766, -12.046711 ] } },
{ "type": "Feature", "properties": { "decimalLatitude": 17.738808, "decimalLongitude": -96.25477, "eventDate": "2018-06-27T00:00:00Z", "countryCode": "MX" }, "geometry": { "type": "Point", "coordinates": [ -96.25477, 17.738808 ] } },
{ "type": "Feature", "properties": { "decimalLatitude": 48.174072, "decimalLongitude": 11.540283, "eventDate": "2018-06-16T00:00:00Z", "countryCode": "DE" }, "geometry": { "type": "Point", "coordinates": [ 11.540283, 48.174072 ] } },
{ "type": "Feature", "properties": { "decimalLatitude": -12.04167, "decimalLongitude": -69.67098, "eventDate": "2019-09-23T00:00:00Z", "countryCode": "PE" }, "geometry": { "type": "Point", "coordinates": [ -69.67098, -12.04167 ] } },
{ "type": "Feature", "properties": { "decimalLatitude": 8.478, "decimalLongitude": -83.593, "eventDate": "2020-02-15T00:00:00Z", "countryCode": "CR" }, "geometry": { "type": "Point", "coordinates": [ -83.593, 8.478 ] } },
{ "type": "Feature", "properties": { "decimalLatitude": 5.069532, "decimalLongitude": -74.380305, "eventDate": "2020-08-25T00:00:00Z", "countryCode": "CO" }, "geometry": { "type": "Point", "coordinates": [ -74.380305, 5.069532 ] } },
{ "type": "Feature", "properties": { "decimalLatitude": 5.069457, "decimalLongitude": -74.380305, "eventDate": "2021-01-26T20:21:55Z", "countryCode": "CO" }, "geometry": { "type": "Point", "coordinates": [ -74.380305, 5.069457 ] } },
{ "type": "Feature", "properties": { "decimalLatitude": 5.069457, "decimalLongitude": -74.380305, "eventDate": "2022-10-21T23:14:32Z", "countryCode": "CO" }, "geometry": { "type": "Point", "coordinates": [ -74.380305, 5.069457 ] } },
{ "type": "Feature", "properties": { "decimalLatitude": 17.773287, "decimalLongitude": -96.307987, "eventDate": "2022-10-01T00:00:00Z", "countryCode": "MX" }, "geometry": { "type": "Point", "coordinates": [ -96.307987, 17.773287 ] } },
{ "type": "Feature", "properties": { "decimalLatitude": 17.773287, "decimalLongitude": -96.307987, "eventDate": "2022-10-02T00:00:00Z", "countryCode": "MX" }, "geometry": { "type": "Point", "coordinates": [ -96.307987, 17.773287 ] } },
{ "type": "Feature", "properties": { "decimalLatitude": -12.87059, "decimalLongitude": -71.373773, "eventDate": "2022-10-10T10:52:00Z", "countryCode": "PE" }, "geometry": { "type": "Point", "coordinates": [ -71.373773, -12.87059 ] } },
{ "type": "Feature", "properties": { "decimalLatitude": 9.128007, "decimalLongitude": -79.715169, "eventDate": "2023-01-21T00:00:00Z", "countryCode": "PA" }, "geometry": { "type": "Point", "coordinates": [ -79.715169, 9.128007 ] } },
{ "type": "Feature", "properties": { "decimalLatitude": 9.128007, "decimalLongitude": -79.715169, "eventDate": "2023-01-21T00:00:00Z", "countryCode": "PA" }, "geometry": { "type": "Point", "coordinates": [ -79.715169, 9.128007 ] } },
{ "type": "Feature", "properties": { "decimalLatitude": 4.747221, "decimalLongitude": -75.911629, "eventDate": "2023-06-28T11:36:00Z", "countryCode": "CO" }, "geometry": { "type": "Point", "coordinates": [ -75.911629, 4.747221 ] } },
{ "type": "Feature", "properties": { "decimalLatitude": 10.94087, "decimalLongitude": -85.33834, "eventDate": "2023-10-08T00:00:00Z", "countryCode": "CR" }, "geometry": { "type": "Point", "coordinates": [ -85.33834, 10.94087 ] } },
{ "type": "Feature", "properties": { "decimalLatitude": 5.069435, "decimalLongitude": -74.380305, "eventDate": "2023-10-01T09:21:49Z", "countryCode": "CO" }, "geometry": { "type": "Point", "coordinates": [ -74.380305, 5.069435 ] } },
{ "type": "Feature", "properties": { "decimalLatitude": 5.237387, "decimalLongitude": -76.084885, "eventDate": "2024-07-05T10:25:56Z", "countryCode": "CO" }, "geometry": { "type": "Point", "coordinates": [ -76.084885, 5.237387 ] } },
{ "type": "Feature", "properties": { "decimalLatitude": 5.069435, "decimalLongitude": -74.380305, "eventDate": "2024-07-29T09:11:30Z", "countryCode": "CO" }, "geometry": { "type": "Point", "coordinates": [ -74.380305, 5.069435 ] } },
{ "type": "Feature", "properties": { "decimalLatitude": 17.042479, "decimalLongitude": -89.059102, "eventDate": "2024-09-09T09:17:23Z", "countryCode": "BZ" }, "geometry": { "type": "Point", "coordinates": [ -89.059102, 17.042479 ] } },
{ "type": "Feature", "properties": { "decimalLatitude": 5.069435, "decimalLongitude": -74.380305, "eventDate": "2025-01-04T07:49:14Z", "countryCode": "CO" }, "geometry": { "type": "Point", "coordinates": [ -74.380305, 5.069435 ] } },
{ "type": "Feature", "properties": { "decimalLatitude": 7.69456, "decimalLongitude": -80.830831, "eventDate": "2025-02-06T15:02:08Z", "countryCode": "PA" }, "geometry": { "type": "Point", "coordinates": [ -80.830831, 7.69456 ] } },
{ "type": "Feature", "properties": { "decimalLatitude": 9.07767, "decimalLongitude": -79.649293, "eventDate": "2025-03-24T19:30:00Z", "countryCode": "PA" }, "geometry": { "type": "Point", "coordinates": [ -79.649293, 9.07767 ] } },
{ "type": "Feature", "properties": { "decimalLatitude": 5.069435, "decimalLongitude": -74.380305, "eventDate": "2025-04-13T09:58:59Z", "countryCode": "CO" }, "geometry": { "type": "Point", "coordinates": [ -74.380305, 5.069435 ] } },
{ "type": "Feature", "properties": { "decimalLatitude": 10.428966, "decimalLongitude": -84.004177, "eventDate": "2025-04-13T11:24:00Z", "countryCode": "CR" }, "geometry": { "type": "Point", "coordinates": [ -84.004177, 10.428966 ] } },
{ "type": "Feature", "properties": { "decimalLatitude": 10.472862, "decimalLongitude": -84.734087, "eventDate": "2025-06-28T11:10:59Z", "countryCode": "CR" }, "geometry": { "type": "Point", "coordinates": [ -84.734087, 10.472862 ] } }
]
}
