{
"type": "FeatureCollection",
"name": "taenaris-urania-gbif",
"crs": { "type": "name", "properties": { "name": "urn:ogc:def:crs:OGC:1.3:CRS84" } },
"features": [
{ "type": "Feature", "properties": { "decimalLatitude": -3.161755, "decimalLongitude": 129.069896, "eventDate": "2016-11-20T14:06:00Z", "countryCode": "ID" }, "geometry": { "type": "Point", "coordinates": [ 129.069896, -3.161755 ] } },
{ "type": "Feature", "properties": { "decimalLatitude": -3.053791, "decimalLongitude": 129.189101, "eventDate": "2023-11-16T09:09:00Z", "countryCode": "ID" }, "geometry": { "type": "Point", "coordinates": [ 129.189101, -3.053791 ] } },
{ "type": "Feature", "properties": { "decimalLatitude": -3.037315, "decimalLongitude": 129.127942, "eventDate": "2025-10-30T09:36:31Z", "countryCode": "ID" }, "geometry": { "type": "Point", "coordinates": [ 129.127942, -3.037315 ] } },
{ "type": "Feature", "properties": { "decimalLatitude": -2.746325, "decimalLongitude": 129.466716, "eventDate": "2025-10-31T08:38:29Z", "countryCode": "ID" }, "geometry": { "type": "Point", "coordinates": [ 129.466716, -2.746325 ] } },
{ "type": "Feature", "properties": { "decimalLatitude": -3.168518, "decimalLongitude": 126.240587, "eventDate": "2025-11-05T10:01:56Z", "countryCode": "ID" }, "geometry": { "type": "Point", "coordinates": [ 126.240587, -3.168518 ] } },
{ "type": "Feature", "properties": { "decimalLatitude": -3.137303, "decimalLongitude": 129.310642, "eventDate": "2025-12-12T14:04:00Z", "countryCode": "ID" }, "geometry": { "type": "Point", "coordinates": [ 129.310642, -3.137303 ] } }
]
}
