{
"type": "FeatureCollection",
"name": "thisbe-irenea-gbif",
"crs": { "type": "name", "properties": { "name": "urn:ogc:def:crs:OGC:1.3:CRS84" } },
"features": [
{ "type": "Feature", "properties": { "decimalLatitude": -20.761065, "decimalLongitude": -42.870163, "eventDate": "2016-04-28T11:10:44Z", "countryCode": "BR" }, "geometry": { "type": "Point", "coordinates": [ -42.870163, -20.761065 ] } },
{ "type": "Feature", "properties": { "decimalLatitude": -6.074946, "decimalLongitude": -76.975546, "eventDate": "2016-06-15T00:00:00Z", "countryCode": "PE" }, "geometry": { "type": "Point", "coordinates": [ -76.975546, -6.074946 ] } },
{ "type": "Feature", "properties": { "decimalLatitude": 17.773287, "decimalLongitude": -96.307987, "eventDate": "2016-07-26T00:00:00Z", "countryCode": "MX" }, "geometry": { "type": "Point", "coordinates": [ -96.307987, 17.773287 ] } },
{ "type": "Feature", "properties": { "decimalLatitude": -2.069606, "decimalLongitude": -74.317375, "eventDate": "2016-08-12T12:32:00Z", "countryCode": "PE" }, "geometry": { "type": "Point", "coordinates": [ -74.317375, -2.069606 ] } },
{ "type": "Feature", "properties": { "decimalLatitude": 9.848744, "decimalLongitude": -75.166897, "eventDate": "2016-08-07T00:00:00Z", "countryCode": "CO" }, "geometry": { "type": "Point", "coordinates": [ -75.166897, 9.848744 ] } },
{ "type": "Feature", "properties": { "decimalLatitude": 15.73708, "decimalLongitude": -87.459021, "eventDate": "2016-09-17T18:39:00Z", "countryCode": "HN" }, "geometry": { "type": "Point", "coordinates": [ -87.459021, 15.73708 ] } },
{ "type": "Feature", "properties": { "decimalLatitude": 0.653886, "decimalLongitude": -77.073496, "eventDate": "2017-02-22T20:56:00Z", "countryCode": "CO" }, "geometry": { "type": "Point", "coordinates": [ -77.073496, 0.653886 ] } },
{ "type": "Feature", "properties": { "decimalLatitude": 17.097365, "decimalLongitude": -88.974967, "eventDate": "2017-03-11T20:07:00Z", "countryCode": "BZ" }, "geometry": { "type": "Point", "coordinates": [ -88.974967, 17.097365 ] } },
{ "type": "Feature", "properties": { "decimalLatitude": -0.973987, "decimalLongitude": -62.925583, "eventDate": "2017-05-23T11:31:00Z", "countryCode": "BR" }, "geometry": { "type": "Point", "coordinates": [ -62.925583, -0.973987 ] } },
{ "type": "Feature", "properties": { "decimalLatitude": 10.450369, "decimalLongitude": -84.069266, "eventDate": "2017-06-13T14:37:00Z", "countryCode": "CR" }, "geometry": { "type": "Point", "coordinates": [ -84.069266, 10.450369 ] } },
{ "type": "Feature", "properties": { "decimalLatitude": -3.942813, "decimalLongitude": -70.158744, "eventDate": "2017-11-02T09:24:49Z", "countryCode": "CO" }, "geometry": { "type": "Point", "coordinates": [ -70.158744, -3.942813 ] } },
{ "type": "Feature", "properties": { "decimalLatitude": 1.175139, "decimalLongitude": -70.610778, "eventDate": "2018-01-28T00:00:00Z", "countryCode": "CO" }, "geometry": { "type": "Point", "coordinates": [ -70.610778, 1.175139 ] } },
{ "type": "Feature", "properties": { "decimalLatitude": 0.970882, "decimalLongitude": -69.949722, "eventDate": "2018-02-15T00:00:00Z", "countryCode": "CO" }, "geometry": { "type": "Point", "coordinates": [ -69.949722, 0.970882 ] } },
{ "type": "Feature", "properties": { "decimalLatitude": -22.827272, "decimalLongitude": -47.105867, "eventDate": "2018-04-03T00:00:00Z", "countryCode": "BR" }, "geometry": { "type": "Point", "coordinates": [ -47.105867, -22.827272 ] } },
{ "type": "Feature", "properties": { "decimalLatitude": 17.153971, "decimalLongitude": -88.851593, "eventDate": "2018-07-15T09:30:03Z", "countryCode": "BZ" }, "geometry": { "type": "Point", "coordinates": [ -88.851593, 17.153971 ] } },
{ "type": "Feature", "properties": { "decimalLatitude": 17.079207, "decimalLongitude": -89.026985, "eventDate": "2018-07-30T09:45:09Z", "countryCode": "BZ" }, "geometry": { "type": "Point", "coordinates": [ -89.026985, 17.079207 ] } },
{ "type": "Feature", "properties": { "decimalLatitude": 5.105927, "decimalLongitude": -75.505826, "eventDate": "2018-10-07T12:17:00Z", "countryCode": "CO" }, "geometry": { "type": "Point", "coordinates": [ -75.505826, 5.105927 ] } },
{ "type": "Feature", "properties": { "decimalLatitude": -4.248655, "decimalLongitude": -78.659909, "eventDate": "2018-11-23T00:00:00Z", "countryCode": "EC" }, "geometry": { "type": "Point", "coordinates": [ -78.659909, -4.248655 ] } },
{ "type": "Feature", "properties": { "decimalLatitude": -19.3381, "decimalLongitude": -45.930565, "eventDate": "2018-12-09T15:22:00Z", "countryCode": "BR" }, "geometry": { "type": "Point", "coordinates": [ -45.930565, -19.3381 ] } },
{ "type": "Feature", "properties": { "decimalLatitude": 16.780835, "decimalLongitude": -88.45891, "eventDate": "2019-02-25T19:32:00Z", "countryCode": "BZ" }, "geometry": { "type": "Point", "coordinates": [ -88.45891, 16.780835 ] } },
{ "type": "Feature", "properties": { "decimalLatitude": -1.521679, "decimalLongitude": -80.754876, "eventDate": "2019-03-15T00:00:00Z", "countryCode": "EC" }, "geometry": { "type": "Point", "coordinates": [ -80.754876, -1.521679 ] } },
{ "type": "Feature", "properties": { "decimalLatitude": -22.461951, "decimalLongitude": -43.092662, "eventDate": "2019-04-19T00:00:00Z", "countryCode": "BR" }, "geometry": { "type": "Point", "coordinates": [ -43.092662, -22.461951 ] } },
{ "type": "Feature", "properties": { "decimalLatitude": -3.009908, "decimalLongitude": -60.090248, "eventDate": "2019-05-19T16:15:32Z", "countryCode": "BR" }, "geometry": { "type": "Point", "coordinates": [ -60.090248, -3.009908 ] } },
{ "type": "Feature", "properties": { "decimalLatitude": 6.942523, "decimalLongitude": -73.035787, "eventDate": "2019-05-15T12:44:00Z", "countryCode": "CO" }, "geometry": { "type": "Point", "coordinates": [ -73.035787, 6.942523 ] } },
{ "type": "Feature", "properties": { "decimalLatitude": -3.013244, "decimalLongitude": -60.08681, "eventDate": "2019-05-19T00:00:00Z", "countryCode": "BR" }, "geometry": { "type": "Point", "coordinates": [ -60.08681, -3.013244 ] } },
{ "type": "Feature", "properties": { "decimalLatitude": 5.786093, "decimalLongitude": -76.014385, "eventDate": "2019-08-01T11:12:00Z", "countryCode": "CO" }, "geometry": { "type": "Point", "coordinates": [ -76.014385, 5.786093 ] } },
{ "type": "Feature", "properties": { "decimalLatitude": -4.291183, "decimalLongitude": -70.287139, "eventDate": "2019-08-18T00:00:00Z", "countryCode": "BR" }, "geometry": { "type": "Point", "coordinates": [ -70.287139, -4.291183 ] } },
{ "type": "Feature", "properties": { "decimalLatitude": 17.773287, "decimalLongitude": -96.307987, "eventDate": "2019-08-17T00:00:00Z", "countryCode": "MX" }, "geometry": { "type": "Point", "coordinates": [ -96.307987, 17.773287 ] } },
{ "type": "Feature", "properties": { "decimalLatitude": -0.093171, "decimalLongitude": -80.190056, "eventDate": "2019-08-02T13:09:47Z", "countryCode": "EC" }, "geometry": { "type": "Point", "coordinates": [ -80.190056, -0.093171 ] } },
{ "type": "Feature", "properties": { "decimalLatitude": 8.61327, "decimalLongitude": -80.138569, "eventDate": "2019-08-09T11:03:00Z", "countryCode": "PA" }, "geometry": { "type": "Point", "coordinates": [ -80.138569, 8.61327 ] } },
{ "type": "Feature", "properties": { "decimalLatitude": -11.834081, "decimalLongitude": -55.500025, "eventDate": "2019-10-01T09:50:00Z", "countryCode": "BR" }, "geometry": { "type": "Point", "coordinates": [ -55.500025, -11.834081 ] } },
{ "type": "Feature", "properties": { "decimalLatitude": -13.035105, "decimalLongitude": -71.524949, "eventDate": "2019-10-11T08:54:00Z", "countryCode": "PE" }, "geometry": { "type": "Point", "coordinates": [ -71.524949, -13.035105 ] } },
{ "type": "Feature", "properties": { "decimalLatitude": -13.035105, "decimalLongitude": -71.524949, "eventDate": "2019-10-06T11:15:00Z", "countryCode": "PE" }, "geometry": { "type": "Point", "coordinates": [ -71.524949, -13.035105 ] } },
{ "type": "Feature", "properties": { "decimalLatitude": 9.091586, "decimalLongitude": -83.628981, "eventDate": "2019-10-18T18:27:43Z", "countryCode": "CR" }, "geometry": { "type": "Point", "coordinates": [ -83.628981, 9.091586 ] } },
{ "type": "Feature", "properties": { "decimalLatitude": 16.794947, "decimalLongitude": -88.420452, "eventDate": "2019-11-07T08:58:00Z", "countryCode": "BZ" }, "geometry": { "type": "Point", "coordinates": [ -88.420452, 16.794947 ] } },
{ "type": "Feature", "properties": { "decimalLatitude": -0.73859, "decimalLongitude": -77.5533, "eventDate": "2019-12-04T09:05:00Z", "countryCode": "EC" }, "geometry": { "type": "Point", "coordinates": [ -77.5533, -0.73859 ] } },
{ "type": "Feature", "properties": { "decimalLatitude": -1.678771, "decimalLongitude": -80.811798, "eventDate": "2019-12-26T11:45:00Z", "countryCode": "EC" }, "geometry": { "type": "Point", "coordinates": [ -80.811798, -1.678771 ] } },
{ "type": "Feature", "properties": { "decimalLatitude": -0.469946, "decimalLongitude": -76.315312, "eventDate": "2020-01-02T11:40:00Z", "countryCode": "EC" }, "geometry": { "type": "Point", "coordinates": [ -76.315312, -0.469946 ] } },
{ "type": "Feature", "properties": { "decimalLatitude": 4.555481, "decimalLongitude": -75.741546, "eventDate": "2020-01-01T10:55:00Z", "countryCode": "CO" }, "geometry": { "type": "Point", "coordinates": [ -75.741546, 4.555481 ] } },
{ "type": "Feature", "properties": { "decimalLatitude": 11.275332, "decimalLongitude": -73.931592, "eventDate": "2020-03-10T00:00:00Z", "countryCode": "CO" }, "geometry": { "type": "Point", "coordinates": [ -73.931592, 11.275332 ] } },
{ "type": "Feature", "properties": { "decimalLatitude": 5.069532, "decimalLongitude": -74.380305, "eventDate": "2020-05-21T00:00:00Z", "countryCode": "CO" }, "geometry": { "type": "Point", "coordinates": [ -74.380305, 5.069532 ] } },
{ "type": "Feature", "properties": { "decimalLatitude": 4.785789, "decimalLongitude": -75.689736, "eventDate": "2020-06-04T12:42:58Z", "countryCode": "CO" }, "geometry": { "type": "Point", "coordinates": [ -75.689736, 4.785789 ] } },
{ "type": "Feature", "properties": { "decimalLatitude": 17.076337, "decimalLongitude": -88.967186, "eventDate": "2020-09-11T10:18:46Z", "countryCode": "BZ" }, "geometry": { "type": "Point", "coordinates": [ -88.967186, 17.076337 ] } },
{ "type": "Feature", "properties": { "decimalLatitude": 9.195822, "decimalLongitude": -79.775768, "eventDate": "2020-09-27T00:00:00Z", "countryCode": "PA" }, "geometry": { "type": "Point", "coordinates": [ -79.775768, 9.195822 ] } },
{ "type": "Feature", "properties": { "decimalLatitude": 17.074883, "decimalLongitude": -88.96759, "eventDate": "2020-09-11T10:22:00Z", "countryCode": "BZ" }, "geometry": { "type": "Point", "coordinates": [ -88.96759, 17.074883 ] } },
{ "type": "Feature", "properties": { "decimalLatitude": 11.01602, "decimalLongitude": -85.38053, "eventDate": "2020-10-27T00:00:00Z", "countryCode": "CR" }, "geometry": { "type": "Point", "coordinates": [ -85.38053, 11.01602 ] } },
{ "type": "Feature", "properties": { "decimalLatitude": 5.26525, "decimalLongitude": -53.053186, "eventDate": "2021-02-12T15:48:55Z", "countryCode": "GF" }, "geometry": { "type": "Point", "coordinates": [ -53.053186, 5.26525 ] } },
{ "type": "Feature", "properties": { "decimalLatitude": 1.197153, "decimalLongitude": -76.647942, "eventDate": "2021-02-20T00:00:00Z", "countryCode": "CO" }, "geometry": { "type": "Point", "coordinates": [ -76.647942, 1.197153 ] } },
{ "type": "Feature", "properties": { "decimalLatitude": 4.846336, "decimalLongitude": -52.347961, "eventDate": "2021-03-25T10:36:00Z", "countryCode": "GF" }, "geometry": { "type": "Point", "coordinates": [ -52.347961, 4.846336 ] } },
{ "type": "Feature", "properties": { "decimalLatitude": -22.383147, "decimalLongitude": -43.127808, "eventDate": "2021-04-20T14:49:25Z", "countryCode": "BR" }, "geometry": { "type": "Point", "coordinates": [ -43.127808, -22.383147 ] } },
{ "type": "Feature", "properties": { "decimalLatitude": 5.385689, "decimalLongitude": -75.889857, "eventDate": "2021-04-29T08:26:00Z", "countryCode": "CO" }, "geometry": { "type": "Point", "coordinates": [ -75.889857, 5.385689 ] } },
{ "type": "Feature", "properties": { "decimalLatitude": -22.463719, "decimalLongitude": -47.648914, "eventDate": "2021-05-17T12:24:38Z", "countryCode": "BR" }, "geometry": { "type": "Point", "coordinates": [ -47.648914, -22.463719 ] } },
{ "type": "Feature", "properties": { "decimalLatitude": 4.846183, "decimalLongitude": -52.348181, "eventDate": "2021-05-04T14:27:00Z", "countryCode": "GF" }, "geometry": { "type": "Point", "coordinates": [ -52.348181, 4.846183 ] } },
{ "type": "Feature", "properties": { "decimalLatitude": 4.846183, "decimalLongitude": -52.348181, "eventDate": "2021-05-04T14:24:00Z", "countryCode": "GF" }, "geometry": { "type": "Point", "coordinates": [ -52.348181, 4.846183 ] } },
{ "type": "Feature", "properties": { "decimalLatitude": 19.183969, "decimalLongitude": -96.228989, "eventDate": "2021-07-16T16:07:00Z", "countryCode": "MX" }, "geometry": { "type": "Point", "coordinates": [ -96.228989, 19.183969 ] } },
{ "type": "Feature", "properties": { "decimalLatitude": -13.259357, "decimalLongitude": -70.781191, "eventDate": "2021-08-01T12:52:00Z", "countryCode": "PE" }, "geometry": { "type": "Point", "coordinates": [ -70.781191, -13.259357 ] } },
{ "type": "Feature", "properties": { "decimalLatitude": -1.074598, "decimalLongitude": -77.937333, "eventDate": "2021-09-24T15:07:00Z", "countryCode": "EC" }, "geometry": { "type": "Point", "coordinates": [ -77.937333, -1.074598 ] } },
{ "type": "Feature", "properties": { "decimalLatitude": -13.26305, "decimalLongitude": -70.79338, "eventDate": "2021-11-14T00:00:00Z", "countryCode": "PE" }, "geometry": { "type": "Point", "coordinates": [ -70.79338, -13.26305 ] } },
{ "type": "Feature", "properties": { "decimalLatitude": -13.02596, "decimalLongitude": -71.499248, "eventDate": "2021-11-22T12:07:00Z", "countryCode": "PE" }, "geometry": { "type": "Point", "coordinates": [ -71.499248, -13.02596 ] } },
{ "type": "Feature", "properties": { "decimalLatitude": -13.025997, "decimalLongitude": -71.499575, "eventDate": "2021-11-22T10:37:00Z", "countryCode": "PE" }, "geometry": { "type": "Point", "coordinates": [ -71.499575, -13.025997 ] } },
{ "type": "Feature", "properties": { "decimalLatitude": 4.947539, "decimalLongitude": -52.436377, "eventDate": "2021-12-19T10:11:00Z", "countryCode": "GF" }, "geometry": { "type": "Point", "coordinates": [ -52.436377, 4.947539 ] } },
{ "type": "Feature", "properties": { "decimalLatitude": 4.913782, "decimalLongitude": -52.301508, "eventDate": "2021-12-25T15:48:00Z", "countryCode": "GF" }, "geometry": { "type": "Point", "coordinates": [ -52.301508, 4.913782 ] } },
{ "type": "Feature", "properties": { "decimalLatitude": 4.9155, "decimalLongitude": -52.303701, "eventDate": "2021-12-25T14:43:00Z", "countryCode": "GF" }, "geometry": { "type": "Point", "coordinates": [ -52.303701, 4.9155 ] } },
{ "type": "Feature", "properties": { "decimalLatitude": 9.128007, "decimalLongitude": -79.715169, "eventDate": "2023-01-21T00:00:00Z", "countryCode": "PA" }, "geometry": { "type": "Point", "coordinates": [ -79.715169, 9.128007 ] } },
{ "type": "Feature", "properties": { "decimalLatitude": 9.128007, "decimalLongitude": -79.715169, "eventDate": "2023-01-21T00:00:00Z", "countryCode": "PA" }, "geometry": { "type": "Point", "coordinates": [ -79.715169, 9.128007 ] } },
{ "type": "Feature", "properties": { "decimalLatitude": 9.128991, "decimalLongitude": -79.715486, "eventDate": "2023-02-10T14:28:00Z", "countryCode": "PA" }, "geometry": { "type": "Point", "coordinates": [ -79.715486, 9.128991 ] } },
{ "type": "Feature", "properties": { "decimalLatitude": 0.654275, "decimalLongitude": -77.073989, "eventDate": "2023-03-23T16:15:54Z", "countryCode": "CO" }, "geometry": { "type": "Point", "coordinates": [ -77.073989, 0.654275 ] } },
{ "type": "Feature", "properties": { "decimalLatitude": 9.899222, "decimalLongitude": -75.185083, "eventDate": "2023-03-20T00:00:00Z", "countryCode": "CO" }, "geometry": { "type": "Point", "coordinates": [ -75.185083, 9.899222 ] } },
{ "type": "Feature", "properties": { "decimalLatitude": 8.639578, "decimalLongitude": -83.669532, "eventDate": "2023-03-21T10:34:00Z", "countryCode": "CR" }, "geometry": { "type": "Point", "coordinates": [ -83.669532, 8.639578 ] } },
{ "type": "Feature", "properties": { "decimalLatitude": 9.14776, "decimalLongitude": -79.730025, "eventDate": "2023-03-30T14:16:00Z", "countryCode": "PA" }, "geometry": { "type": "Point", "coordinates": [ -79.730025, 9.14776 ] } },
{ "type": "Feature", "properties": { "decimalLatitude": 6.942523, "decimalLongitude": -73.035787, "eventDate": "2023-04-30T13:09:00Z", "countryCode": "CO" }, "geometry": { "type": "Point", "coordinates": [ -73.035787, 6.942523 ] } },
{ "type": "Feature", "properties": { "decimalLatitude": -22.824271, "decimalLongitude": -44.901755, "eventDate": "2023-04-23T10:12:25Z", "countryCode": "BR" }, "geometry": { "type": "Point", "coordinates": [ -44.901755, -22.824271 ] } },
{ "type": "Feature", "properties": { "decimalLatitude": -22.82541, "decimalLongitude": -44.902085, "eventDate": "2023-04-29T11:09:52Z", "countryCode": "BR" }, "geometry": { "type": "Point", "coordinates": [ -44.902085, -22.82541 ] } },
{ "type": "Feature", "properties": { "decimalLatitude": 5.23042, "decimalLongitude": -55.05924, "eventDate": "2023-04-08T07:43:26Z", "countryCode": "SR" }, "geometry": { "type": "Point", "coordinates": [ -55.05924, 5.23042 ] } },
{ "type": "Feature", "properties": { "decimalLatitude": 6.942523, "decimalLongitude": -73.035787, "eventDate": "2023-04-30T13:08:00Z", "countryCode": "CO" }, "geometry": { "type": "Point", "coordinates": [ -73.035787, 6.942523 ] } },
{ "type": "Feature", "properties": { "decimalLatitude": -9.90481, "decimalLongitude": -62.910813, "eventDate": "2023-06-11T10:54:00Z", "countryCode": "BR" }, "geometry": { "type": "Point", "coordinates": [ -62.910813, -9.90481 ] } },
{ "type": "Feature", "properties": { "decimalLatitude": 9.14589, "decimalLongitude": -79.755632, "eventDate": "2023-06-11T09:29:00Z", "countryCode": "PA" }, "geometry": { "type": "Point", "coordinates": [ -79.755632, 9.14589 ] } },
{ "type": "Feature", "properties": { "decimalLatitude": 4.872172, "decimalLongitude": -74.470677, "eventDate": "2023-07-25T11:40:10Z", "countryCode": "CO" }, "geometry": { "type": "Point", "coordinates": [ -74.470677, 4.872172 ] } },
{ "type": "Feature", "properties": { "decimalLatitude": 4.887594, "decimalLongitude": -52.291554, "eventDate": "2023-07-30T11:53:00Z", "countryCode": "GF" }, "geometry": { "type": "Point", "coordinates": [ -52.291554, 4.887594 ] } },
{ "type": "Feature", "properties": { "decimalLatitude": 4.887594, "decimalLongitude": -52.291554, "eventDate": "2023-07-30T11:52:00Z", "countryCode": "GF" }, "geometry": { "type": "Point", "coordinates": [ -52.291554, 4.887594 ] } },
{ "type": "Feature", "properties": { "decimalLatitude": 4.887594, "decimalLongitude": -52.291554, "eventDate": "2023-07-30T11:53:00Z", "countryCode": "GF" }, "geometry": { "type": "Point", "coordinates": [ -52.291554, 4.887594 ] } },
{ "type": "Feature", "properties": { "decimalLatitude": -3.882687, "decimalLongitude": -73.352325, "eventDate": "2023-07-03T12:41:00Z", "countryCode": "PE" }, "geometry": { "type": "Point", "coordinates": [ -73.352325, -3.882687 ] } },
{ "type": "Feature", "properties": { "decimalLatitude": 10.455095, "decimalLongitude": -84.067573, "eventDate": "2023-07-22T15:19:00Z", "countryCode": "CR" }, "geometry": { "type": "Point", "coordinates": [ -84.067573, 10.455095 ] } },
{ "type": "Feature", "properties": { "decimalLatitude": -0.44719, "decimalLongitude": -80.462628, "eventDate": "2023-07-22T12:07:00Z", "countryCode": "EC" }, "geometry": { "type": "Point", "coordinates": [ -80.462628, -0.44719 ] } },
{ "type": "Feature", "properties": { "decimalLatitude": -3.77933, "decimalLongitude": -70.295748, "eventDate": "2023-08-04T20:23:38Z", "countryCode": "CO" }, "geometry": { "type": "Point", "coordinates": [ -70.295748, -3.77933 ] } },
{ "type": "Feature", "properties": { "decimalLatitude": -2.527558, "decimalLongitude": -44.202025, "eventDate": "2023-08-26T08:26:17Z", "countryCode": "BR" }, "geometry": { "type": "Point", "coordinates": [ -44.202025, -2.527558 ] } },
{ "type": "Feature", "properties": { "decimalLatitude": 4.861793, "decimalLongitude": -52.311456, "eventDate": "2023-08-28T11:02:00Z", "countryCode": "GF" }, "geometry": { "type": "Point", "coordinates": [ -52.311456, 4.861793 ] } },
{ "type": "Feature", "properties": { "decimalLatitude": 4.827893, "decimalLongitude": -52.485318, "eventDate": "2023-08-23T09:44:00Z", "countryCode": "GF" }, "geometry": { "type": "Point", "coordinates": [ -52.485318, 4.827893 ] } },
{ "type": "Feature", "properties": { "decimalLatitude": 11.00987, "decimalLongitude": -85.39214, "eventDate": "2023-08-26T00:00:00Z", "countryCode": "CR" }, "geometry": { "type": "Point", "coordinates": [ -85.39214, 11.00987 ] } },
{ "type": "Feature", "properties": { "decimalLatitude": 10.427252, "decimalLongitude": -66.859416, "eventDate": "2023-08-04T10:51:00Z", "countryCode": "VE" }, "geometry": { "type": "Point", "coordinates": [ -66.859416, 10.427252 ] } },
{ "type": "Feature", "properties": { "decimalLatitude": -12.047353, "decimalLongitude": -69.672254, "eventDate": "2023-09-02T12:04:00Z", "countryCode": "PE" }, "geometry": { "type": "Point", "coordinates": [ -69.672254, -12.047353 ] } },
{ "type": "Feature", "properties": { "decimalLatitude": -22.827816, "decimalLongitude": -47.104925, "eventDate": "2023-09-11T19:41:00Z", "countryCode": "BR" }, "geometry": { "type": "Point", "coordinates": [ -47.104925, -22.827816 ] } },
{ "type": "Feature", "properties": { "decimalLatitude": -22.827816, "decimalLongitude": -47.104925, "eventDate": "2023-09-11T19:31:00Z", "countryCode": "BR" }, "geometry": { "type": "Point", "coordinates": [ -47.104925, -22.827816 ] } },
{ "type": "Feature", "properties": { "decimalLatitude": -12.90737, "decimalLongitude": -71.425652, "eventDate": "2023-09-12T12:09:00Z", "countryCode": "PE" }, "geometry": { "type": "Point", "coordinates": [ -71.425652, -12.90737 ] } },
{ "type": "Feature", "properties": { "decimalLatitude": -13.025953, "decimalLongitude": -71.49969, "eventDate": "2023-09-16T09:22:00Z", "countryCode": "PE" }, "geometry": { "type": "Point", "coordinates": [ -71.49969, -13.025953 ] } },
{ "type": "Feature", "properties": { "decimalLatitude": 1.08195, "decimalLongitude": -76.629972, "eventDate": "2023-09-11T12:04:00Z", "countryCode": "CO" }, "geometry": { "type": "Point", "coordinates": [ -76.629972, 1.08195 ] } },
{ "type": "Feature", "properties": { "decimalLatitude": 10.530535, "decimalLongitude": -84.890665, "eventDate": "2023-09-09T10:28:19Z", "countryCode": "CR" }, "geometry": { "type": "Point", "coordinates": [ -84.890665, 10.530535 ] } },
{ "type": "Feature", "properties": { "decimalLatitude": 4.207222, "decimalLongitude": -73.793611, "eventDate": "2023-09-06T11:22:00Z", "countryCode": "CO" }, "geometry": { "type": "Point", "coordinates": [ -73.793611, 4.207222 ] } },
{ "type": "Feature", "properties": { "decimalLatitude": -13.026609, "decimalLongitude": -71.498663, "eventDate": "2023-09-16T11:54:00Z", "countryCode": "PE" }, "geometry": { "type": "Point", "coordinates": [ -71.498663, -13.026609 ] } },
{ "type": "Feature", "properties": { "decimalLatitude": 5.069435, "decimalLongitude": -74.380305, "eventDate": "2023-09-13T10:25:30Z", "countryCode": "CO" }, "geometry": { "type": "Point", "coordinates": [ -74.380305, 5.069435 ] } },
{ "type": "Feature", "properties": { "decimalLatitude": -13.026633, "decimalLongitude": -71.498682, "eventDate": "2023-09-16T11:38:00Z", "countryCode": "PE" }, "geometry": { "type": "Point", "coordinates": [ -71.498682, -13.026633 ] } },
{ "type": "Feature", "properties": { "decimalLatitude": 4.82762, "decimalLongitude": -52.497766, "eventDate": "2023-10-28T08:18:00Z", "countryCode": "GF" }, "geometry": { "type": "Point", "coordinates": [ -52.497766, 4.82762 ] } },
{ "type": "Feature", "properties": { "decimalLatitude": 0.304568, "decimalLongitude": -77.118825, "eventDate": "2023-10-11T13:29:10Z", "countryCode": "EC" }, "geometry": { "type": "Point", "coordinates": [ -77.118825, 0.304568 ] } },
{ "type": "Feature", "properties": { "decimalLatitude": -3.261634, "decimalLongitude": -60.221187, "eventDate": "2023-10-13T09:02:09Z", "countryCode": "BR" }, "geometry": { "type": "Point", "coordinates": [ -60.221187, -3.261634 ] } },
{ "type": "Feature", "properties": { "decimalLatitude": 10.468018, "decimalLongitude": -84.643978, "eventDate": "2023-10-06T11:49:09Z", "countryCode": "CR" }, "geometry": { "type": "Point", "coordinates": [ -84.643978, 10.468018 ] } },
{ "type": "Feature", "properties": { "decimalLatitude": 0.635549, "decimalLongitude": -77.061972, "eventDate": "2023-10-02T11:18:00Z", "countryCode": "CO" }, "geometry": { "type": "Point", "coordinates": [ -77.061972, 0.635549 ] } },
{ "type": "Feature", "properties": { "decimalLatitude": 17.101346, "decimalLongitude": -88.856231, "eventDate": "2023-10-17T10:53:00Z", "countryCode": "BZ" }, "geometry": { "type": "Point", "coordinates": [ -88.856231, 17.101346 ] } },
{ "type": "Feature", "properties": { "decimalLatitude": 6.844595, "decimalLongitude": -73.073639, "eventDate": "2023-10-08T09:51:01Z", "countryCode": "CO" }, "geometry": { "type": "Point", "coordinates": [ -73.073639, 6.844595 ] } },
{ "type": "Feature", "properties": { "decimalLatitude": -2.328684, "decimalLongitude": -79.405678, "eventDate": "2023-11-16T00:16:00Z", "countryCode": "EC" }, "geometry": { "type": "Point", "coordinates": [ -79.405678, -2.328684 ] } },
{ "type": "Feature", "properties": { "decimalLatitude": 9.165129, "decimalLongitude": -79.837047, "eventDate": "2023-11-13T00:00:00Z", "countryCode": "PA" }, "geometry": { "type": "Point", "coordinates": [ -79.837047, 9.165129 ] } },
{ "type": "Feature", "properties": { "decimalLatitude": 9.128487, "decimalLongitude": -79.715328, "eventDate": "2023-12-06T00:00:00Z", "countryCode": "PA" }, "geometry": { "type": "Point", "coordinates": [ -79.715328, 9.128487 ] } },
{ "type": "Feature", "properties": { "decimalLatitude": 8.311781, "decimalLongitude": -77.806943, "eventDate": "2023-12-15T00:00:00Z", "countryCode": "PA" }, "geometry": { "type": "Point", "coordinates": [ -77.806943, 8.311781 ] } },
{ "type": "Feature", "properties": { "decimalLatitude": 9.12031, "decimalLongitude": -79.714693, "eventDate": "2023-12-06T00:00:00Z", "countryCode": "PA" }, "geometry": { "type": "Point", "coordinates": [ -79.714693, 9.12031 ] } },
{ "type": "Feature", "properties": { "decimalLatitude": 9.120612, "decimalLongitude": -79.71511, "eventDate": "2023-12-06T00:00:00Z", "countryCode": "PA" }, "geometry": { "type": "Point", "coordinates": [ -79.71511, 9.120612 ] } },
{ "type": "Feature", "properties": { "decimalLatitude": 4.935845, "decimalLongitude": -52.534871, "eventDate": "2023-12-22T12:02:00Z", "countryCode": "GF" }, "geometry": { "type": "Point", "coordinates": [ -52.534871, 4.935845 ] } },
{ "type": "Feature", "properties": { "decimalLatitude": 4.935845, "decimalLongitude": -52.534871, "eventDate": "2024-01-22T16:02:00Z", "countryCode": "GF" }, "geometry": { "type": "Point", "coordinates": [ -52.534871, 4.935845 ] } },
{ "type": "Feature", "properties": { "decimalLatitude": 18.40316, "decimalLongitude": -89.487243, "eventDate": "2024-01-24T11:09:00Z", "countryCode": "MX" }, "geometry": { "type": "Point", "coordinates": [ -89.487243, 18.40316 ] } },
{ "type": "Feature", "properties": { "decimalLatitude": 4.610214, "decimalLongitude": -52.279011, "eventDate": "2024-02-09T12:20:00Z", "countryCode": "GF" }, "geometry": { "type": "Point", "coordinates": [ -52.279011, 4.610214 ] } },
{ "type": "Feature", "properties": { "decimalLatitude": -22.423934, "decimalLongitude": -43.142568, "eventDate": "2024-02-17T10:53:37Z", "countryCode": "BR" }, "geometry": { "type": "Point", "coordinates": [ -43.142568, -22.423934 ] } },
{ "type": "Feature", "properties": { "decimalLatitude": 8.632248, "decimalLongitude": -83.725559, "eventDate": "2024-02-28T11:48:00Z", "countryCode": "CR" }, "geometry": { "type": "Point", "coordinates": [ -83.725559, 8.632248 ] } },
{ "type": "Feature", "properties": { "decimalLatitude": 4.645581, "decimalLongitude": -55.484502, "eventDate": "2024-02-10T00:00:00Z", "countryCode": "SR" }, "geometry": { "type": "Point", "coordinates": [ -55.484502, 4.645581 ] } },
{ "type": "Feature", "properties": { "decimalLatitude": 4.642917, "decimalLongitude": -55.420335, "eventDate": "2024-02-12T00:00:00Z", "countryCode": "SR" }, "geometry": { "type": "Point", "coordinates": [ -55.420335, 4.642917 ] } },
{ "type": "Feature", "properties": { "decimalLatitude": 9.129483, "decimalLongitude": -79.715726, "eventDate": "2024-03-09T10:47:00Z", "countryCode": "PA" }, "geometry": { "type": "Point", "coordinates": [ -79.715726, 9.129483 ] } },
{ "type": "Feature", "properties": { "decimalLatitude": 9.131648, "decimalLongitude": -79.716686, "eventDate": "2024-03-09T11:15:00Z", "countryCode": "PA" }, "geometry": { "type": "Point", "coordinates": [ -79.716686, 9.131648 ] } },
{ "type": "Feature", "properties": { "decimalLatitude": 5.343853, "decimalLongitude": -55.026898, "eventDate": "2024-03-11T15:09:00Z", "countryCode": "SR" }, "geometry": { "type": "Point", "coordinates": [ -55.026898, 5.343853 ] } },
{ "type": "Feature", "properties": { "decimalLatitude": 10.413889, "decimalLongitude": -84.120311, "eventDate": "2024-03-02T15:42:00Z", "countryCode": "CR" }, "geometry": { "type": "Point", "coordinates": [ -84.120311, 10.413889 ] } },
{ "type": "Feature", "properties": { "decimalLatitude": 4.84721, "decimalLongitude": -52.35155, "eventDate": "2024-03-04T10:36:00Z", "countryCode": "GF" }, "geometry": { "type": "Point", "coordinates": [ -52.35155, 4.84721 ] } },
{ "type": "Feature", "properties": { "decimalLatitude": -20.059427, "decimalLongitude": -43.949626, "eventDate": "2024-04-04T14:28:23Z", "countryCode": "BR" }, "geometry": { "type": "Point", "coordinates": [ -43.949626, -20.059427 ] } },
{ "type": "Feature", "properties": { "decimalLatitude": 4.863033, "decimalLongitude": -52.310833, "eventDate": "2024-04-26T11:08:40Z", "countryCode": "GF" }, "geometry": { "type": "Point", "coordinates": [ -52.310833, 4.863033 ] } },
{ "type": "Feature", "properties": { "decimalLatitude": 4.826488, "decimalLongitude": -52.354102, "eventDate": "2024-04-27T14:57:00Z", "countryCode": "GF" }, "geometry": { "type": "Point", "coordinates": [ -52.354102, 4.826488 ] } },
{ "type": "Feature", "properties": { "decimalLatitude": 4.914562, "decimalLongitude": -52.30232, "eventDate": "2024-04-26T09:46:22Z", "countryCode": "GF" }, "geometry": { "type": "Point", "coordinates": [ -52.30232, 4.914562 ] } },
{ "type": "Feature", "properties": { "decimalLatitude": 9.120835, "decimalLongitude": -79.715996, "eventDate": "2024-05-23T09:18:00Z", "countryCode": "PA" }, "geometry": { "type": "Point", "coordinates": [ -79.715996, 9.120835 ] } },
{ "type": "Feature", "properties": { "decimalLatitude": -3.879673, "decimalLongitude": -73.364496, "eventDate": "2024-05-19T09:55:56Z", "countryCode": "PE" }, "geometry": { "type": "Point", "coordinates": [ -73.364496, -3.879673 ] } },
{ "type": "Feature", "properties": { "decimalLatitude": 9.134252, "decimalLongitude": -79.721779, "eventDate": "2024-06-16T11:16:13Z", "countryCode": "PA" }, "geometry": { "type": "Point", "coordinates": [ -79.721779, 9.134252 ] } },
{ "type": "Feature", "properties": { "decimalLatitude": -2.495983, "decimalLongitude": -44.27429, "eventDate": "2024-06-28T09:51:00Z", "countryCode": "BR" }, "geometry": { "type": "Point", "coordinates": [ -44.27429, -2.495983 ] } },
{ "type": "Feature", "properties": { "decimalLatitude": 16.778985, "decimalLongitude": -88.455122, "eventDate": "2024-06-02T13:47:29Z", "countryCode": "BZ" }, "geometry": { "type": "Point", "coordinates": [ -88.455122, 16.778985 ] } },
{ "type": "Feature", "properties": { "decimalLatitude": 5.032417, "decimalLongitude": -74.252199, "eventDate": "2024-06-08T11:59:00Z", "countryCode": "CO" }, "geometry": { "type": "Point", "coordinates": [ -74.252199, 5.032417 ] } },
{ "type": "Feature", "properties": { "decimalLatitude": 8.622303, "decimalLongitude": -80.139698, "eventDate": "2024-06-20T10:11:40Z", "countryCode": "PA" }, "geometry": { "type": "Point", "coordinates": [ -80.139698, 8.622303 ] } },
{ "type": "Feature", "properties": { "decimalLatitude": 9.386892, "decimalLongitude": -83.723198, "eventDate": "2024-07-29T15:38:00Z", "countryCode": "CR" }, "geometry": { "type": "Point", "coordinates": [ -83.723198, 9.386892 ] } },
{ "type": "Feature", "properties": { "decimalLatitude": 6.844455, "decimalLongitude": -73.075097, "eventDate": "2024-07-07T15:04:19Z", "countryCode": "CO" }, "geometry": { "type": "Point", "coordinates": [ -73.075097, 6.844455 ] } },
{ "type": "Feature", "properties": { "decimalLatitude": 8.629521, "decimalLongitude": -80.116124, "eventDate": "2024-08-14T00:00:00Z", "countryCode": "PA" }, "geometry": { "type": "Point", "coordinates": [ -80.116124, 8.629521 ] } },
{ "type": "Feature", "properties": { "decimalLatitude": 8.629521, "decimalLongitude": -80.116124, "eventDate": "2024-08-14T00:00:00Z", "countryCode": "PA" }, "geometry": { "type": "Point", "coordinates": [ -80.116124, 8.629521 ] } },
{ "type": "Feature", "properties": { "decimalLatitude": 6.843505, "decimalLongitude": -73.073052, "eventDate": "2024-08-04T15:04:02Z", "countryCode": "CO" }, "geometry": { "type": "Point", "coordinates": [ -73.073052, 6.843505 ] } },
{ "type": "Feature", "properties": { "decimalLatitude": -6.074214, "decimalLongitude": -76.978289, "eventDate": "2024-08-07T12:10:00Z", "countryCode": "PE" }, "geometry": { "type": "Point", "coordinates": [ -76.978289, -6.074214 ] } },
{ "type": "Feature", "properties": { "decimalLatitude": 8.632445, "decimalLongitude": -80.116795, "eventDate": "2024-08-14T10:08:00Z", "countryCode": "PA" }, "geometry": { "type": "Point", "coordinates": [ -80.116795, 8.632445 ] } },
{ "type": "Feature", "properties": { "decimalLatitude": 8.626297, "decimalLongitude": -80.138259, "eventDate": "2024-09-24T00:00:00Z", "countryCode": "PA" }, "geometry": { "type": "Point", "coordinates": [ -80.138259, 8.626297 ] } },
{ "type": "Feature", "properties": { "decimalLatitude": 0.990598, "decimalLongitude": -76.652352, "eventDate": "2024-09-14T12:58:00Z", "countryCode": "CO" }, "geometry": { "type": "Point", "coordinates": [ -76.652352, 0.990598 ] } },
{ "type": "Feature", "properties": { "decimalLatitude": 0.990516, "decimalLongitude": -76.652251, "eventDate": "2024-09-14T13:03:00Z", "countryCode": "CO" }, "geometry": { "type": "Point", "coordinates": [ -76.652251, 0.990516 ] } },
{ "type": "Feature", "properties": { "decimalLatitude": 17.136318, "decimalLongitude": -88.895177, "eventDate": "2024-09-18T11:06:00Z", "countryCode": "BZ" }, "geometry": { "type": "Point", "coordinates": [ -88.895177, 17.136318 ] } },
{ "type": "Feature", "properties": { "decimalLatitude": 0.640762, "decimalLongitude": -77.048176, "eventDate": "2024-09-22T14:38:00Z", "countryCode": "CO" }, "geometry": { "type": "Point", "coordinates": [ -77.048176, 0.640762 ] } },
{ "type": "Feature", "properties": { "decimalLatitude": -9.441039, "decimalLongitude": -75.995284, "eventDate": "2024-10-18T10:26:29Z", "countryCode": "PE" }, "geometry": { "type": "Point", "coordinates": [ -75.995284, -9.441039 ] } },
{ "type": "Feature", "properties": { "decimalLatitude": 9.57699, "decimalLongitude": -73.272113, "eventDate": "2024-11-20T00:00:00Z", "countryCode": "CO" }, "geometry": { "type": "Point", "coordinates": [ -73.272113, 9.57699 ] } },
{ "type": "Feature", "properties": { "decimalLatitude": 6.844455, "decimalLongitude": -73.075097, "eventDate": "2024-11-17T11:16:26Z", "countryCode": "CO" }, "geometry": { "type": "Point", "coordinates": [ -73.075097, 6.844455 ] } },
{ "type": "Feature", "properties": { "decimalLatitude": 5.383802, "decimalLongitude": -53.202365, "eventDate": "2024-12-29T15:44:00Z", "countryCode": "GF" }, "geometry": { "type": "Point", "coordinates": [ -53.202365, 5.383802 ] } },
{ "type": "Feature", "properties": { "decimalLatitude": 4.279986, "decimalLongitude": -52.451268, "eventDate": "2024-12-07T15:38:00Z", "countryCode": "GF" }, "geometry": { "type": "Point", "coordinates": [ -52.451268, 4.279986 ] } },
{ "type": "Feature", "properties": { "decimalLatitude": 5.383849, "decimalLongitude": -53.202375, "eventDate": "2024-12-29T15:43:00Z", "countryCode": "GF" }, "geometry": { "type": "Point", "coordinates": [ -53.202375, 5.383849 ] } },
{ "type": "Feature", "properties": { "decimalLatitude": 5.292839, "decimalLongitude": -53.052219, "eventDate": "2025-01-01T15:45:00Z", "countryCode": "GF" }, "geometry": { "type": "Point", "coordinates": [ -53.052219, 5.292839 ] } },
{ "type": "Feature", "properties": { "decimalLatitude": 9.957767, "decimalLongitude": -83.561393, "eventDate": "2025-01-12T10:49:00Z", "countryCode": "CR" }, "geometry": { "type": "Point", "coordinates": [ -83.561393, 9.957767 ] } },
{ "type": "Feature", "properties": { "decimalLatitude": 0.642256, "decimalLongitude": -77.049482, "eventDate": "2025-01-21T00:00:00Z", "countryCode": "CO" }, "geometry": { "type": "Point", "coordinates": [ -77.049482, 0.642256 ] } },
{ "type": "Feature", "properties": { "decimalLatitude": 1.248913, "decimalLongitude": -70.225207, "eventDate": "2025-02-16T17:34:00Z", "countryCode": "CO" }, "geometry": { "type": "Point", "coordinates": [ -70.225207, 1.248913 ] } },
{ "type": "Feature", "properties": { "decimalLatitude": 14.872057, "decimalLongitude": -87.904401, "eventDate": "2025-03-13T15:54:00Z", "countryCode": "HN" }, "geometry": { "type": "Point", "coordinates": [ -87.904401, 14.872057 ] } },
{ "type": "Feature", "properties": { "decimalLatitude": -22.836168, "decimalLongitude": -47.104851, "eventDate": "2025-04-01T10:49:00Z", "countryCode": "BR" }, "geometry": { "type": "Point", "coordinates": [ -47.104851, -22.836168 ] } },
{ "type": "Feature", "properties": { "decimalLatitude": -22.862489, "decimalLongitude": -47.101465, "eventDate": "2025-04-16T14:41:47Z", "countryCode": "BR" }, "geometry": { "type": "Point", "coordinates": [ -47.101465, -22.862489 ] } },
{ "type": "Feature", "properties": { "decimalLatitude": 9.127682, "decimalLongitude": -79.778275, "eventDate": "2025-05-16T00:00:00Z", "countryCode": "PA" }, "geometry": { "type": "Point", "coordinates": [ -79.778275, 9.127682 ] } },
{ "type": "Feature", "properties": { "decimalLatitude": 9.116279, "decimalLongitude": -79.700409, "eventDate": "2025-05-16T00:00:00Z", "countryCode": "PA" }, "geometry": { "type": "Point", "coordinates": [ -79.700409, 9.116279 ] } },
{ "type": "Feature", "properties": { "decimalLatitude": 9.128487, "decimalLongitude": -79.715328, "eventDate": "2025-05-18T00:00:00Z", "countryCode": "PA" }, "geometry": { "type": "Point", "coordinates": [ -79.715328, 9.128487 ] } },
{ "type": "Feature", "properties": { "decimalLatitude": 9.164212, "decimalLongitude": -79.840453, "eventDate": "2025-05-17T09:09:08Z", "countryCode": "PA" }, "geometry": { "type": "Point", "coordinates": [ -79.840453, 9.164212 ] } },
{ "type": "Feature", "properties": { "decimalLatitude": 9.120835, "decimalLongitude": -79.715996, "eventDate": "2025-05-18T07:49:00Z", "countryCode": "PA" }, "geometry": { "type": "Point", "coordinates": [ -79.715996, 9.120835 ] } },
{ "type": "Feature", "properties": { "decimalLatitude": 9.131388, "decimalLongitude": -79.716394, "eventDate": "2025-05-18T05:54:00Z", "countryCode": "PA" }, "geometry": { "type": "Point", "coordinates": [ -79.716394, 9.131388 ] } },
{ "type": "Feature", "properties": { "decimalLatitude": 6.844455, "decimalLongitude": -73.075097, "eventDate": "2025-06-14T13:16:43Z", "countryCode": "CO" }, "geometry": { "type": "Point", "coordinates": [ -73.075097, 6.844455 ] } },
{ "type": "Feature", "properties": { "decimalLatitude": 1.269774, "decimalLongitude": -70.194509, "eventDate": "2025-07-13T11:58:29Z", "countryCode": "CO" }, "geometry": { "type": "Point", "coordinates": [ -70.194509, 1.269774 ] } },
{ "type": "Feature", "properties": { "decimalLatitude": 4.862245, "decimalLongitude": -52.509103, "eventDate": "2025-07-21T12:20:00Z", "countryCode": "GF" }, "geometry": { "type": "Point", "coordinates": [ -52.509103, 4.862245 ] } },
{ "type": "Feature", "properties": { "decimalLatitude": 5.234856, "decimalLongitude": -76.089672, "eventDate": "2025-08-06T10:59:00Z", "countryCode": "CO" }, "geometry": { "type": "Point", "coordinates": [ -76.089672, 5.234856 ] } },
{ "type": "Feature", "properties": { "decimalLatitude": 10.691444, "decimalLongitude": -84.993845, "eventDate": "2025-08-29T14:26:32Z", "countryCode": "CR" }, "geometry": { "type": "Point", "coordinates": [ -84.993845, 10.691444 ] } },
{ "type": "Feature", "properties": { "decimalLatitude": 10.703808, "decimalLongitude": -61.622814, "eventDate": "2025-09-01T11:31:00Z", "countryCode": "TT" }, "geometry": { "type": "Point", "coordinates": [ -61.622814, 10.703808 ] } },
{ "type": "Feature", "properties": { "decimalLatitude": 3.805048, "decimalLongitude": -51.887249, "eventDate": "2025-09-21T08:55:18Z", "countryCode": "GF" }, "geometry": { "type": "Point", "coordinates": [ -51.887249, 3.805048 ] } },
{ "type": "Feature", "properties": { "decimalLatitude": -8.510793, "decimalLongitude": -71.045448, "eventDate": "2025-09-22T12:03:00Z", "countryCode": "BR" }, "geometry": { "type": "Point", "coordinates": [ -71.045448, -8.510793 ] } },
{ "type": "Feature", "properties": { "decimalLatitude": 4.827074, "decimalLongitude": -52.48414, "eventDate": "2025-09-28T09:56:00Z", "countryCode": "GF" }, "geometry": { "type": "Point", "coordinates": [ -52.48414, 4.827074 ] } },
{ "type": "Feature", "properties": { "decimalLatitude": -13.26048, "decimalLongitude": -70.78395, "eventDate": "2025-09-15T11:46:00Z", "countryCode": "PE" }, "geometry": { "type": "Point", "coordinates": [ -70.78395, -13.26048 ] } },
{ "type": "Feature", "properties": { "decimalLatitude": 4.459727, "decimalLongitude": -61.146097, "eventDate": "2025-09-22T12:42:00Z", "countryCode": "BR" }, "geometry": { "type": "Point", "coordinates": [ -61.146097, 4.459727 ] } },
{ "type": "Feature", "properties": { "decimalLatitude": 15.575337, "decimalLongitude": -87.635359, "eventDate": "2025-09-30T09:58:00Z", "countryCode": "HN" }, "geometry": { "type": "Point", "coordinates": [ -87.635359, 15.575337 ] } },
{ "type": "Feature", "properties": { "decimalLatitude": -13.26048, "decimalLongitude": -70.78395, "eventDate": "2025-09-15T10:41:00Z", "countryCode": "PE" }, "geometry": { "type": "Point", "coordinates": [ -70.78395, -13.26048 ] } },
{ "type": "Feature", "properties": { "decimalLatitude": -13.260296, "decimalLongitude": -70.784017, "eventDate": "2025-09-15T10:28:00Z", "countryCode": "PE" }, "geometry": { "type": "Point", "coordinates": [ -70.784017, -13.260296 ] } },
{ "type": "Feature", "properties": { "decimalLatitude": 4.825705, "decimalLongitude": -52.497808, "eventDate": "2025-10-05T08:45:00Z", "countryCode": "GF" }, "geometry": { "type": "Point", "coordinates": [ -52.497808, 4.825705 ] } },
{ "type": "Feature", "properties": { "decimalLatitude": -22.408972, "decimalLongitude": -42.972552, "eventDate": "2025-10-06T07:45:05Z", "countryCode": "BR" }, "geometry": { "type": "Point", "coordinates": [ -42.972552, -22.408972 ] } },
{ "type": "Feature", "properties": { "decimalLatitude": -12.894981, "decimalLongitude": -71.403713, "eventDate": "2025-10-23T09:54:00Z", "countryCode": "PE" }, "geometry": { "type": "Point", "coordinates": [ -71.403713, -12.894981 ] } },
{ "type": "Feature", "properties": { "decimalLatitude": -6.447953, "decimalLongitude": -76.353275, "eventDate": "2025-10-07T11:32:25Z", "countryCode": "PE" }, "geometry": { "type": "Point", "coordinates": [ -76.353275, -6.447953 ] } },
{ "type": "Feature", "properties": { "decimalLatitude": 3.754588, "decimalLongitude": -61.715624, "eventDate": "2025-11-21T15:21:20Z", "countryCode": "BR" }, "geometry": { "type": "Point", "coordinates": [ -61.715624, 3.754588 ] } },
{ "type": "Feature", "properties": { "decimalLatitude": -0.675521, "decimalLongitude": -77.601383, "eventDate": "2025-11-21T08:01:00Z", "countryCode": "EC" }, "geometry": { "type": "Point", "coordinates": [ -77.601383, -0.675521 ] } },
{ "type": "Feature", "properties": { "decimalLatitude": 4.987947, "decimalLongitude": -55.149479, "eventDate": "2025-11-23T00:00:00Z", "countryCode": "SR" }, "geometry": { "type": "Point", "coordinates": [ -55.149479, 4.987947 ] } },
{ "type": "Feature", "properties": { "decimalLatitude": 4.98608, "decimalLongitude": -55.149297, "eventDate": "2025-11-23T00:00:00Z", "countryCode": "SR" }, "geometry": { "type": "Point", "coordinates": [ -55.149297, 4.98608 ] } },
{ "type": "Feature", "properties": { "decimalLatitude": 5.424944, "decimalLongitude": -55.192952, "eventDate": "2025-11-20T00:00:00Z", "countryCode": "SR" }, "geometry": { "type": "Point", "coordinates": [ -55.192952, 5.424944 ] } },
{ "type": "Feature", "properties": { "decimalLatitude": -12.894606, "decimalLongitude": -71.408936, "eventDate": "2025-12-28T10:12:59Z", "countryCode": "PE" }, "geometry": { "type": "Point", "coordinates": [ -71.408936, -12.894606 ] } },
{ "type": "Feature", "properties": { "decimalLatitude": 5.989517, "decimalLongitude": -74.932925, "eventDate": "2025-12-20T13:46:00Z", "countryCode": "CO" }, "geometry": { "type": "Point", "coordinates": [ -74.932925, 5.989517 ] } },
{ "type": "Feature", "properties": { "decimalLatitude": -13.025648, "decimalLongitude": -71.499646, "eventDate": "2025-12-22T12:05:00Z", "countryCode": "PE" }, "geometry": { "type": "Point", "coordinates": [ -71.499646, -13.025648 ] } },
{ "type": "Feature", "properties": { "decimalLatitude": -12.894525, "decimalLongitude": -71.405805, "eventDate": "2025-12-28T10:36:00Z", "countryCode": "PE" }, "geometry": { "type": "Point", "coordinates": [ -71.405805, -12.894525 ] } },
{ "type": "Feature", "properties": { "decimalLatitude": -12.894525, "decimalLongitude": -71.405805, "eventDate": "2025-12-28T10:50:00Z", "countryCode": "PE" }, "geometry": { "type": "Point", "coordinates": [ -71.405805, -12.894525 ] } },
{ "type": "Feature", "properties": { "decimalLatitude": -12.894525, "decimalLongitude": -71.405805, "eventDate": "2025-12-28T08:43:00Z", "countryCode": "PE" }, "geometry": { "type": "Point", "coordinates": [ -71.405805, -12.894525 ] } },
{ "type": "Feature", "properties": { "decimalLatitude": -12.892937, "decimalLongitude": -71.404088, "eventDate": "2025-12-31T14:28:00Z", "countryCode": "PE" }, "geometry": { "type": "Point", "coordinates": [ -71.404088, -12.892937 ] } }
]
}
